{"type":"FeatureCollection","features":[{"type":"Feature","geometry":{"type":"Point","coordinates":[-116.92265,54.35701]},"properties":{"r":26056.7,"o":"PEMBINA GAS INFRASTRUCTURE INC.","n":"DUVERNAY CONDENSATE STABILIZATION","l":"14-28-062-20W5","t":"GS"}},{"type":"Feature","geometry":{"type":"Point","coordinates":[-119.04462,54.7936]},"properties":{"r":20892.9,"o":"KEYERA ENERGY LTD.","n":"KEYERA WAPITI GAS PLANT","l":"03-19-067-07W6","t":"GP"}},{"type":"Feature","geometry":{"type":"Point","coordinates":[-116.62853,54.21204]},"properties":{"r":13973.2,"o":"WHITECAP RESOURCES INC.","n":"Kaybob 15-07 Gas Plant","l":"15-07-060-18W5","t":"GP"}},{"type":"Feature","geometry":{"type":"Point","coordinates":[-114.77512,52.26497]},"properties":{"r":12597.8,"o":"PARAMOUNT RESOURCES LTD.","n":"PARA ALHAMBRA 01-32-038-06W5 GP","l":"01-32-038-06W5","t":"GP"}},{"type":"Feature","geometry":{"type":"Point","coordinates":[-119.1809,55.32546]},"properties":{"r":12422.3,"o":"KEYERA ENERGY LTD.","n":"KEYERA PIPESTONE 04-07 GAS PLANT","l":"04-07-073-08W6","t":"GP"}},{"type":"Feature","geometry":{"type":"Point","coordinates":[-118.41464,54.38664]},"properties":{"r":12419.8,"o":"ARC RESOURCES LTD.","n":"JAYAR 6-8-62-3 W6","l":"06-08-062-03W6","t":"GP"}},{"type":"Feature","geometry":{"type":"Point","coordinates":[-118.52642,54.71354]},"properties":{"r":11037.6,"o":"CSV MIDSTREAM SOLUTIONS CORP.","n":"CSV Karr Gas Plant","l":"06-18-066-04W6","t":"GP"}},{"type":"Feature","geometry":{"type":"Point","coordinates":[-117.75146,54.48188]},"properties":{"r":10848.3,"o":"KEYERA ENERGY LTD.","n":"KEYERA SIMONETTE GAS PLANT 09-06","l":"09-06-063-25W5","t":"GP"}},{"type":"Feature","geometry":{"type":"Point","coordinates":[-116.95004,54.45921]},"properties":{"r":10287.8,"o":"WHITECAP PARTNERSHIP","n":"Fox Creek Kaybob 05-33-063-20W5","l":"05-33-063-20W5","t":"GS"}},{"type":"Feature","geometry":{"type":"Point","coordinates":[-118.6657,54.77844]},"properties":{"r":10023.6,"o":"CANADIAN NATURAL RESOURCES LIMITED","n":"GOLD CREEK 13-26-067-05W6","l":"13-26-067-05W6","t":"GP"}},{"type":"Feature","geometry":{"type":"Point","coordinates":[-116.95004,54.45921]},"properties":{"r":8601.2,"o":"ATHABASCA OIL CORPORATION","n":"AOC KAYBOB - SIMONETTE 12\" GGS","l":"07-14-063-20W5","t":"GS"}},{"type":"Feature","geometry":{"type":"Point","coordinates":[-119.32638,55.18243]},"properties":{"r":7603.2,"o":"PEMBINA GAS INFRASTRUCTURE INC.","n":"Pipestone North 16-28-71-09W6 GS","l":"16-28-071-09W6","t":"GS"}},{"type":"Feature","geometry":{"type":"Point","coordinates":[-117.39031,54.36928]},"properties":{"r":7449.8,"o":"PEMBINA GAS INFRASTRUCTURE INC.","n":"WASKAHIGAN MGS 10-29-062-23W5","l":"10-29-062-23W5","t":"GS"}},{"type":"Feature","geometry":{"type":"Point","coordinates":[-119.07713,55.52517]},"properties":{"r":6456.1,"o":"OVINTIV CANADA ULC","n":"AEC SADDLE HILLS","l":"04-08-075-07W6","t":"GP"}},{"type":"Feature","geometry":{"type":"Point","coordinates":[-117.39907,54.47783]},"properties":{"r":4610.7,"o":"KIWETINOHK ENERGY CORP.","n":"Simonette 10-29 Gas Plant","l":"10-29-063-23W5","t":"GP"}},{"type":"Feature","geometry":{"type":"Point","coordinates":[-119.04462,54.7936]},"properties":{"r":4219.7,"o":"PEMBINA GAS INFRASTRUCTURE INC.","n":"WAPITI GAS PLANT","l":"07-35-067-07W6","t":"GP"}},{"type":"Feature","geometry":{"type":"Point","coordinates":[-117.04957,54.37737]},"properties":{"r":3996.9,"o":"PETROCHINA DUVERNAY GAS PARTNERSHIP","n":"PCC Simonette 15-31-62-21w5 GP","l":"15-31-062-21W5","t":"GP"}},{"type":"Feature","geometry":{"type":"Point","coordinates":[-116.92265,54.35701]},"properties":{"r":3379.6,"o":"PEMBINA GAS INFRASTRUCTURE INC.","n":"PGI Kaybob Amalgamated","l":"01-12-062-20W5","t":"GP"}},{"type":"Feature","geometry":{"type":"Point","coordinates":[-119.29177,55.06879]},"properties":{"r":3370.1,"o":"ALTAGAS LTD.","n":"PIPESTONE 12-35-070-09W6 GAS PLANT","l":"12-35-070-09W6","t":"GP"}},{"type":"Feature","geometry":{"type":"Point","coordinates":[-119.29896,55.24409]},"properties":{"r":2917.2,"o":"CSV MIDSTREAM SOLUTIONS CORP.","n":"CSV Albright 13-34 Sulphur Rec GP","l":"13-34-072-09W6","t":"GP"}},{"type":"Feature","geometry":{"type":"Point","coordinates":[-119.15859,55.08226]},"properties":{"r":2707.8,"o":"OVINTIV CANADA ULC","n":"Pipestone South 14-17-70-08W6 GS","l":"14-17-070-08W6","t":"GS"}},{"type":"Feature","geometry":{"type":"Point","coordinates":[-114.10435,52.80922]},"properties":{"r":2669.3,"o":"KEYERA ENERGY LTD.","n":"KEYERA HOMEGLEN-RIMBEY 2-05-44-01W5","l":"02-05-044-01W5","t":"GP"}},{"type":"Feature","geometry":{"type":"Point","coordinates":[-117.54812,54.35804]},"properties":{"r":2631.7,"o":"KIWETINOHK ENERGY CORP.","n":"Kaybob 5-31 Gas Plant","l":"05-31-062-24W5","t":"GP"}},{"type":"Feature","geometry":{"type":"Point","coordinates":[-115.18923,52.20547]},"properties":{"r":2518.1,"o":"KEYERA ENERGY LTD.","n":"KEYERA STRACHAN 11-35-037-09W5","l":"11-35-037-09W5","t":"GP"}},{"type":"Feature","geometry":{"type":"Point","coordinates":[-119.1809,55.32546]},"properties":{"r":2150.2,"o":"OVINTIV CANADA ULC","n":"WEMBLEY 06-19-073-08W6","l":"06-19-073-08W6","t":"GP"}},{"type":"Feature","geometry":{"type":"Point","coordinates":[-118.67915,54.45086]},"properties":{"r":2143.3,"o":"ORLEN UPSTREAM CANADA LTD.","n":"Orlen Kakwa 16-07-063-05W6 Gas Plant","l":"16-07-063-05W6","t":"GP"}},{"type":"Feature","geometry":{"type":"Point","coordinates":[-114.6591,52.37445]},"properties":{"r":2140.7,"o":"PARAMOUNT RESOURCES LTD.","n":"PARA WILLESDEN GREEN","l":"15-31-039-05W5","t":"GP"}},{"type":"Feature","geometry":{"type":"Point","coordinates":[-116.63019,54.08438]},"properties":{"r":2110.6,"o":"PEMBINA GAS INFRASTRUCTURE INC.","n":"PGI Kaybob South #3","l":"03-15-059-18W5","t":"GP"}},{"type":"Feature","geometry":{"type":"Point","coordinates":[-119.16739,54.88734]},"properties":{"r":1893.4,"o":"OVINTIV CANADA ULC","n":"Elmworth 08-10-68-08W6 GS","l":"08-10-068-08W6","t":"GS"}},{"type":"Feature","geometry":{"type":"Point","coordinates":[-118.34742,54.17986]},"properties":{"r":1859.1,"o":"PEMBINA GAS INFRASTRUCTURE INC.","n":"Resthaven 8-11-60-3W6 GP","l":"08-11-060-03W6","t":"GP"}},{"type":"Feature","geometry":{"type":"Point","coordinates":[-119.77432,55.766]},"properties":{"r":1853.0,"o":"BIRCHCLIFF ENERGY LTD.","n":"PCS 03-22-078-12W6 GP ABGP 0106663","l":"03-22-078-12W6","t":"GP"}},{"type":"Feature","geometry":{"type":"Point","coordinates":[-118.79781,54.36898]},"properties":{"r":1843.0,"o":"TOURMALINE OIL CORP.","n":"MUSREAU GP 02/08-13-062-06W6M","l":"08-13-062-06W6","t":"GP"}},{"type":"Feature","geometry":{"type":"Point","coordinates":[-115.11753,52.89801]},"properties":{"r":1716.9,"o":"SPARTAN DELTA CORP.","n":"SPARTAN ALDERFLATS 10-09-045-08W5","l":"10-09-045-08W5","t":"GP"}},{"type":"Feature","geometry":{"type":"Point","coordinates":[-117.09488,54.55357]},"properties":{"r":1621.2,"o":"WHITECAP PARTNERSHIP","n":"TRILOGY SMOKY RIVER 06-16 GPL","l":"06-16-064-21W5","t":"GP"}},{"type":"Feature","geometry":{"type":"Point","coordinates":[-119.16739,54.88734]},"properties":{"r":1526.3,"o":"SINOPEC CANADA ENERGY LTD.","n":"00/07-22-068-08W6 Wapiti GS","l":"07-22-068-08W6","t":"GS"}},{"type":"Feature","geometry":{"type":"Point","coordinates":[-118.79781,54.36898]},"properties":{"r":1440.4,"o":"PEMBINA GAS INFRASTRUCTURE INC.","n":"MUSREAU 4-25-62-6W6","l":"04-25-062-06W6","t":"GP"}},{"type":"Feature","geometry":{"type":"Point","coordinates":[-116.67404,54.46624]},"properties":{"r":1303.8,"o":"WHITECAP PARTNERSHIP","n":"VRN Fox Creek Booster #2","l":"14-16-063-18W5","t":"GS"}},{"type":"Feature","geometry":{"type":"Point","coordinates":[-117.53183,54.11704]},"properties":{"r":1181.4,"o":"TOURMALINE OIL CORP.","n":"BERLAND SWEET PLANT  14-15-59-24W5","l":"14-15-059-24W5","t":"GP"}},{"type":"Feature","geometry":{"type":"Point","coordinates":[-118.79781,54.36898]},"properties":{"r":1161.0,"o":"PEMBINA GAS INFRASTRUCTURE INC.","n":"MUSREAU II  9-26-62-6W6","l":"09-26-062-06W6","t":"GP"}},{"type":"Feature","geometry":{"type":"Point","coordinates":[-110.06345,50.66987]},"properties":{"r":1151.2,"o":"PEMBINA NGL CORPORATION","n":"PANCDN EMPRESS","l":"16-02-020-01W4","t":"GP"}},{"type":"Feature","geometry":{"type":"Point","coordinates":[-115.49136,52.53287]},"properties":{"r":1149.5,"o":"PEYTO EXPLORATION & DEVELOPMENT CORP.","n":"PEYTO CHAMBERS GP 2-15-41-11W5","l":"02-15-041-11W5","t":"GP"}},{"type":"Feature","geometry":{"type":"Point","coordinates":[-118.99288,55.0838]},"properties":{"r":1103.8,"o":"CANADIAN NATURAL RESOURCES LIMITED","n":"ELMWORTH 12-14-70-7w6","l":"12-14-070-07W6","t":"GS"}},{"type":"Feature","geometry":{"type":"Point","coordinates":[-119.5218,55.7559]},"properties":{"r":1101.9,"o":"CANADIAN NATURAL RESOURCES LIMITED","n":"PROGRESS 1-1-78-10w6","l":"01-01-078-10W6","t":"GP"}},{"type":"Feature","geometry":{"type":"Point","coordinates":[-119.74632,55.40106]},"properties":{"r":1091.0,"o":"PEMBINA GAS INFRASTRUCTURE INC.","n":"VERESEN HYTHE 11-18-074-12W6 GP","l":"11-18-074-12W6","t":"GP"}},{"type":"Feature","geometry":{"type":"Point","coordinates":[-117.39933,54.1939]},"properties":{"r":1023.1,"o":"KIWETINOHK ENERGY CORP.","n":"DELPHI BIGSTONE 7-11-60-23 W5 GS","l":"07-11-060-23W5","t":"GS"}},{"type":"Feature","geometry":{"type":"Point","coordinates":[-115.92862,53.00443]},"properties":{"r":1000.7,"o":"KEYERA ENERGY LTD.","n":"KEYERA BRAZEAU EAST 6-12-046-14W5","l":"06-12-046-14W5","t":"GP"}},{"type":"Feature","geometry":{"type":"Point","coordinates":[-119.44861,55.50401]},"properties":{"r":974.3,"o":"ADVANTAGE ENERGY LTD.","n":"VALHALLA 13-16 COMPRESSOR","l":"13-16-075-10W6","t":"GS"}},{"type":"Feature","geometry":{"type":"Point","coordinates":[-114.5899,51.16567]},"properties":{"r":961.0,"o":"CAVVY PRODUCTION LTD.","n":"SHELL JUMPING POUND","l":"13-13-025-05W5","t":"GP"}},{"type":"Feature","geometry":{"type":"Point","coordinates":[-114.7729,51.91032]},"properties":{"r":920.1,"o":"CAVVY PRODUCTION LTD.","n":"CAVVY CAROLINE","l":"12-35-034-06W5","t":"GP"}},{"type":"Feature","geometry":{"type":"Point","coordinates":[-115.37649,52.85699]},"properties":{"r":911.4,"o":"CENOVUS ENERGY INC.","n":"BURLINGTON SAND CREEK","l":"06-25-045-10W5","t":"GP"}},{"type":"Feature","geometry":{"type":"Point","coordinates":[-115.50336,52.82422]},"properties":{"r":904.7,"o":"TAQA NORTH LTD.","n":"Sunchild 01-04-044-11W5 Gas Plant","l":"01-04-044-11W5","t":"GP"}},{"type":"Feature","geometry":{"type":"Point","coordinates":[-119.24356,54.82262]},"properties":{"r":901.5,"o":"CANADIAN NATURAL RESOURCES LIMITED","n":"WAPITI 16-36-067-09W6","l":"16-36-067-09W6","t":"GP"}},{"type":"Feature","geometry":{"type":"Point","coordinates":[-116.60727,53.6069]},"properties":{"r":898.7,"o":"PEYTO EXPLORATION & DEVELOPMENT CORP.","n":"EDSON 04-11-053-18W5 GP","l":"04-11-053-18W5","t":"GP"}},{"type":"Feature","geometry":{"type":"Point","coordinates":[-114.77666,52.69659]},"properties":{"r":872.8,"o":"SPARTAN DELTA CORP.","n":"Rose Creek-08-05-043-06 W5M","l":"08-05-043-06W5","t":"GS"}},{"type":"Feature","geometry":{"type":"Point","coordinates":[-116.45673,54.26539]},"properties":{"r":815.0,"o":"WHITECAP PARTNERSHIP","n":"Fox Ck 04-24-061-17W5 (FC 601) GS","l":"04-24-061-17W5","t":"GS"}},{"type":"Feature","geometry":{"type":"Point","coordinates":[-116.99832,53.32398]},"properties":{"r":778.6,"o":"TOURMALINE OIL CORP.","n":"BANSHEE 15-12 GAS PLANT","l":"15-12-050-21W5","t":"GP"}},{"type":"Feature","geometry":{"type":"Point","coordinates":[-116.76171,53.58339]},"properties":{"r":772.6,"o":"PEYTO EXPLORATION & DEVELOPMENT CORP.","n":"Open Range Ansell 12-31 Gas Plant","l":"12-31-053-19W5","t":"GP"}},{"type":"Feature","geometry":{"type":"Point","coordinates":[-116.07357,52.78407]},"properties":{"r":755.5,"o":"TOURMALINE OIL CORP.","n":"Columbia 15-36-044-15W5 Gas Plant","l":"15-36-044-15W5","t":"GP"}},{"type":"Feature","geometry":{"type":"Point","coordinates":[-118.4049,54.70412]},"properties":{"r":744.1,"o":"PEMBINA GAS INFRASTRUCTURE INC.","n":"Patterson Creek Gas Plt 11-21-66-3W6","l":"11-21-066-03W6","t":"GP"}},{"type":"Feature","geometry":{"type":"Point","coordinates":[-115.76621,52.79706]},"properties":{"r":726.1,"o":"PEYTO EXPLORATION & DEVELOPMENT CORP.","n":"PEYTO BRAZEAU 06-12-044-13W5 GAS","l":"06-12-044-13W5","t":"GP"}},{"type":"Feature","geometry":{"type":"Point","coordinates":[-119.7973,55.93367]},"properties":{"r":680.6,"o":"STORM DEVELOPMENT CORP.","n":"ARC PCOUPE 1-21-80-12W6 GS","l":"01-21-080-12W6","t":"GS"}},{"type":"Feature","geometry":{"type":"Point","coordinates":[-114.93497,52.53883]},"properties":{"r":621.0,"o":"CANLIN RESOURCES PARTNERSHIP","n":"CENTRAL FERRIER GP 01-06","l":"01-06-041-07W5","t":"GP"}},{"type":"Feature","geometry":{"type":"Point","coordinates":[-115.11753,52.89801]},"properties":{"r":612.5,"o":"CENOVUS ENERGY INC.","n":"ALDER 10-9-45-8W5","l":"10-09-045-08W5","t":"GP"}},{"type":"Feature","geometry":{"type":"Point","coordinates":[-115.66248,53.23436]},"properties":{"r":590.0,"o":"MANCAL ENERGY INC.","n":"ZETA CREEK 11-10-49-12W5 GAS PLANT","l":"11-10-049-12W5","t":"GP"}},{"type":"Feature","geometry":{"type":"Point","coordinates":[-115.78671,53.32443]},"properties":{"r":588.8,"o":"VERMILION ENERGY INC.","n":"WEST PEMBINA 12-03","l":"12-03-050-13W5","t":"GS"}},{"type":"Feature","geometry":{"type":"Point","coordinates":[-116.55739,53.24417]},"properties":{"r":579.0,"o":"CENOVUS ENERGY INC.","n":"HMGP Corser 06-20","l":"06-20-049-18W5","t":"GP"}},{"type":"Feature","geometry":{"type":"Point","coordinates":[-117.35922,53.84296]},"properties":{"r":571.8,"o":"PEYTO EXPLORATION & DEVELOPMENT CORP.","n":"WILDRIVER 10-20-56-23W5 GP","l":"10-20-056-23W5","t":"GP"}},{"type":"Feature","geometry":{"type":"Point","coordinates":[-114.77158,51.8474]},"properties":{"r":562.5,"o":"TAQA NORTH LTD.","n":"CASCADE CAROLINE","l":"03-26-033-06W5","t":"GP"}},{"type":"Feature","geometry":{"type":"Point","coordinates":[-118.70565,54.19729]},"properties":{"r":528.2,"o":"TOURMALINE OIL CORP.","n":"Jupiter Kakwa 01-35-060-05W6 GP","l":"01-35-060-05W6","t":"GP"}},{"type":"Feature","geometry":{"type":"Point","coordinates":[-114.05582,51.73944]},"properties":{"r":521.0,"o":"WHITECAP RESOURCES INC.","n":"GARRINGTON OLDS","l":"06-18-032-01W5","t":"GP"}},{"type":"Feature","geometry":{"type":"Point","coordinates":[-116.75776,54.53044]},"properties":{"r":517.3,"o":"PARAMOUNT RESOURCES LTD.","n":"TRILOGY KAYBOB","l":"08-09-064-19W5","t":"GP"}},{"type":"Feature","geometry":{"type":"Point","coordinates":[-115.66675,53.16222]},"properties":{"r":498.7,"o":"TIDEWATER MIDSTREAM AND INFRASTRUCTURE LTD.","n":"BRC 04-31-048-12W5 GAS PLANT","l":"04-31-048-12W5","t":"GP"}},{"type":"Feature","geometry":{"type":"Point","coordinates":[-116.89873,53.76756]},"properties":{"r":488.7,"o":"PEYTO EXPLORATION & DEVELOPMENT CORP.","n":"PEYTO NOSEHILL 11-21-55-20 W5 GAS PL","l":"11-21-055-20W5","t":"GP"}},{"type":"Feature","geometry":{"type":"Point","coordinates":[-119.11031,54.36168]},"properties":{"r":478.1,"o":"TOURMALINE OIL CORP.","n":"MODERN KAKWA 7-9-62-8W6 GAS PLANT","l":"07-09-062-08W6","t":"GP"}},{"type":"Feature","geometry":{"type":"Point","coordinates":[-117.33353,53.7723]},"properties":{"r":472.1,"o":"PEYTO EXPLORATION & DEVELOPMENT CORP.","n":"PEYTO WILDHAY 04-21-55-23 W5 GP","l":"04-21-055-23W5","t":"GP"}},{"type":"Feature","geometry":{"type":"Point","coordinates":[-116.12451,53.58221]},"properties":{"r":463.1,"o":"VERMILION ENERGY INC.","n":"VEI EDSON 12-15-053-15W5 GAS PLANT","l":"12-15-053-15W5","t":"GP"}},{"type":"Feature","geometry":{"type":"Point","coordinates":[-116.30146,53.24049]},"properties":{"r":449.7,"o":"CENOVUS ENERGY INC.","n":"CONOCO PECO","l":"12-01-049-16W5","t":"GP"}},{"type":"Feature","geometry":{"type":"Point","coordinates":[-114.9317,51.84344]},"properties":{"r":443.1,"o":"TAQA NORTH LTD.","n":"Bearberry 05-31-033-07W5 Gas Plant","l":"05-31-033-07W5","t":"GP"}},{"type":"Feature","geometry":{"type":"Point","coordinates":[-119.01834,55.68705]},"properties":{"r":432.2,"o":"CANADIAN NATURAL RESOURCES LIMITED","n":"Spirit River 3-10-77-7w6","l":"03-10-077-07W6","t":"GP"}},{"type":"Feature","geometry":{"type":"Point","coordinates":[-115.17996,52.28555]},"properties":{"r":425.9,"o":"PETRUS RESOURCES CORP.","n":"FERRIER 02-25-038-9W500 GP","l":"02-25-038-09W5","t":"GP"}},{"type":"Feature","geometry":{"type":"Point","coordinates":[-117.05666,53.75021]},"properties":{"r":425.8,"o":"PEYTO EXPLORATION & DEVELOPMENT CORP.","n":"PEYTO OLDMAN 11-17","l":"11-17-055-21W5","t":"GP"}},{"type":"Feature","geometry":{"type":"Point","coordinates":[-117.35541,53.93843]},"properties":{"r":411.7,"o":"CANADIAN NATURAL RESOURCES LIMITED","n":"CECILIA 14-36-57-23w5","l":"14-36-057-23W5","t":"GP"}},{"type":"Feature","geometry":{"type":"Point","coordinates":[-119.27756,54.97867]},"properties":{"r":387.5,"o":"SINOPEC CANADA ENERGY LTD.","n":"DEVON ELMWORTH HALFWAY 15-09 GGS","l":"15-09-069-09W6","t":"GS"}},{"type":"Feature","geometry":{"type":"Point","coordinates":[-116.13326,53.41673]},"properties":{"r":381.2,"o":"CENOVUS ENERGY INC.","n":"WOLF SOUTH 5-1-51-15W5","l":"05-01-051-15W5","t":"GP"}},{"type":"Feature","geometry":{"type":"Point","coordinates":[-115.62721,52.78257]},"properties":{"r":381.0,"o":"KEYERA ENERGY LTD.","n":"KEYERA NORDEGG RIVER 6-10-044-12W5","l":"06-10-044-12W5","t":"GP"}},{"type":"Feature","geometry":{"type":"Point","coordinates":[-119.7856,55.58567]},"properties":{"r":371.3,"o":"ADVANTAGE ENERGY LTD.","n":"AAV Glacier 05-02-076-12W6 GP","l":"05-02-076-12W6","t":"GP"}},{"type":"Feature","geometry":{"type":"Point","coordinates":[-117.31548,54.0179]},"properties":{"r":369.3,"o":"TOURMALINE OIL CORP.","n":"Duvernay 15-4-58-23W5M Gas Plant","l":"15-04-058-23W5","t":"GP"}},{"type":"Feature","geometry":{"type":"Point","coordinates":[-117.05666,53.75021]},"properties":{"r":347.6,"o":"PEYTO EXPLORATION & DEVELOPMENT CORP.","n":"PEYTO OLDMAN NORTH 3/14-17-55-21W5GP","l":"14-17-055-21W5","t":"GP"}},{"type":"Feature","geometry":{"type":"Point","coordinates":[-116.83474,53.49789]},"properties":{"r":341.1,"o":"CANADIAN NATURAL RESOURCES LIMITED","n":"EDSON WEST 1-24-52-20w5","l":"01-24-052-20W5","t":"GP"}},{"type":"Feature","geometry":{"type":"Point","coordinates":[-115.55633,53.06688]},"properties":{"r":340.9,"o":"SINOPEC CANADA ENERGY LTD.","n":"00/15-09-047-11W5 BRAZEAU GS","l":"15-09-047-11W5","t":"GS"}},{"type":"Feature","geometry":{"type":"Point","coordinates":[-116.42303,53.33853]},"properties":{"r":339.0,"o":"TOURMALINE OIL CORP.","n":"ANSELL 12-31 GAS PLANT","l":"12-31-050-17W5","t":"GP"}},{"type":"Feature","geometry":{"type":"Point","coordinates":[-117.24626,54.11796]},"properties":{"r":335.2,"o":"WHITECAP RESOURCES INC.","n":"FIR 01-32-059-22W5 GAS GATHERING","l":"01-32-059-22W5","t":"GS"}},{"type":"Feature","geometry":{"type":"Point","coordinates":[-117.65054,53.93035]},"properties":{"r":331.9,"o":"TOURMALINE OIL CORP.","n":"Duvernay Wroe 8-12-57-25W5 GGS","l":"08-12-057-25W5","t":"GS"}},{"type":"Feature","geometry":{"type":"Point","coordinates":[-117.47889,54.21915]},"properties":{"r":330.7,"o":"KIWETINOHK ENERGY CORP.","n":"NEGUS 1-3 GGS","l":"01-03-060-24W5","t":"GS"}},{"type":"Feature","geometry":{"type":"Point","coordinates":[-113.96871,49.30889]},"properties":{"r":325.0,"o":"CAVVY PRODUCTION LTD.","n":"SHELL WATERTON","l":"02-20-004-30W4","t":"GP"}},{"type":"Feature","geometry":{"type":"Point","coordinates":[-118.71722,57.35113]},"properties":{"r":318.1,"o":"CANADIAN NATURAL RESOURCES LIMITED","n":"CHINCHAGA 1-24-96-5w6","l":"01-24-096-05W6","t":"GP"}},{"type":"Feature","geometry":{"type":"Point","coordinates":[-116.59075,53.4026]},"properties":{"r":300.5,"o":"TOURMALINE OIL CORP.","n":"TOURMALINE EDSON 04-17 GAS PLANT","l":"04-17-051-18W5","t":"GP"}},{"type":"Feature","geometry":{"type":"Point","coordinates":[-114.09848,51.40363]},"properties":{"r":300.0,"o":"TAQA NORTH LTD.","n":"East Crossfield Gas Plant","l":"09-14-028-01W5","t":"GP"}},{"type":"Feature","geometry":{"type":"Point","coordinates":[-119.00906,54.63551]},"properties":{"r":294.0,"o":"ARC RESOURCES LTD.","n":"Bilbo-04-25-065-07 W6M","l":"04-25-065-07W6","t":"GP"}},{"type":"Feature","geometry":{"type":"Point","coordinates":[-116.45135,53.49612]},"properties":{"r":292.4,"o":"TOURMALINE OIL CORP.","n":"PERPETUAL W WOLF 10-3-52-17W5","l":"10-03-052-17W5","t":"GP"}},{"type":"Feature","geometry":{"type":"Point","coordinates":[-117.81952,54.01955]},"properties":{"r":287.2,"o":"CANADIAN NATURAL RESOURCES LIMITED","n":"BERLAND RIVER WEST 14-23-58-26w5","l":"14-23-058-26W5","t":"GP"}},{"type":"Feature","geometry":{"type":"Point","coordinates":[-117.35922,53.84296]},"properties":{"r":282.1,"o":"TOURMALINE OIL CORP.","n":"WILD RIVER 14-20 GP","l":"14-20-056-23W5","t":"GP"}},{"type":"Feature","geometry":{"type":"Point","coordinates":[-115.22988,52.44683]},"properties":{"r":273.5,"o":"CANADIAN NATURAL RESOURCES LIMITED","n":"FERRIER WEST 7-18-40-9W5","l":"07-18-040-09W5","t":"GP"}},{"type":"Feature","geometry":{"type":"Point","coordinates":[-115.87143,53.59613]},"properties":{"r":268.5,"o":"VERMILION ENERGY INC.","n":"VEI CARROT CREEK 10-16-053-13W5 GP","l":"10-16-053-13W5","t":"GP"}},{"type":"Feature","geometry":{"type":"Point","coordinates":[-115.19892,52.3762]},"properties":{"r":235.7,"o":"ORLEN UPSTREAM CANADA LTD.","n":"Orlen Ferrier 04-13-039-09W5 GP","l":"04-13-039-09W5","t":"GP"}},{"type":"Feature","geometry":{"type":"Point","coordinates":[-115.23651,53.07034]},"properties":{"r":234.7,"o":"BARREL OIL CORP.","n":"BARREL PEM BLUE RAPID 04-08-047-09W5","l":"04-08-047-09W5","t":"GP"}},{"type":"Feature","geometry":{"type":"Point","coordinates":[-114.36827,52.18504]},"properties":{"r":230.0,"o":"BTG ENERGY CORP.","n":"BTG Energy Sylvan Lake GP 14-32","l":"14-32-037-03W5","t":"GP"}},{"type":"Feature","geometry":{"type":"Point","coordinates":[-118.08213,54.1623]},"properties":{"r":216.3,"o":"WHITECAP RESOURCES INC.","n":"RESTHAVEN GGS 2-10-60-01W6","l":"02-10-060-01W6","t":"GS"}},{"type":"Feature","geometry":{"type":"Point","coordinates":[-116.17475,53.65638]},"properties":{"r":209.1,"o":"TOURMALINE OIL CORP.","n":"ROSEVEAR 16-11 GAS PLANT","l":"16-11-054-15W5","t":"GP"}},{"type":"Feature","geometry":{"type":"Point","coordinates":[-117.17906,53.84016]},"properties":{"r":197.2,"o":"PEYTO EXPLORATION & DEVELOPMENT CORP.","n":"Peyto Cecilia 12-34 Plant","l":"12-34-056-22W5","t":"GP"}},{"type":"Feature","geometry":{"type":"Point","coordinates":[-119.62849,55.84704]},"properties":{"r":196.8,"o":"NORTHRIVER MIDSTREAM INC.","n":"NRM GORDONDALE WEST GAS PLANT","l":"11-24-079-11W6","t":"GP"}},{"type":"Feature","geometry":{"type":"Point","coordinates":[-119.59883,55.05066]},"properties":{"r":196.6,"o":"CENOVUS ENERGY INC.","n":"ELMWORTH  4-8-70-11W6","l":"01-08-070-11W6","t":"GP"}},{"type":"Feature","geometry":{"type":"Point","coordinates":[-115.51786,52.32795]},"properties":{"r":189.1,"o":"VERMILION ENERGY INC.","n":"VEI DEANNE 03-06-039-11W5 GAS PLANT","l":"03-06-039-11W5","t":"GP"}},{"type":"Feature","geometry":{"type":"Point","coordinates":[-116.15434,53.75599]},"properties":{"r":183.8,"o":"VERMILION ENERGY INC.","n":"VEI MCLEOD 16-36-055-15W5 GAS PLANT","l":"16-36-055-15W5","t":"GP"}},{"type":"Feature","geometry":{"type":"Point","coordinates":[-115.97037,53.67215]},"properties":{"r":182.7,"o":"VERMILION ENERGY INC.","n":"VEI MCLEOD 07-34-054-14W5 GAS PLANT","l":"07-34-054-14W5","t":"GP"}},{"type":"Feature","geometry":{"type":"Point","coordinates":[-119.31641,55.51848]},"properties":{"r":176.8,"o":"WHITECAP RESOURCES INC.","n":"WCP Valhalla GP 03-27-075-09W6","l":"03-27-075-09W6","t":"GP"}},{"type":"Feature","geometry":{"type":"Point","coordinates":[-117.31213,53.48143]},"properties":{"r":176.0,"o":"TOURMALINE OIL CORP.","n":"MED LODGE 14-3-52-23W5 HP GAS","l":"14-03-052-23W5","t":"GS"}},{"type":"Feature","geometry":{"type":"Point","coordinates":[-115.11753,52.89801]},"properties":{"r":173.2,"o":"VERMILION ENERGY INC.","n":"VEI ALDER FLATS 11-33-045-08W5 GP","l":"11-33-045-08W5","t":"GP"}},{"type":"Feature","geometry":{"type":"Point","coordinates":[-118.52195,54.19738]},"properties":{"r":155.2,"o":"PEYTO EXPLORATION & DEVELOPMENT CORP.","n":"PEYTO KAKWA 02-11-60-04 W6 SWEET GAS","l":"02-11-060-04W6","t":"GP"}},{"type":"Feature","geometry":{"type":"Point","coordinates":[-119.74166,57.40602]},"properties":{"r":152.1,"o":"CANADIAN NATURAL RESOURCES LIMITED","n":"HAMBURG NORTH 11-14-97-11w6","l":"11-14-097-11W6","t":"GP"}},{"type":"Feature","geometry":{"type":"Point","coordinates":[-119.30751,55.59128]},"properties":{"r":152.0,"o":"CSV MIDSTREAM SOLUTIONS CORP.","n":"CSV Valhalla 13-21 Sour Gas Plant","l":"13-21-076-09W6","t":"GP"}},{"type":"Feature","geometry":{"type":"Point","coordinates":[-115.67057,53.5104]},"properties":{"r":144.9,"o":"JOURNEY ENERGY INC.","n":"NORTHROCK CARROT CREEK 2-26-52-12W5","l":"02-26-052-12W5","t":"GP"}},{"type":"Feature","geometry":{"type":"Point","coordinates":[-113.84192,53.20419]},"properties":{"r":144.4,"o":"ASPENLEAF ENERGY LIMITED","n":"MIDWEST LEDUC-WOODBEND","l":"07-23-049-27W4","t":"GP"}},{"type":"Feature","geometry":{"type":"Point","coordinates":[-116.88065,53.59482]},"properties":{"r":141.7,"o":"CANADIAN NATURAL RESOURCES LIMITED","n":"GALLOWAY 14-14-53-20W5","l":"14-14-053-20W5","t":"GP"}},{"type":"Feature","geometry":{"type":"Point","coordinates":[-116.80324,54.10012]},"properties":{"r":139.5,"o":"PARAMOUNT RESOURCES LTD.","n":"PRESLEY 03-29-059-19W5 COMP","l":"03-29-059-19W5","t":"GS"}},{"type":"Feature","geometry":{"type":"Point","coordinates":[-119.46803,55.67566]},"properties":{"r":137.5,"o":"TAQA NORTH LTD.","n":"PWE Pouce Coupe  1-19 GGS","l":"01-19-077-10W6","t":"GS"}},{"type":"Feature","geometry":{"type":"Point","coordinates":[-118.1784,54.48799]},"properties":{"r":136.6,"o":"ARC RESOURCES LTD.","n":"7G Lator 01-21-63-02W6 Gas Plant","l":"01-21-063-02W6","t":"GP"}},{"type":"Feature","geometry":{"type":"Point","coordinates":[-118.67915,54.45086]},"properties":{"r":135.2,"o":"PEMBINA GAS INFRASTRUCTURE INC.","n":"PGS KAKWA RIVER 08-13","l":"08-13-063-05W6","t":"GP"}},{"type":"Feature","geometry":{"type":"Point","coordinates":[-112.86693,51.04434]},"properties":{"r":132.9,"o":"CANADIAN NATURAL RESOURCES LIMITED","n":"HUSSAR-2 13-36-24-21w4","l":"13-36-024-21W4","t":"GP"}},{"type":"Feature","geometry":{"type":"Point","coordinates":[-118.34207,54.04255]},"properties":{"r":131.3,"o":"CANADIAN NATURAL RESOURCES LIMITED","n":"SMOKY 7-36-58-3w6","l":"07-36-058-03W6","t":"GP"}},{"type":"Feature","geometry":{"type":"Point","coordinates":[-115.37842,53.06383]},"properties":{"r":122.0,"o":"GRAN TIERRA CANADA LTD.","n":"PEMBINA 13-35-47-10W5","l":"13-35-047-10W5","t":"GP"}},{"type":"Feature","geometry":{"type":"Point","coordinates":[-118.65153,54.28424]},"properties":{"r":121.9,"o":"TOURMALINE OIL CORP.","n":"Kakwa Bypass to TLM","l":"04-26-061-05W6","t":"GS"}},{"type":"Feature","geometry":{"type":"Point","coordinates":[-114.77512,52.26497]},"properties":{"r":120.4,"o":"PARAMOUNT RESOURCES LTD.","n":"FERRIER 15-16-038-06W5 GGS","l":"15-16-038-06W5","t":"GS"}},{"type":"Feature","geometry":{"type":"Point","coordinates":[-119.04462,54.7936]},"properties":{"r":116.6,"o":"OVINTIV CANADA ULC","n":"PARA PA 12-02 GOLD CREEK","l":"01-18-067-07W6","t":"GS"}},{"type":"Feature","geometry":{"type":"Point","coordinates":[-113.8444,50.38298]},"properties":{"r":116.1,"o":"LONG TERM ASSET MANAGEMENT INC.","n":"LTAM High River 12-31-016-28W4","l":"12-31-016-28W4","t":"GP"}},{"type":"Feature","geometry":{"type":"Point","coordinates":[-114.50812,52.54368]},"properties":{"r":115.7,"o":"TOURMALINE OIL CORP.","n":"GILBY 03-28-41-4 GGS","l":"03-28-041-04W5","t":"GS"}},{"type":"Feature","geometry":{"type":"Point","coordinates":[-117.51322,53.77087]},"properties":{"r":113.5,"o":"TOURMALINE OIL CORP.","n":"Wild River 11-16-055-24 W5 GGS","l":"11-16-055-24W5","t":"GS"}},{"type":"Feature","geometry":{"type":"Point","coordinates":[-119.16826,54.9683]},"properties":{"r":112.3,"o":"CANADIAN NATURAL RESOURCES LIMITED","n":"WAPITI NORTH 4-8-69-8w6","l":"04-08-069-08W6","t":"GP"}},{"type":"Feature","geometry":{"type":"Point","coordinates":[-117.05401,53.68257]},"properties":{"r":111.4,"o":"TOURMALINE OIL CORP.","n":"Duvernay Sundance Gas Plant 15-7","l":"15-07-054-21W5","t":"GP"}},{"type":"Feature","geometry":{"type":"Point","coordinates":[-115.66248,53.23436]},"properties":{"r":110.6,"o":"TMAX ENERGY LTD.","n":"CHEVRON PEMBINA NISKU","l":"11-22-049-12W5","t":"GS"}},{"type":"Feature","geometry":{"type":"Point","coordinates":[-115.37842,53.06383]},"properties":{"r":109.2,"o":"BAYTEX ENERGY LTD.","n":"OCHIESE 05-21-047-10W5 GGS","l":"05-21-047-10W5","t":"GS"}},{"type":"Feature","geometry":{"type":"Point","coordinates":[-114.36687,52.44544]},"properties":{"r":107.7,"o":"SPARTAN DELTA CORP.","n":"CENTRAL GILBY GP 02-27","l":"02-27-040-03W5","t":"GP"}},{"type":"Feature","geometry":{"type":"Point","coordinates":[-118.54755,54.45509]},"properties":{"r":104.2,"o":"ARC RESOURCES LTD.","n":"7G Kakwa River Deep Cut GS","l":"08-07-063-04W6","t":"GS"}},{"type":"Feature","geometry":{"type":"Point","coordinates":[-111.58626,50.45013]},"properties":{"r":103.3,"o":"PIVOTAL ENERGY PARTNERS INC.","n":"CAMPUS BANTRY","l":"04-33-017-12W4","t":"GP"}},{"type":"Feature","geometry":{"type":"Point","coordinates":[-116.24504,53.05692]},"properties":{"r":96.8,"o":"CANLIN RESOURCES PARTNERSHIP","n":"PECO 08-11-047-16w5","l":"08-11-047-16W5","t":"GS"}},{"type":"Feature","geometry":{"type":"Point","coordinates":[-117.46099,53.37894]},"properties":{"r":94.6,"o":"TOURMALINE OIL CORP.","n":"Anderson GP 00/01-09-051-24W5M","l":"01-09-051-24W5","t":"GP"}},{"type":"Feature","geometry":{"type":"Point","coordinates":[-114.66421,52.53509]},"properties":{"r":92.2,"o":"TOURMALINE OIL CORP.","n":"Apache Willesden Green 11-19 GGS","l":"11-19-041-05W5","t":"GS"}},{"type":"Feature","geometry":{"type":"Point","coordinates":[-114.51156,53.14528]},"properties":{"r":91.7,"o":"BONTERRA ENERGY CORP.","n":"BONTERRA 05-35 SWEET GAS PLANT","l":"05-35-048-04W5","t":"GP"}},{"type":"Feature","geometry":{"type":"Point","coordinates":[-115.66248,53.23436]},"properties":{"r":89.0,"o":"TMAX ENERGY LTD.","n":"KEYERA 16-34 TO PEMB NORTH 11-22 GP","l":"11-22-049-12W5","t":"GS"}},{"type":"Feature","geometry":{"type":"Point","coordinates":[-115.07072,52.63301]},"properties":{"r":87.3,"o":"OBSIDIAN ENERGY LTD.","n":"AMOCO WILLESDEN GREEN","l":"13-27-042-08W5","t":"GS"}},{"type":"Feature","geometry":{"type":"Point","coordinates":[-116.71496,53.40787]},"properties":{"r":86.1,"o":"CENOVUS ENERGY INC.","n":"HUSKY ANSELL 7-27","l":"07-27-051-19W5","t":"GS"}},{"type":"Feature","geometry":{"type":"Point","coordinates":[-115.99136,53.32199]},"properties":{"r":85.8,"o":"TMAX ENERGY LTD.","n":"Westbrick 5-1-49-10 GGS","l":"14-03-050-14W5","t":"GS"}},{"type":"Feature","geometry":{"type":"Point","coordinates":[-119.77432,55.766]},"properties":{"r":85.3,"o":"BIRCHCLIFF ENERGY LTD.","n":"PCS 03-22-078-12W6 GGS ABGS 0106864","l":"03-22-078-12W6","t":"GS"}},{"type":"Feature","geometry":{"type":"Point","coordinates":[-118.67915,54.45086]},"properties":{"r":83.3,"o":"CENOVUS ENERGY INC.","n":"Comp 01-06 to 10-07 GP KAKWA","l":"10-07-063-05W6","t":"GS"}},{"type":"Feature","geometry":{"type":"Point","coordinates":[-115.39368,53.24152]},"properties":{"r":81.2,"o":"TMAX ENERGY LTD.","n":"Westbrick Cynthia 04-21-049-11W5 GGS","l":"16-10-049-10W5","t":"GS"}},{"type":"Feature","geometry":{"type":"Point","coordinates":[-119.90847,55.93496]},"properties":{"r":77.6,"o":"NORTHRIVER MIDSTREAM INC.","n":"SPECTRA POUCE COUPE 5-23 GAS PLANT","l":"05-23-080-13W6","t":"GP"}},{"type":"Feature","geometry":{"type":"Point","coordinates":[-113.66229,55.34571]},"properties":{"r":76.7,"o":"SPUR PETROLEUM LTD.","n":"MARTEN HILLS 15-29-73-24 GP","l":"29-073-24W4","t":"GP"}},{"type":"Feature","geometry":{"type":"Point","coordinates":[-119.36629,56.14357]},"properties":{"r":72.1,"o":"NORTHRIVER MIDSTREAM INC.","n":"FOURTH CREEK GAS PLANT","l":"16-11-082-09W6","t":"GP"}},{"type":"Feature","geometry":{"type":"Point","coordinates":[-115.76479,54.27322]},"properties":{"r":71.7,"o":"CONIFER ENERGY INC.","n":"CFR Carson Creek GP 4-23-61-12W5","l":"04-23-061-12W5","t":"GP"}},{"type":"Feature","geometry":{"type":"Point","coordinates":[-114.97062,52.35757]},"properties":{"r":71.7,"o":"CANADIAN NATURAL RESOURCES LIMITED","n":"FERRIER 01-20-039-07W5","l":"01-20-039-07W5","t":"GS"}},{"type":"Feature","geometry":{"type":"Point","coordinates":[-118.26491,54.6101]},"properties":{"r":70.6,"o":"CANADIAN NATURAL RESOURCES LIMITED","n":"KARR 10-10-065-02W6","l":"10-10-065-02W6","t":"GP"}},{"type":"Feature","geometry":{"type":"Point","coordinates":[-119.59749,55.41465]},"properties":{"r":65.3,"o":"CANADIAN NATURAL RESOURCES LIMITED","n":"KNOPCIK 9-10-74-11w6","l":"09-10-074-11W6","t":"GP"}},{"type":"Feature","geometry":{"type":"Point","coordinates":[-116.77546,54.19646]},"properties":{"r":65.2,"o":"WHITECAP RESOURCES INC.","n":"XTO 7-20-60-19W5 Gathering System","l":"07-20-060-19W5","t":"GS"}},{"type":"Feature","geometry":{"type":"Point","coordinates":[-113.46542,49.92867]},"properties":{"r":64.8,"o":"CANADIAN NATURAL RESOURCES LIMITED","n":"GRANUM 13-31-11-26W4","l":"13-31-011-26W4","t":"GP"}},{"type":"Feature","geometry":{"type":"Point","coordinates":[-117.62512,53.41588]},"properties":{"r":64.7,"o":"TOURMALINE OIL CORP.","n":"Tourmaline Hinton 06-32 Gas Plant","l":"06-32-051-25W5","t":"GP"}},{"type":"Feature","geometry":{"type":"Point","coordinates":[-118.81099,54.63346]},"properties":{"r":63.3,"o":"OVINTIV CANADA ULC","n":"Wapiti 03-36-65-06W6 GS","l":"03-36-065-06W6","t":"GS"}},{"type":"Feature","geometry":{"type":"Point","coordinates":[-118.2293,54.03225]},"properties":{"r":63.2,"o":"CANADIAN NATURAL RESOURCES LIMITED","n":"SMOKY KISKIU 13-9-58-2w6","l":"13-09-058-02W6","t":"GP"}},{"type":"Feature","geometry":{"type":"Point","coordinates":[-116.84947,53.24811]},"properties":{"r":60.4,"o":"CANLIN RESOURCES PARTNERSHIP","n":"PETRO-CAN HANLAN","l":"15-02-049-20W5","t":"GP"}},{"type":"Feature","geometry":{"type":"Point","coordinates":[-119.31641,55.51848]},"properties":{"r":59.4,"o":"CANADIAN NATURAL RESOURCES LIMITED","n":"VALLHALA 1-29-75-9w6","l":"01-29-075-09W6","t":"GP"}},{"type":"Feature","geometry":{"type":"Point","coordinates":[-115.83059,52.68931]},"properties":{"r":57.5,"o":"PEYTO CANADA CORP.","n":"PEYTO CANADA AURORA 11-13-43-13W5 GP","l":"11-13-043-13W5","t":"GP"}},{"type":"Feature","geometry":{"type":"Point","coordinates":[-112.57294,51.25374]},"properties":{"r":56.6,"o":"NORTH 40 RESOURCES LTD.","n":"SEIU LAKE 14-12-26-19W4","l":"14-12-026-19W4","t":"GP"}},{"type":"Feature","geometry":{"type":"Point","coordinates":[-117.24626,54.11796]},"properties":{"r":55.6,"o":"PEYTO EXPLORATION & DEVELOPMENT CORP.","n":"BIGSTONE PLANT 100/14-28-059-22W5 GP","l":"14-28-059-22W5","t":"GP"}},{"type":"Feature","geometry":{"type":"Point","coordinates":[-115.78671,53.32443]},"properties":{"r":55.4,"o":"VERMILION ENERGY INC.","n":"VEI 12-3-50-13 TO 06-28 GAS GATH","l":"12-03-050-13W5","t":"GS"}},{"type":"Feature","geometry":{"type":"Point","coordinates":[-117.05128,53.84053]},"properties":{"r":54.8,"o":"TOURMALINE OIL CORP.","n":"Duvernay Oldman Gas Plant 10-24","l":"10-24-056-21W5","t":"GP"}},{"type":"Feature","geometry":{"type":"Point","coordinates":[-114.78829,52.88693]},"properties":{"r":54.2,"o":"MANCAL ENERGY INC.","n":"PENN WEST PEMBINA","l":"06-19-045-06W5","t":"GP"}},{"type":"Feature","geometry":{"type":"Point","coordinates":[-118.3731,54.29965]},"properties":{"r":53.8,"o":"ARC RESOURCES LTD.","n":"PARA 16-08-061-03W6 - GGS","l":"16-08-061-03W6","t":"GS"}},{"type":"Feature","geometry":{"type":"Point","coordinates":[-116.71496,53.40787]},"properties":{"r":49.7,"o":"CANADIAN NATURAL RESOURCES LIMITED","n":"ANSELL 7-27-51-19w5","l":"07-27-051-19W5","t":"GP"}},{"type":"Feature","geometry":{"type":"Point","coordinates":[-113.61558,50.25155]},"properties":{"r":48.1,"o":"PIVOTAL ENERGY PARTNERS INC.","n":"CAMPUS PARKLAND","l":"07-11-015-27W4","t":"GP"}},{"type":"Feature","geometry":{"type":"Point","coordinates":[-111.70589,53.1422]},"properties":{"r":47.4,"o":"PINE CLIFF ENERGY LTD.","n":"VIKING-KINSELLA 13-31-48-12W4","l":"13-31-048-12W4","t":"GP"}},{"type":"Feature","geometry":{"type":"Point","coordinates":[-119.63465,55.75848]},"properties":{"r":45.6,"o":"BIRCHCLIFF ENERGY LTD.","n":"GORDONDALE GAS PLANT","l":"16-31-078-11W6","t":"GP"}},{"type":"Feature","geometry":{"type":"Point","coordinates":[-114.52289,52.69784]},"properties":{"r":45.1,"o":"MANCAL ENERGY INC.","n":"PETRO-CAN WILSON CREEK","l":"01-29-043-04W5","t":"GP"}},{"type":"Feature","geometry":{"type":"Point","coordinates":[-115.59668,53.39456]},"properties":{"r":44.9,"o":"VERMILION ENERGY INC.","n":"VEI ETALAKE 07-07-051-11W5 GAS PLANT","l":"07-07-051-11W5","t":"GP"}},{"type":"Feature","geometry":{"type":"Point","coordinates":[-116.62743,54.35708]},"properties":{"r":44.9,"o":"WHITECAP PARTNERSHIP","n":"11-15-62-18W5 GAS GATHER","l":"11-15-062-18W5","t":"GS"}},{"type":"Feature","geometry":{"type":"Point","coordinates":[-119.31634,55.86343]},"properties":{"r":43.7,"o":"NORTHRIVER MIDSTREAM INC.","n":"SPECTRA GORDONDALE EAST GAS PLANT","l":"11-26-079-09W6","t":"GP"}},{"type":"Feature","geometry":{"type":"Point","coordinates":[-113.72401,51.40785]},"properties":{"r":40.8,"o":"TAQA NORTH LTD.","n":"TRIGAS IRRICANA","l":"06-20-028-27W4","t":"GS"}},{"type":"Feature","geometry":{"type":"Point","coordinates":[-114.94336,52.61143]},"properties":{"r":40.3,"o":"OBSIDIAN ENERGY LTD.","n":"Willesden Green Gas Plant","l":"14-01-042-07W5","t":"GP"}},{"type":"Feature","geometry":{"type":"Point","coordinates":[-114.10599,52.66126]},"properties":{"r":39.0,"o":"TOURMALINE OIL CORP.","n":"MORNINGSIDE 11-35 COMP","l":"11-35-042-01W5","t":"GS"}},{"type":"Feature","geometry":{"type":"Point","coordinates":[-115.39368,53.24152]},"properties":{"r":38.0,"o":"WHITECAP RESOURCES INC.","n":"IMPERIAL WEST PEMBINA","l":"13-22-049-10W5","t":"GS"}},{"type":"Feature","geometry":{"type":"Point","coordinates":[-114.3733,52.9959]},"properties":{"r":37.8,"o":"JOURNEY ENERGY INC.","n":"PENN WEST CRYSTAL","l":"09-06-046-03W5","t":"GP"}},{"type":"Feature","geometry":{"type":"Point","coordinates":[-117.47796,53.93476]},"properties":{"r":37.1,"o":"CANADIAN NATURAL RESOURCES LIMITED","n":"WILD RIVER 8-30-57-24w5","l":"08-30-057-24W5","t":"GS"}},{"type":"Feature","geometry":{"type":"Point","coordinates":[-117.95951,53.60862]},"properties":{"r":35.3,"o":"TOURMALINE OIL CORP.","n":"Hinton 15-20 Gas Gathering System","l":"15-20-053-27W5","t":"GS"}},{"type":"Feature","geometry":{"type":"Point","coordinates":[-113.46542,49.92867]},"properties":{"r":35.2,"o":"LONG TERM ASSET MANAGEMENT INC.","n":"ACL Granum Gas Plt 14-31-11-26 W4","l":"14-31-011-26W4","t":"GP"}},{"type":"Feature","geometry":{"type":"Point","coordinates":[-114.22492,52.79971]},"properties":{"r":34.3,"o":"TOURMALINE OIL CORP.","n":"HOADLEY GS 11-09-044-02W5","l":"11-09-044-02W5","t":"GS"}},{"type":"Feature","geometry":{"type":"Point","coordinates":[-115.54337,53.24128]},"properties":{"r":34.2,"o":"KEYERA ENERGY LTD.","n":"KEYERA CYNTHIA 6-28 GAS PLANT","l":"06-28-049-11W5","t":"GP"}},{"type":"Feature","geometry":{"type":"Point","coordinates":[-119.26568,57.37685]},"properties":{"r":34.0,"o":"CANADIAN NATURAL RESOURCES LIMITED","n":"CHINCHAGA 11-33-96-8w6","l":"11-33-096-08W6","t":"GP"}},{"type":"Feature","geometry":{"type":"Point","coordinates":[-113.93213,52.63833]},"properties":{"r":33.5,"o":"TOURMALINE OIL CORP.","n":"FERRYBANK GGS 01-01-042-28W4","l":"01-01-042-28W4","t":"GS"}},{"type":"Feature","geometry":{"type":"Point","coordinates":[-118.6697,54.39121]},"properties":{"r":32.6,"o":"WHITECAP RESOURCES INC.","n":"WCP 07-21-062-05W6 Gas Gathering","l":"07-21-062-05W6","t":"GS"}},{"type":"Feature","geometry":{"type":"Point","coordinates":[-116.36663,54.13254]},"properties":{"r":32.1,"o":"OUTLIER RESOURCES LTD.","n":"SWR Windfall GP 14-24-59-16 W5","l":"14-24-059-16W5","t":"GP"}},{"type":"Feature","geometry":{"type":"Point","coordinates":[-117.9584,54.35827]},"properties":{"r":31.3,"o":"CSV MIDSTREAM SOLUTIONS CORP.","n":"CSV SIMONETTE 13-11 GAS PLANT","l":"13-11-062-27W5","t":"GP"}},{"type":"Feature","geometry":{"type":"Point","coordinates":[-116.44937,53.8301]},"properties":{"r":31.1,"o":"ISH ENERGY LTD.","n":"SHINNING BANK GAS PLANT","l":"10-12-056-17W5","t":"GP"}},{"type":"Feature","geometry":{"type":"Point","coordinates":[-116.62853,54.21204]},"properties":{"r":30.9,"o":"PARAMOUNT RESOURCES LTD.","n":"TRILOGY CLOVER 9-34 PLANT #2","l":"09-34-060-18W5","t":"GP"}},{"type":"Feature","geometry":{"type":"Point","coordinates":[-115.23717,52.88558]},"properties":{"r":29.8,"o":"SPARTAN DELTA CORP.","n":"FERRIER13-5-45-9W5 compressor stn","l":"13-05-045-09W5","t":"GS"}},{"type":"Feature","geometry":{"type":"Point","coordinates":[-114.20933,55.51877]},"properties":{"r":28.4,"o":"HEADWATER EXPLORATION INC.","n":"W MARTEN HILLS GGS 09-13-075-02W5","l":"09-13-075-02W5","t":"GS"}},{"type":"Feature","geometry":{"type":"Point","coordinates":[-116.34134,54.2977]},"properties":{"r":28.1,"o":"OUTLIER RESOURCES LTD.","n":"TLM COMPRESSOR 15-9","l":"15-09-061-16W5","t":"GS"}},{"type":"Feature","geometry":{"type":"Point","coordinates":[-118.52798,54.37364]},"properties":{"r":27.9,"o":"WHITECAP RESOURCES INC.","n":"6-17-62-4W6  Kakwa compressor","l":"06-17-062-04W6","t":"GS"}},{"type":"Feature","geometry":{"type":"Point","coordinates":[-115.07072,52.63301]},"properties":{"r":27.0,"o":"SPARTAN DELTA CORP.","n":"BXE WILGRN 4-29 TO GP 1386","l":"04-29-042-08W5","t":"GS"}},{"type":"Feature","geometry":{"type":"Point","coordinates":[-114.63506,52.62577]},"properties":{"r":26.9,"o":"GRAN TIERRA CANADA LTD.","n":"OPEN CREEK 04/10-34-42-5W5 GGS","l":"10-34-042-05W5","t":"GS"}},{"type":"Feature","geometry":{"type":"Point","coordinates":[-116.00029,53.40757]},"properties":{"r":26.7,"o":"VERMILION ENERGY INC.","n":"PFI CARROT CREEK 08-36-051-14W5 GGS","l":"08-36-051-14W5","t":"GS"}},{"type":"Feature","geometry":{"type":"Point","coordinates":[-116.65358,54.25475]},"properties":{"r":26.4,"o":"SINOPEC CANADA ENERGY LTD.","n":"00/05-36-061-18W5 Fox Creek GS","l":"05-36-061-18W5","t":"GS"}},{"type":"Feature","geometry":{"type":"Point","coordinates":[-116.77546,54.19646]},"properties":{"r":25.9,"o":"HWN ENERGY LTD.","n":"RMP Kaybob South GGS","l":"10-22-060-19W5","t":"GS"}},{"type":"Feature","geometry":{"type":"Point","coordinates":[-116.13262,53.49016]},"properties":{"r":25.7,"o":"TOURMALINE OIL CORP.","n":"Tourmaline Wolf Lake 16-10 Comp site","l":"16-10-052-15W5","t":"GS"}},{"type":"Feature","geometry":{"type":"Point","coordinates":[-114.2398,52.09768]},"properties":{"r":25.6,"o":"HARVEST OPERATIONS CORP.","n":"MarkervilleS-10-06-036-02 W5M","l":"10-06-036-02W5","t":"GS"}}]}