{"type":"FeatureCollection","features":[{"type":"Feature","geometry":{"type":"Point","coordinates":[-110.9,53.5]},"properties":{"r":5.98,"w":1,"o":335}},{"type":"Feature","geometry":{"type":"Point","coordinates":[-110.6,53.5]},"properties":{"r":10.38,"w":1,"o":335}},{"type":"Feature","geometry":{"type":"Point","coordinates":[-110.2,53.5]},"properties":{"r":116.13,"w":4,"o":75}},{"type":"Feature","geometry":{"type":"Point","coordinates":[-111.0,53.6]},"properties":{"r":30.38,"w":1,"o":75}},{"type":"Feature","geometry":{"type":"Point","coordinates":[-110.9,53.6]},"properties":{"r":154.48,"w":8,"o":67}},{"type":"Feature","geometry":{"type":"Point","coordinates":[-110.8,53.6]},"properties":{"r":193.18,"w":8,"o":75}},{"type":"Feature","geometry":{"type":"Point","coordinates":[-110.7,53.6]},"properties":{"r":77.57,"w":7,"o":67}},{"type":"Feature","geometry":{"type":"Point","coordinates":[-110.6,53.6]},"properties":{"r":0.15,"w":1,"o":335}},{"type":"Feature","geometry":{"type":"Point","coordinates":[-110.5,53.6]},"properties":{"r":13.0,"w":1,"o":119}},{"type":"Feature","geometry":{"type":"Point","coordinates":[-110.3,53.6]},"properties":{"r":35.79,"w":2,"o":67}},{"type":"Feature","geometry":{"type":"Point","coordinates":[-110.2,53.6]},"properties":{"r":160.62,"w":7,"o":75}},{"type":"Feature","geometry":{"type":"Point","coordinates":[-110.1,53.6]},"properties":{"r":54.91,"w":1,"o":216}},{"type":"Feature","geometry":{"type":"Point","coordinates":[-110.9,53.7]},"properties":{"r":279.02,"w":12,"o":67}},{"type":"Feature","geometry":{"type":"Point","coordinates":[-110.8,53.7]},"properties":{"r":964.9,"w":42,"o":67}},{"type":"Feature","geometry":{"type":"Point","coordinates":[-110.7,53.7]},"properties":{"r":779.73,"w":50,"o":67}},{"type":"Feature","geometry":{"type":"Point","coordinates":[-110.6,53.7]},"properties":{"r":655.5,"w":30,"o":67}},{"type":"Feature","geometry":{"type":"Point","coordinates":[-110.5,53.7]},"properties":{"r":69.86,"w":6,"o":67}},{"type":"Feature","geometry":{"type":"Point","coordinates":[-110.4,53.7]},"properties":{"r":203.33,"w":6,"o":75}},{"type":"Feature","geometry":{"type":"Point","coordinates":[-110.3,53.7]},"properties":{"r":25.58,"w":3,"o":67}},{"type":"Feature","geometry":{"type":"Point","coordinates":[-110.2,53.7]},"properties":{"r":35.43,"w":4,"o":67}},{"type":"Feature","geometry":{"type":"Point","coordinates":[-110.9,53.8]},"properties":{"r":588.91,"w":34,"o":67}},{"type":"Feature","geometry":{"type":"Point","coordinates":[-110.8,53.8]},"properties":{"r":336.57,"w":15,"o":67}},{"type":"Feature","geometry":{"type":"Point","coordinates":[-110.7,53.8]},"properties":{"r":1363.63,"w":31,"o":67}},{"type":"Feature","geometry":{"type":"Point","coordinates":[-110.6,53.8]},"properties":{"r":679.36,"w":31,"o":67}},{"type":"Feature","geometry":{"type":"Point","coordinates":[-110.5,53.8]},"properties":{"r":1968.6,"w":50,"o":67}},{"type":"Feature","geometry":{"type":"Point","coordinates":[-110.4,53.8]},"properties":{"r":2166.04,"w":43,"o":66}},{"type":"Feature","geometry":{"type":"Point","coordinates":[-110.3,53.8]},"properties":{"r":2092.93,"w":56,"o":273}},{"type":"Feature","geometry":{"type":"Point","coordinates":[-110.2,53.8]},"properties":{"r":265.03,"w":17,"o":66}},{"type":"Feature","geometry":{"type":"Point","coordinates":[-110.1,53.8]},"properties":{"r":239.83,"w":12,"o":67}},{"type":"Feature","geometry":{"type":"Point","coordinates":[-110.0,53.8]},"properties":{"r":73.38,"w":5,"o":67}},{"type":"Feature","geometry":{"type":"Point","coordinates":[-110.9,53.9]},"properties":{"r":30.97,"w":5,"o":67}},{"type":"Feature","geometry":{"type":"Point","coordinates":[-110.8,53.9]},"properties":{"r":150.64,"w":12,"o":67}},{"type":"Feature","geometry":{"type":"Point","coordinates":[-110.7,53.9]},"properties":{"r":64.39,"w":8,"o":67}},{"type":"Feature","geometry":{"type":"Point","coordinates":[-110.6,53.9]},"properties":{"r":8.78,"w":1,"o":67}},{"type":"Feature","geometry":{"type":"Point","coordinates":[-110.5,53.9]},"properties":{"r":2256.78,"w":52,"o":67}},{"type":"Feature","geometry":{"type":"Point","coordinates":[-110.4,53.9]},"properties":{"r":909.61,"w":23,"o":273}},{"type":"Feature","geometry":{"type":"Point","coordinates":[-110.3,53.9]},"properties":{"r":899.99,"w":14,"o":273}},{"type":"Feature","geometry":{"type":"Point","coordinates":[-110.2,53.9]},"properties":{"r":275.56,"w":11,"o":67}},{"type":"Feature","geometry":{"type":"Point","coordinates":[-110.1,53.9]},"properties":{"r":136.34,"w":15,"o":67}},{"type":"Feature","geometry":{"type":"Point","coordinates":[-110.8,54.0]},"properties":{"r":92.23,"w":4,"o":67}},{"type":"Feature","geometry":{"type":"Point","coordinates":[-110.7,54.0]},"properties":{"r":271.95,"w":18,"o":67}},{"type":"Feature","geometry":{"type":"Point","coordinates":[-110.6,54.0]},"properties":{"r":440.06,"w":11,"o":295}},{"type":"Feature","geometry":{"type":"Point","coordinates":[-110.5,54.0]},"properties":{"r":61.05,"w":3,"o":37}},{"type":"Feature","geometry":{"type":"Point","coordinates":[-110.4,54.0]},"properties":{"r":174.02,"w":4,"o":37}},{"type":"Feature","geometry":{"type":"Point","coordinates":[-110.3,54.0]},"properties":{"r":95.33,"w":3,"o":67}},{"type":"Feature","geometry":{"type":"Point","coordinates":[-110.2,54.0]},"properties":{"r":162.42,"w":10,"o":190}},{"type":"Feature","geometry":{"type":"Point","coordinates":[-111.9,54.1]},"properties":{"r":40.05,"w":1,"o":144}},{"type":"Feature","geometry":{"type":"Point","coordinates":[-111.0,54.1]},"properties":{"r":45.12,"w":2,"o":67}},{"type":"Feature","geometry":{"type":"Point","coordinates":[-110.6,54.1]},"properties":{"r":315.71,"w":23,"o":67}},{"type":"Feature","geometry":{"type":"Point","coordinates":[-110.5,54.1]},"properties":{"r":35.58,"w":2,"o":67}},{"type":"Feature","geometry":{"type":"Point","coordinates":[-110.4,54.1]},"properties":{"r":163.68,"w":6,"o":66}},{"type":"Feature","geometry":{"type":"Point","coordinates":[-110.3,54.1]},"properties":{"r":96.72,"w":4,"o":46}},{"type":"Feature","geometry":{"type":"Point","coordinates":[-110.8,54.2]},"properties":{"r":9.58,"w":1,"o":67}},{"type":"Feature","geometry":{"type":"Point","coordinates":[-110.7,54.2]},"properties":{"r":128.56,"w":2,"o":66}},{"type":"Feature","geometry":{"type":"Point","coordinates":[-110.6,54.2]},"properties":{"r":389.42,"w":26,"o":67}},{"type":"Feature","geometry":{"type":"Point","coordinates":[-110.5,54.2]},"properties":{"r":507.67,"w":11,"o":66}},{"type":"Feature","geometry":{"type":"Point","coordinates":[-110.4,54.2]},"properties":{"r":798.39,"w":23,"o":46}},{"type":"Feature","geometry":{"type":"Point","coordinates":[-110.3,54.2]},"properties":{"r":491.0,"w":16,"o":77}},{"type":"Feature","geometry":{"type":"Point","coordinates":[-110.2,54.2]},"properties":{"r":1872.73,"w":55,"o":67}},{"type":"Feature","geometry":{"type":"Point","coordinates":[-110.1,54.2]},"properties":{"r":10.15,"w":2,"o":46}},{"type":"Feature","geometry":{"type":"Point","coordinates":[-111.3,54.3]},"properties":{"r":9.48,"w":1,"o":148}},{"type":"Feature","geometry":{"type":"Point","coordinates":[-111.2,54.3]},"properties":{"r":46.25,"w":3,"o":67}},{"type":"Feature","geometry":{"type":"Point","coordinates":[-111.1,54.3]},"properties":{"r":39.81,"w":1,"o":66}},{"type":"Feature","geometry":{"type":"Point","coordinates":[-111.0,54.3]},"properties":{"r":629.73,"w":11,"o":67}},{"type":"Feature","geometry":{"type":"Point","coordinates":[-110.9,54.3]},"properties":{"r":8.85,"w":1,"o":66}},{"type":"Feature","geometry":{"type":"Point","coordinates":[-110.8,54.3]},"properties":{"r":246.18,"w":4,"o":66}},{"type":"Feature","geometry":{"type":"Point","coordinates":[-110.7,54.3]},"properties":{"r":328.16,"w":6,"o":177}},{"type":"Feature","geometry":{"type":"Point","coordinates":[-110.6,54.3]},"properties":{"r":1764.27,"w":37,"o":66}},{"type":"Feature","geometry":{"type":"Point","coordinates":[-110.5,54.3]},"properties":{"r":1264.42,"w":39,"o":67}},{"type":"Feature","geometry":{"type":"Point","coordinates":[-110.4,54.3]},"properties":{"r":1618.13,"w":41,"o":46}},{"type":"Feature","geometry":{"type":"Point","coordinates":[-110.3,54.3]},"properties":{"r":59.65,"w":2,"o":97}},{"type":"Feature","geometry":{"type":"Point","coordinates":[-110.2,54.3]},"properties":{"r":47.45,"w":6,"o":67}},{"type":"Feature","geometry":{"type":"Point","coordinates":[-111.3,54.4]},"properties":{"r":408.12,"w":54,"o":67}},{"type":"Feature","geometry":{"type":"Point","coordinates":[-111.2,54.4]},"properties":{"r":267.76,"w":36,"o":67}},{"type":"Feature","geometry":{"type":"Point","coordinates":[-111.1,54.4]},"properties":{"r":1068.15,"w":85,"o":67}},{"type":"Feature","geometry":{"type":"Point","coordinates":[-111.0,54.4]},"properties":{"r":3462.39,"w":134,"o":67}},{"type":"Feature","geometry":{"type":"Point","coordinates":[-110.9,54.4]},"properties":{"r":3544.39,"w":95,"o":67}},{"type":"Feature","geometry":{"type":"Point","coordinates":[-110.8,54.4]},"properties":{"r":629.44,"w":45,"o":67}},{"type":"Feature","geometry":{"type":"Point","coordinates":[-110.7,54.4]},"properties":{"r":514.15,"w":55,"o":67}},{"type":"Feature","geometry":{"type":"Point","coordinates":[-110.6,54.4]},"properties":{"r":596.04,"w":34,"o":67}},{"type":"Feature","geometry":{"type":"Point","coordinates":[-110.5,54.4]},"properties":{"r":1256.93,"w":30,"o":66}},{"type":"Feature","geometry":{"type":"Point","coordinates":[-110.4,54.4]},"properties":{"r":1736.76,"w":39,"o":46}},{"type":"Feature","geometry":{"type":"Point","coordinates":[-110.3,54.4]},"properties":{"r":115.88,"w":5,"o":177}},{"type":"Feature","geometry":{"type":"Point","coordinates":[-110.2,54.4]},"properties":{"r":41.22,"w":3,"o":67}},{"type":"Feature","geometry":{"type":"Point","coordinates":[-111.3,54.5]},"properties":{"r":120.58,"w":11,"o":67}},{"type":"Feature","geometry":{"type":"Point","coordinates":[-111.2,54.5]},"properties":{"r":604.01,"w":87,"o":67}},{"type":"Feature","geometry":{"type":"Point","coordinates":[-111.1,54.5]},"properties":{"r":479.87,"w":34,"o":67}},{"type":"Feature","geometry":{"type":"Point","coordinates":[-111.0,54.5]},"properties":{"r":779.24,"w":67,"o":67}},{"type":"Feature","geometry":{"type":"Point","coordinates":[-110.9,54.5]},"properties":{"r":3339.44,"w":190,"o":67}},{"type":"Feature","geometry":{"type":"Point","coordinates":[-110.8,54.5]},"properties":{"r":963.14,"w":92,"o":67}},{"type":"Feature","geometry":{"type":"Point","coordinates":[-110.7,54.5]},"properties":{"r":214.31,"w":23,"o":67}},{"type":"Feature","geometry":{"type":"Point","coordinates":[-110.6,54.5]},"properties":{"r":949.38,"w":29,"o":67}},{"type":"Feature","geometry":{"type":"Point","coordinates":[-110.5,54.5]},"properties":{"r":386.3,"w":13,"o":67}},{"type":"Feature","geometry":{"type":"Point","coordinates":[-110.4,54.5]},"properties":{"r":910.57,"w":16,"o":295}},{"type":"Feature","geometry":{"type":"Point","coordinates":[-110.3,54.5]},"properties":{"r":353.3,"w":25,"o":67}},{"type":"Feature","geometry":{"type":"Point","coordinates":[-110.2,54.5]},"properties":{"r":17.09,"w":2,"o":67}},{"type":"Feature","geometry":{"type":"Point","coordinates":[-111.1,54.6]},"properties":{"r":976.3,"w":35,"o":67}},{"type":"Feature","geometry":{"type":"Point","coordinates":[-111.0,54.6]},"properties":{"r":1069.56,"w":88,"o":67}},{"type":"Feature","geometry":{"type":"Point","coordinates":[-110.9,54.6]},"properties":{"r":355.83,"w":29,"o":67}},{"type":"Feature","geometry":{"type":"Point","coordinates":[-110.8,54.6]},"properties":{"r":1372.31,"w":60,"o":67}},{"type":"Feature","geometry":{"type":"Point","coordinates":[-110.7,54.6]},"properties":{"r":66.8,"w":3,"o":67}},{"type":"Feature","geometry":{"type":"Point","coordinates":[-110.6,54.6]},"properties":{"r":2524.24,"w":53,"o":295}},{"type":"Feature","geometry":{"type":"Point","coordinates":[-110.5,54.6]},"properties":{"r":33917.01,"w":1259,"o":153}},{"type":"Feature","geometry":{"type":"Point","coordinates":[-110.4,54.6]},"properties":{"r":24157.42,"w":797,"o":153}},{"type":"Feature","geometry":{"type":"Point","coordinates":[-110.3,54.6]},"properties":{"r":2088.55,"w":57,"o":153}},{"type":"Feature","geometry":{"type":"Point","coordinates":[-111.0,54.7]},"properties":{"r":27.26,"w":5,"o":67}},{"type":"Feature","geometry":{"type":"Point","coordinates":[-110.8,54.7]},"properties":{"r":314.15,"w":19,"o":67}},{"type":"Feature","geometry":{"type":"Point","coordinates":[-110.7,54.7]},"properties":{"r":1201.67,"w":18,"o":67}},{"type":"Feature","geometry":{"type":"Point","coordinates":[-110.6,54.7]},"properties":{"r":4705.17,"w":153,"o":153}},{"type":"Feature","geometry":{"type":"Point","coordinates":[-110.5,54.7]},"properties":{"r":19205.74,"w":512,"o":153}},{"type":"Feature","geometry":{"type":"Point","coordinates":[-110.4,54.7]},"properties":{"r":410.16,"w":8,"o":153}},{"type":"Feature","geometry":{"type":"Point","coordinates":[-110.3,54.7]},"properties":{"r":4524.95,"w":158,"o":153}},{"type":"Feature","geometry":{"type":"Point","coordinates":[-110.7,54.8]},"properties":{"r":909.99,"w":22,"o":67}},{"type":"Feature","geometry":{"type":"Point","coordinates":[-110.6,54.8]},"properties":{"r":1759.93,"w":46,"o":67}},{"type":"Feature","geometry":{"type":"Point","coordinates":[-110.5,54.8]},"properties":{"r":465.51,"w":12,"o":67}},{"type":"Feature","geometry":{"type":"Point","coordinates":[-110.4,54.8]},"properties":{"r":974.14,"w":18,"o":67}},{"type":"Feature","geometry":{"type":"Point","coordinates":[-110.3,54.8]},"properties":{"r":2031.86,"w":43,"o":153}},{"type":"Feature","geometry":{"type":"Point","coordinates":[-110.6,54.9]},"properties":{"r":2799.93,"w":107,"o":67}},{"type":"Feature","geometry":{"type":"Point","coordinates":[-110.5,54.9]},"properties":{"r":1352.16,"w":35,"o":67}},{"type":"Feature","geometry":{"type":"Point","coordinates":[-110.6,55.0]},"properties":{"r":271.68,"w":4,"o":67}},{"type":"Feature","geometry":{"type":"Point","coordinates":[-110.8,55.1]},"properties":{"r":101.94,"w":2,"o":75}},{"type":"Feature","geometry":{"type":"Point","coordinates":[-110.7,55.1]},"properties":{"r":228.26,"w":5,"o":75}},{"type":"Feature","geometry":{"type":"Point","coordinates":[-110.6,55.1]},"properties":{"r":221.55,"w":5,"o":75}},{"type":"Feature","geometry":{"type":"Point","coordinates":[-110.5,55.1]},"properties":{"r":156.64,"w":4,"o":75}},{"type":"Feature","geometry":{"type":"Point","coordinates":[-110.4,55.1]},"properties":{"r":242.91,"w":7,"o":75}},{"type":"Feature","geometry":{"type":"Point","coordinates":[-113.8,55.3]},"properties":{"r":938.69,"w":21,"o":293}},{"type":"Feature","geometry":{"type":"Point","coordinates":[-113.7,55.3]},"properties":{"r":3725.76,"w":71,"o":67}},{"type":"Feature","geometry":{"type":"Point","coordinates":[-113.6,55.3]},"properties":{"r":938.84,"w":21,"o":293}},{"type":"Feature","geometry":{"type":"Point","coordinates":[-112.9,55.3]},"properties":{"r":29.96,"w":6,"o":52}},{"type":"Feature","geometry":{"type":"Point","coordinates":[-112.5,55.3]},"properties":{"r":40.59,"w":3,"o":79}},{"type":"Feature","geometry":{"type":"Point","coordinates":[-111.1,55.3]},"properties":{"r":206.31,"w":3,"o":67}},{"type":"Feature","geometry":{"type":"Point","coordinates":[-111.0,55.3]},"properties":{"r":54.01,"w":1,"o":67}},{"type":"Feature","geometry":{"type":"Point","coordinates":[-113.9,55.4]},"properties":{"r":1639.08,"w":26,"o":306}},{"type":"Feature","geometry":{"type":"Point","coordinates":[-113.8,55.4]},"properties":{"r":5680.88,"w":126,"o":306}},{"type":"Feature","geometry":{"type":"Point","coordinates":[-113.7,55.4]},"properties":{"r":4783.64,"w":117,"o":293}},{"type":"Feature","geometry":{"type":"Point","coordinates":[-113.6,55.4]},"properties":{"r":1453.17,"w":30,"o":293}},{"type":"Feature","geometry":{"type":"Point","coordinates":[-113.0,55.4]},"properties":{"r":38.28,"w":4,"o":52}},{"type":"Feature","geometry":{"type":"Point","coordinates":[-112.9,55.4]},"properties":{"r":16.4,"w":3,"o":52}},{"type":"Feature","geometry":{"type":"Point","coordinates":[-114.4,55.5]},"properties":{"r":28.7,"w":1,"o":144}},{"type":"Feature","geometry":{"type":"Point","coordinates":[-114.3,55.5]},"properties":{"r":793.63,"w":20,"o":144}},{"type":"Feature","geometry":{"type":"Point","coordinates":[-114.2,55.5]},"properties":{"r":3232.83,"w":61,"o":144}},{"type":"Feature","geometry":{"type":"Point","coordinates":[-114.1,55.5]},"properties":{"r":1597.88,"w":27,"o":144}},{"type":"Feature","geometry":{"type":"Point","coordinates":[-114.0,55.5]},"properties":{"r":312.46,"w":6,"o":306}},{"type":"Feature","geometry":{"type":"Point","coordinates":[-113.9,55.5]},"properties":{"r":2909.91,"w":53,"o":306}},{"type":"Feature","geometry":{"type":"Point","coordinates":[-113.8,55.5]},"properties":{"r":2877.27,"w":58,"o":306}},{"type":"Feature","geometry":{"type":"Point","coordinates":[-113.7,55.5]},"properties":{"r":1476.22,"w":33,"o":144}},{"type":"Feature","geometry":{"type":"Point","coordinates":[-113.6,55.5]},"properties":{"r":39.73,"w":1,"o":144}},{"type":"Feature","geometry":{"type":"Point","coordinates":[-111.2,55.5]},"properties":{"r":518.45,"w":16,"o":67}},{"type":"Feature","geometry":{"type":"Point","coordinates":[-111.1,55.5]},"properties":{"r":214.96,"w":3,"o":67}},{"type":"Feature","geometry":{"type":"Point","coordinates":[-111.0,55.5]},"properties":{"r":324.32,"w":8,"o":67}},{"type":"Feature","geometry":{"type":"Point","coordinates":[-110.9,55.5]},"properties":{"r":609.69,"w":8,"o":67}},{"type":"Feature","geometry":{"type":"Point","coordinates":[-114.6,55.6]},"properties":{"r":166.55,"w":4,"o":306}},{"type":"Feature","geometry":{"type":"Point","coordinates":[-114.5,55.6]},"properties":{"r":325.79,"w":5,"o":293}},{"type":"Feature","geometry":{"type":"Point","coordinates":[-114.4,55.6]},"properties":{"r":485.85,"w":13,"o":293}},{"type":"Feature","geometry":{"type":"Point","coordinates":[-114.3,55.6]},"properties":{"r":832.79,"w":20,"o":144}},{"type":"Feature","geometry":{"type":"Point","coordinates":[-114.2,55.6]},"properties":{"r":176.99,"w":5,"o":144}},{"type":"Feature","geometry":{"type":"Point","coordinates":[-113.9,55.6]},"properties":{"r":46.94,"w":1,"o":306}},{"type":"Feature","geometry":{"type":"Point","coordinates":[-112.7,55.6]},"properties":{"r":217.42,"w":20,"o":160}},{"type":"Feature","geometry":{"type":"Point","coordinates":[-112.6,55.6]},"properties":{"r":56.4,"w":5,"o":160}},{"type":"Feature","geometry":{"type":"Point","coordinates":[-110.9,55.6]},"properties":{"r":245.83,"w":7,"o":75}},{"type":"Feature","geometry":{"type":"Point","coordinates":[-110.8,55.6]},"properties":{"r":1347.0,"w":27,"o":75}},{"type":"Feature","geometry":{"type":"Point","coordinates":[-110.7,55.6]},"properties":{"r":841.49,"w":19,"o":75}},{"type":"Feature","geometry":{"type":"Point","coordinates":[-110.6,55.6]},"properties":{"r":16.9,"w":1,"o":75}},{"type":"Feature","geometry":{"type":"Point","coordinates":[-116.4,55.7]},"properties":{"r":65.92,"w":4,"o":218}},{"type":"Feature","geometry":{"type":"Point","coordinates":[-116.3,55.7]},"properties":{"r":241.3,"w":7,"o":218}},{"type":"Feature","geometry":{"type":"Point","coordinates":[-114.3,55.7]},"properties":{"r":16.79,"w":2,"o":293}},{"type":"Feature","geometry":{"type":"Point","coordinates":[-113.8,55.7]},"properties":{"r":7.53,"w":3,"o":75}},{"type":"Feature","geometry":{"type":"Point","coordinates":[-113.7,55.7]},"properties":{"r":9.73,"w":1,"o":75}},{"type":"Feature","geometry":{"type":"Point","coordinates":[-113.4,55.7]},"properties":{"r":43.99,"w":1,"o":66}},{"type":"Feature","geometry":{"type":"Point","coordinates":[-110.8,55.7]},"properties":{"r":1657.89,"w":36,"o":75}},{"type":"Feature","geometry":{"type":"Point","coordinates":[-110.7,55.7]},"properties":{"r":1138.56,"w":36,"o":75}},{"type":"Feature","geometry":{"type":"Point","coordinates":[-110.6,55.7]},"properties":{"r":805.35,"w":19,"o":75}},{"type":"Feature","geometry":{"type":"Point","coordinates":[-117.0,55.8]},"properties":{"r":113.24,"w":8,"o":46}},{"type":"Feature","geometry":{"type":"Point","coordinates":[-116.6,55.8]},"properties":{"r":55.43,"w":1,"o":218}},{"type":"Feature","geometry":{"type":"Point","coordinates":[-116.5,55.8]},"properties":{"r":1455.52,"w":31,"o":218}},{"type":"Feature","geometry":{"type":"Point","coordinates":[-116.4,55.8]},"properties":{"r":2075.05,"w":40,"o":46}},{"type":"Feature","geometry":{"type":"Point","coordinates":[-116.3,55.8]},"properties":{"r":1144.49,"w":21,"o":46}},{"type":"Feature","geometry":{"type":"Point","coordinates":[-115.9,55.8]},"properties":{"r":61.56,"w":1,"o":79}},{"type":"Feature","geometry":{"type":"Point","coordinates":[-114.1,55.8]},"properties":{"r":152.0,"w":3,"o":293}},{"type":"Feature","geometry":{"type":"Point","coordinates":[-114.0,55.8]},"properties":{"r":24.57,"w":1,"o":293}},{"type":"Feature","geometry":{"type":"Point","coordinates":[-113.9,55.8]},"properties":{"r":61.68,"w":1,"o":75}},{"type":"Feature","geometry":{"type":"Point","coordinates":[-113.8,55.8]},"properties":{"r":109.0,"w":15,"o":75}},{"type":"Feature","geometry":{"type":"Point","coordinates":[-113.7,55.8]},"properties":{"r":197.12,"w":7,"o":75}},{"type":"Feature","geometry":{"type":"Point","coordinates":[-113.5,55.8]},"properties":{"r":23.82,"w":1,"o":67}},{"type":"Feature","geometry":{"type":"Point","coordinates":[-113.4,55.8]},"properties":{"r":316.31,"w":9,"o":67}},{"type":"Feature","geometry":{"type":"Point","coordinates":[-113.3,55.8]},"properties":{"r":35.06,"w":4,"o":67}},{"type":"Feature","geometry":{"type":"Point","coordinates":[-111.5,55.8]},"properties":{"r":855.62,"w":13,"o":34}},{"type":"Feature","geometry":{"type":"Point","coordinates":[-117.1,55.9]},"properties":{"r":281.74,"w":12,"o":46}},{"type":"Feature","geometry":{"type":"Point","coordinates":[-117.0,55.9]},"properties":{"r":11.47,"w":2,"o":46}},{"type":"Feature","geometry":{"type":"Point","coordinates":[-116.9,55.9]},"properties":{"r":35.08,"w":1,"o":46}},{"type":"Feature","geometry":{"type":"Point","coordinates":[-116.6,55.9]},"properties":{"r":1512.26,"w":25,"o":218}},{"type":"Feature","geometry":{"type":"Point","coordinates":[-116.5,55.9]},"properties":{"r":570.55,"w":12,"o":218}},{"type":"Feature","geometry":{"type":"Point","coordinates":[-116.4,55.9]},"properties":{"r":41.95,"w":3,"o":218}},{"type":"Feature","geometry":{"type":"Point","coordinates":[-116.0,55.9]},"properties":{"r":58.31,"w":3,"o":218}},{"type":"Feature","geometry":{"type":"Point","coordinates":[-115.9,55.9]},"properties":{"r":154.54,"w":2,"o":79}},{"type":"Feature","geometry":{"type":"Point","coordinates":[-115.8,55.9]},"properties":{"r":876.86,"w":20,"o":79}},{"type":"Feature","geometry":{"type":"Point","coordinates":[-115.7,55.9]},"properties":{"r":204.02,"w":7,"o":79}},{"type":"Feature","geometry":{"type":"Point","coordinates":[-114.3,55.9]},"properties":{"r":902.25,"w":32,"o":293}},{"type":"Feature","geometry":{"type":"Point","coordinates":[-114.2,55.9]},"properties":{"r":107.66,"w":8,"o":293}},{"type":"Feature","geometry":{"type":"Point","coordinates":[-114.1,55.9]},"properties":{"r":429.87,"w":7,"o":293}},{"type":"Feature","geometry":{"type":"Point","coordinates":[-114.0,55.9]},"properties":{"r":214.06,"w":3,"o":293}},{"type":"Feature","geometry":{"type":"Point","coordinates":[-113.6,55.9]},"properties":{"r":5.74,"w":1,"o":144}},{"type":"Feature","geometry":{"type":"Point","coordinates":[-113.5,55.9]},"properties":{"r":200.06,"w":7,"o":67}},{"type":"Feature","geometry":{"type":"Point","coordinates":[-113.4,55.9]},"properties":{"r":1306.6,"w":35,"o":67}},{"type":"Feature","geometry":{"type":"Point","coordinates":[-113.3,55.9]},"properties":{"r":2213.0,"w":70,"o":67}},{"type":"Feature","geometry":{"type":"Point","coordinates":[-113.2,55.9]},"properties":{"r":1234.12,"w":56,"o":67}},{"type":"Feature","geometry":{"type":"Point","coordinates":[-113.1,55.9]},"properties":{"r":127.45,"w":8,"o":67}},{"type":"Feature","geometry":{"type":"Point","coordinates":[-116.9,56.0]},"properties":{"r":86.59,"w":3,"o":218}},{"type":"Feature","geometry":{"type":"Point","coordinates":[-116.8,56.0]},"properties":{"r":24.15,"w":1,"o":46}},{"type":"Feature","geometry":{"type":"Point","coordinates":[-116.4,56.0]},"properties":{"r":41.89,"w":1,"o":134}},{"type":"Feature","geometry":{"type":"Point","coordinates":[-116.3,56.0]},"properties":{"r":95.56,"w":2,"o":46}},{"type":"Feature","geometry":{"type":"Point","coordinates":[-116.0,56.0]},"properties":{"r":392.86,"w":8,"o":162}},{"type":"Feature","geometry":{"type":"Point","coordinates":[-115.9,56.0]},"properties":{"r":531.19,"w":9,"o":162}},{"type":"Feature","geometry":{"type":"Point","coordinates":[-114.3,56.0]},"properties":{"r":48.28,"w":1,"o":293}},{"type":"Feature","geometry":{"type":"Point","coordinates":[-114.2,56.0]},"properties":{"r":182.49,"w":6,"o":293}},{"type":"Feature","geometry":{"type":"Point","coordinates":[-113.6,56.0]},"properties":{"r":231.59,"w":12,"o":67}},{"type":"Feature","geometry":{"type":"Point","coordinates":[-113.5,56.0]},"properties":{"r":2609.18,"w":83,"o":67}},{"type":"Feature","geometry":{"type":"Point","coordinates":[-113.4,56.0]},"properties":{"r":5238.27,"w":113,"o":67}},{"type":"Feature","geometry":{"type":"Point","coordinates":[-113.3,56.0]},"properties":{"r":1370.84,"w":56,"o":67}},{"type":"Feature","geometry":{"type":"Point","coordinates":[-113.2,56.0]},"properties":{"r":741.67,"w":69,"o":67}},{"type":"Feature","geometry":{"type":"Point","coordinates":[-113.1,56.0]},"properties":{"r":378.73,"w":37,"o":67}},{"type":"Feature","geometry":{"type":"Point","coordinates":[-116.8,56.1]},"properties":{"r":225.91,"w":6,"o":46}},{"type":"Feature","geometry":{"type":"Point","coordinates":[-116.7,56.1]},"properties":{"r":1096.46,"w":30,"o":218}},{"type":"Feature","geometry":{"type":"Point","coordinates":[-116.6,56.1]},"properties":{"r":220.21,"w":11,"o":218}},{"type":"Feature","geometry":{"type":"Point","coordinates":[-116.5,56.1]},"properties":{"r":374.68,"w":9,"o":218}},{"type":"Feature","geometry":{"type":"Point","coordinates":[-116.4,56.1]},"properties":{"r":117.16,"w":3,"o":218}},{"type":"Feature","geometry":{"type":"Point","coordinates":[-116.3,56.1]},"properties":{"r":854.7,"w":39,"o":218}},{"type":"Feature","geometry":{"type":"Point","coordinates":[-116.2,56.1]},"properties":{"r":12.87,"w":2,"o":46}},{"type":"Feature","geometry":{"type":"Point","coordinates":[-116.1,56.1]},"properties":{"r":123.3,"w":20,"o":46}},{"type":"Feature","geometry":{"type":"Point","coordinates":[-116.0,56.1]},"properties":{"r":35.33,"w":1,"o":162}},{"type":"Feature","geometry":{"type":"Point","coordinates":[-115.9,56.1]},"properties":{"r":215.17,"w":6,"o":162}},{"type":"Feature","geometry":{"type":"Point","coordinates":[-115.8,56.1]},"properties":{"r":63.69,"w":1,"o":162}},{"type":"Feature","geometry":{"type":"Point","coordinates":[-113.8,56.1]},"properties":{"r":17.05,"w":1,"o":177}},{"type":"Feature","geometry":{"type":"Point","coordinates":[-113.6,56.1]},"properties":{"r":560.09,"w":21,"o":67}},{"type":"Feature","geometry":{"type":"Point","coordinates":[-113.5,56.1]},"properties":{"r":3101.52,"w":82,"o":67}},{"type":"Feature","geometry":{"type":"Point","coordinates":[-113.4,56.1]},"properties":{"r":3091.6,"w":80,"o":67}},{"type":"Feature","geometry":{"type":"Point","coordinates":[-113.3,56.1]},"properties":{"r":2479.02,"w":76,"o":67}},{"type":"Feature","geometry":{"type":"Point","coordinates":[-113.2,56.1]},"properties":{"r":1035.78,"w":44,"o":67}},{"type":"Feature","geometry":{"type":"Point","coordinates":[-113.1,56.1]},"properties":{"r":2061.17,"w":126,"o":67}},{"type":"Feature","geometry":{"type":"Point","coordinates":[-113.0,56.1]},"properties":{"r":168.27,"w":20,"o":67}},{"type":"Feature","geometry":{"type":"Point","coordinates":[-112.9,56.1]},"properties":{"r":203.64,"w":14,"o":67}},{"type":"Feature","geometry":{"type":"Point","coordinates":[-111.8,56.1]},"properties":{"r":647.28,"w":11,"o":84}},{"type":"Feature","geometry":{"type":"Point","coordinates":[-111.7,56.1]},"properties":{"r":474.15,"w":6,"o":84}},{"type":"Feature","geometry":{"type":"Point","coordinates":[-117.0,56.2]},"properties":{"r":252.79,"w":4,"o":46}},{"type":"Feature","geometry":{"type":"Point","coordinates":[-116.9,56.2]},"properties":{"r":568.43,"w":20,"o":46}},{"type":"Feature","geometry":{"type":"Point","coordinates":[-116.8,56.2]},"properties":{"r":502.41,"w":33,"o":218}},{"type":"Feature","geometry":{"type":"Point","coordinates":[-116.7,56.2]},"properties":{"r":1393.9,"w":42,"o":218}},{"type":"Feature","geometry":{"type":"Point","coordinates":[-116.6,56.2]},"properties":{"r":64.91,"w":6,"o":218}},{"type":"Feature","geometry":{"type":"Point","coordinates":[-116.5,56.2]},"properties":{"r":51.77,"w":3,"o":218}},{"type":"Feature","geometry":{"type":"Point","coordinates":[-116.3,56.2]},"properties":{"r":983.05,"w":74,"o":46}},{"type":"Feature","geometry":{"type":"Point","coordinates":[-116.2,56.2]},"properties":{"r":110.24,"w":9,"o":46}},{"type":"Feature","geometry":{"type":"Point","coordinates":[-116.1,56.2]},"properties":{"r":375.5,"w":34,"o":46}},{"type":"Feature","geometry":{"type":"Point","coordinates":[-113.4,56.2]},"properties":{"r":10.04,"w":1,"o":67}},{"type":"Feature","geometry":{"type":"Point","coordinates":[-113.3,56.2]},"properties":{"r":410.16,"w":23,"o":67}},{"type":"Feature","geometry":{"type":"Point","coordinates":[-113.2,56.2]},"properties":{"r":992.74,"w":33,"o":67}},{"type":"Feature","geometry":{"type":"Point","coordinates":[-113.1,56.2]},"properties":{"r":1414.3,"w":42,"o":67}},{"type":"Feature","geometry":{"type":"Point","coordinates":[-113.0,56.2]},"properties":{"r":1566.29,"w":60,"o":67}},{"type":"Feature","geometry":{"type":"Point","coordinates":[-112.9,56.2]},"properties":{"r":1530.73,"w":68,"o":67}},{"type":"Feature","geometry":{"type":"Point","coordinates":[-112.8,56.2]},"properties":{"r":1300.69,"w":73,"o":67}},{"type":"Feature","geometry":{"type":"Point","coordinates":[-111.0,56.2]},"properties":{"r":150.98,"w":8,"o":85}},{"type":"Feature","geometry":{"type":"Point","coordinates":[-110.9,56.2]},"properties":{"r":131.92,"w":4,"o":85}},{"type":"Feature","geometry":{"type":"Point","coordinates":[-110.8,56.2]},"properties":{"r":349.88,"w":7,"o":85}},{"type":"Feature","geometry":{"type":"Point","coordinates":[-116.9,56.3]},"properties":{"r":867.51,"w":44,"o":46}},{"type":"Feature","geometry":{"type":"Point","coordinates":[-116.8,56.3]},"properties":{"r":1115.37,"w":91,"o":46}},{"type":"Feature","geometry":{"type":"Point","coordinates":[-116.7,56.3]},"properties":{"r":1726.65,"w":62,"o":46}},{"type":"Feature","geometry":{"type":"Point","coordinates":[-116.6,56.3]},"properties":{"r":2013.39,"w":118,"o":67}},{"type":"Feature","geometry":{"type":"Point","coordinates":[-116.5,56.3]},"properties":{"r":308.62,"w":31,"o":67}},{"type":"Feature","geometry":{"type":"Point","coordinates":[-116.3,56.3]},"properties":{"r":197.63,"w":11,"o":46}},{"type":"Feature","geometry":{"type":"Point","coordinates":[-116.2,56.3]},"properties":{"r":148.77,"w":8,"o":46}},{"type":"Feature","geometry":{"type":"Point","coordinates":[-113.9,56.3]},"properties":{"r":537.42,"w":7,"o":67}},{"type":"Feature","geometry":{"type":"Point","coordinates":[-113.8,56.3]},"properties":{"r":127.05,"w":3,"o":67}},{"type":"Feature","geometry":{"type":"Point","coordinates":[-111.7,56.3]},"properties":{"r":310.8,"w":5,"o":136}},{"type":"Feature","geometry":{"type":"Point","coordinates":[-111.6,56.3]},"properties":{"r":125.1,"w":3,"o":136}},{"type":"Feature","geometry":{"type":"Point","coordinates":[-111.0,56.3]},"properties":{"r":214.84,"w":4,"o":80}},{"type":"Feature","geometry":{"type":"Point","coordinates":[-117.1,56.4]},"properties":{"r":89.4,"w":5,"o":46}},{"type":"Feature","geometry":{"type":"Point","coordinates":[-117.0,56.4]},"properties":{"r":79.42,"w":1,"o":46}},{"type":"Feature","geometry":{"type":"Point","coordinates":[-116.9,56.4]},"properties":{"r":583.55,"w":15,"o":67}},{"type":"Feature","geometry":{"type":"Point","coordinates":[-116.8,56.4]},"properties":{"r":1074.23,"w":34,"o":67}},{"type":"Feature","geometry":{"type":"Point","coordinates":[-116.7,56.4]},"properties":{"r":78.85,"w":2,"o":67}},{"type":"Feature","geometry":{"type":"Point","coordinates":[-116.6,56.4]},"properties":{"r":126.76,"w":6,"o":67}},{"type":"Feature","geometry":{"type":"Point","coordinates":[-116.5,56.4]},"properties":{"r":160.96,"w":3,"o":218}},{"type":"Feature","geometry":{"type":"Point","coordinates":[-116.4,56.4]},"properties":{"r":0.38,"w":1,"o":218}},{"type":"Feature","geometry":{"type":"Point","coordinates":[-116.3,56.4]},"properties":{"r":77.66,"w":3,"o":46}},{"type":"Feature","geometry":{"type":"Point","coordinates":[-116.2,56.4]},"properties":{"r":19.18,"w":1,"o":137}},{"type":"Feature","geometry":{"type":"Point","coordinates":[-113.6,56.4]},"properties":{"r":17.28,"w":2,"o":67}},{"type":"Feature","geometry":{"type":"Point","coordinates":[-111.8,56.4]},"properties":{"r":263.88,"w":10,"o":137}},{"type":"Feature","geometry":{"type":"Point","coordinates":[-111.0,56.4]},"properties":{"r":282.5,"w":5,"o":80}},{"type":"Feature","geometry":{"type":"Point","coordinates":[-110.9,56.4]},"properties":{"r":470.12,"w":8,"o":80}},{"type":"Feature","geometry":{"type":"Point","coordinates":[-116.6,56.5]},"properties":{"r":40.36,"w":2,"o":293}},{"type":"Feature","geometry":{"type":"Point","coordinates":[-113.7,56.5]},"properties":{"r":414.27,"w":9,"o":67}},{"type":"Feature","geometry":{"type":"Point","coordinates":[-113.6,56.5]},"properties":{"r":347.11,"w":43,"o":67}},{"type":"Feature","geometry":{"type":"Point","coordinates":[-116.3,56.6]},"properties":{"r":558.01,"w":10,"o":293}},{"type":"Feature","geometry":{"type":"Point","coordinates":[-116.2,56.6]},"properties":{"r":20.61,"w":1,"o":293}},{"type":"Feature","geometry":{"type":"Point","coordinates":[-115.8,56.6]},"properties":{"r":168.48,"w":9,"o":293}},{"type":"Feature","geometry":{"type":"Point","coordinates":[-116.3,56.7]},"properties":{"r":158.92,"w":4,"o":293}},{"type":"Feature","geometry":{"type":"Point","coordinates":[-116.2,56.7]},"properties":{"r":84.43,"w":2,"o":293}},{"type":"Feature","geometry":{"type":"Point","coordinates":[-112.1,56.8]},"properties":{"r":716.91,"w":13,"o":233}},{"type":"Feature","geometry":{"type":"Point","coordinates":[-111.9,57.0]},"properties":{"r":672.15,"w":12,"o":299}},{"type":"Feature","geometry":{"type":"Point","coordinates":[-111.9,57.1]},"properties":{"r":516.83,"w":12,"o":299}},{"type":"Feature","geometry":{"type":"Point","coordinates":[-111.1,57.2]},"properties":{"r":365.0,"w":4,"o":75}},{"type":"Feature","geometry":{"type":"Point","coordinates":[-110.9,57.2]},"properties":{"r":416.7,"w":11,"o":299}},{"type":"Feature","geometry":{"type":"Point","coordinates":[-110.8,57.2]},"properties":{"r":258.13,"w":7,"o":299}},{"type":"Feature","geometry":{"type":"Point","coordinates":[-111.1,57.3]},"properties":{"r":281.78,"w":6,"o":75}}]}