{"type":"FeatureCollection","features":[{"type":"Feature","geometry":{"type":"Point","coordinates":[-113.7,49.0]},"properties":{"r":3.94,"w":1,"o":185}},{"type":"Feature","geometry":{"type":"Point","coordinates":[-113.7,49.1]},"properties":{"r":1.38,"w":1,"o":185}},{"type":"Feature","geometry":{"type":"Point","coordinates":[-112.4,50.1]},"properties":{"r":0.27,"w":1,"o":43}},{"type":"Feature","geometry":{"type":"Point","coordinates":[-113.5,50.2]},"properties":{"r":0.02,"w":1,"o":181}},{"type":"Feature","geometry":{"type":"Point","coordinates":[-113.6,50.3]},"properties":{"r":0.06,"w":2,"o":181}},{"type":"Feature","geometry":{"type":"Point","coordinates":[-113.5,50.3]},"properties":{"r":0.52,"w":12,"o":181}},{"type":"Feature","geometry":{"type":"Point","coordinates":[-113.4,50.3]},"properties":{"r":0.06,"w":1,"o":181}},{"type":"Feature","geometry":{"type":"Point","coordinates":[-112.5,50.3]},"properties":{"r":0.69,"w":1,"o":67}},{"type":"Feature","geometry":{"type":"Point","coordinates":[-112.3,50.4]},"properties":{"r":1.53,"w":1,"o":67}},{"type":"Feature","geometry":{"type":"Point","coordinates":[-113.1,50.5]},"properties":{"r":8.11,"w":3,"o":67}},{"type":"Feature","geometry":{"type":"Point","coordinates":[-113.0,50.5]},"properties":{"r":1.59,"w":1,"o":67}},{"type":"Feature","geometry":{"type":"Point","coordinates":[-112.0,50.5]},"properties":{"r":0.02,"w":1,"o":67}},{"type":"Feature","geometry":{"type":"Point","coordinates":[-112.9,50.6]},"properties":{"r":0.63,"w":1,"o":67}},{"type":"Feature","geometry":{"type":"Point","coordinates":[-112.3,50.7]},"properties":{"r":4.95,"w":2,"o":67}},{"type":"Feature","geometry":{"type":"Point","coordinates":[-112.0,50.7]},"properties":{"r":0.06,"w":1,"o":67}},{"type":"Feature","geometry":{"type":"Point","coordinates":[-111.8,50.7]},"properties":{"r":0.02,"w":1,"o":67}},{"type":"Feature","geometry":{"type":"Point","coordinates":[-112.3,50.8]},"properties":{"r":0.06,"w":1,"o":67}},{"type":"Feature","geometry":{"type":"Point","coordinates":[-112.2,50.8]},"properties":{"r":3.29,"w":2,"o":67}},{"type":"Feature","geometry":{"type":"Point","coordinates":[-112.1,50.8]},"properties":{"r":1.38,"w":1,"o":67}},{"type":"Feature","geometry":{"type":"Point","coordinates":[-112.0,50.8]},"properties":{"r":0.23,"w":1,"o":67}},{"type":"Feature","geometry":{"type":"Point","coordinates":[-111.9,50.8]},"properties":{"r":0.06,"w":1,"o":67}},{"type":"Feature","geometry":{"type":"Point","coordinates":[-111.8,50.8]},"properties":{"r":2.7,"w":2,"o":67}},{"type":"Feature","geometry":{"type":"Point","coordinates":[-113.4,50.9]},"properties":{"r":0.9,"w":2,"o":231}},{"type":"Feature","geometry":{"type":"Point","coordinates":[-112.8,50.9]},"properties":{"r":0.06,"w":1,"o":189}},{"type":"Feature","geometry":{"type":"Point","coordinates":[-112.7,50.9]},"properties":{"r":0.19,"w":3,"o":189}},{"type":"Feature","geometry":{"type":"Point","coordinates":[-112.5,50.9]},"properties":{"r":0.04,"w":1,"o":67}},{"type":"Feature","geometry":{"type":"Point","coordinates":[-112.1,50.9]},"properties":{"r":1.7,"w":1,"o":67}},{"type":"Feature","geometry":{"type":"Point","coordinates":[-113.1,51.0]},"properties":{"r":0.04,"w":1,"o":189}},{"type":"Feature","geometry":{"type":"Point","coordinates":[-113.0,51.0]},"properties":{"r":9.54,"w":5,"o":189}},{"type":"Feature","geometry":{"type":"Point","coordinates":[-112.9,51.0]},"properties":{"r":14.17,"w":12,"o":189}},{"type":"Feature","geometry":{"type":"Point","coordinates":[-112.8,51.0]},"properties":{"r":0.82,"w":13,"o":189}},{"type":"Feature","geometry":{"type":"Point","coordinates":[-112.7,51.0]},"properties":{"r":0.31,"w":5,"o":189}},{"type":"Feature","geometry":{"type":"Point","coordinates":[-112.5,51.0]},"properties":{"r":0.55,"w":3,"o":67}},{"type":"Feature","geometry":{"type":"Point","coordinates":[-112.4,51.0]},"properties":{"r":3.98,"w":4,"o":67}},{"type":"Feature","geometry":{"type":"Point","coordinates":[-112.3,51.0]},"properties":{"r":0.04,"w":2,"o":67}},{"type":"Feature","geometry":{"type":"Point","coordinates":[-113.2,51.1]},"properties":{"r":0.34,"w":5,"o":189}},{"type":"Feature","geometry":{"type":"Point","coordinates":[-113.1,51.1]},"properties":{"r":0.13,"w":2,"o":189}},{"type":"Feature","geometry":{"type":"Point","coordinates":[-113.0,51.1]},"properties":{"r":4.91,"w":4,"o":189}},{"type":"Feature","geometry":{"type":"Point","coordinates":[-112.9,51.1]},"properties":{"r":0.19,"w":3,"o":189}},{"type":"Feature","geometry":{"type":"Point","coordinates":[-112.8,51.1]},"properties":{"r":4.34,"w":4,"o":75}},{"type":"Feature","geometry":{"type":"Point","coordinates":[-112.7,51.1]},"properties":{"r":5.83,"w":2,"o":67}},{"type":"Feature","geometry":{"type":"Point","coordinates":[-112.6,51.1]},"properties":{"r":0.52,"w":1,"o":67}},{"type":"Feature","geometry":{"type":"Point","coordinates":[-112.5,51.1]},"properties":{"r":0.42,"w":1,"o":67}},{"type":"Feature","geometry":{"type":"Point","coordinates":[-112.2,51.1]},"properties":{"r":1.07,"w":3,"o":67}},{"type":"Feature","geometry":{"type":"Point","coordinates":[-112.1,51.1]},"properties":{"r":0.04,"w":1,"o":67}},{"type":"Feature","geometry":{"type":"Point","coordinates":[-113.2,51.2]},"properties":{"r":0.21,"w":4,"o":189}},{"type":"Feature","geometry":{"type":"Point","coordinates":[-113.1,51.2]},"properties":{"r":0.13,"w":2,"o":189}},{"type":"Feature","geometry":{"type":"Point","coordinates":[-113.0,51.2]},"properties":{"r":0.4,"w":3,"o":189}},{"type":"Feature","geometry":{"type":"Point","coordinates":[-112.9,51.2]},"properties":{"r":0.36,"w":2,"o":189}},{"type":"Feature","geometry":{"type":"Point","coordinates":[-112.7,51.2]},"properties":{"r":0.02,"w":1,"o":67}},{"type":"Feature","geometry":{"type":"Point","coordinates":[-112.6,51.2]},"properties":{"r":1.68,"w":1,"o":67}},{"type":"Feature","geometry":{"type":"Point","coordinates":[-112.3,51.2]},"properties":{"r":0.27,"w":1,"o":67}},{"type":"Feature","geometry":{"type":"Point","coordinates":[-112.2,51.2]},"properties":{"r":0.19,"w":3,"o":67}},{"type":"Feature","geometry":{"type":"Point","coordinates":[-112.1,51.2]},"properties":{"r":0.15,"w":2,"o":67}},{"type":"Feature","geometry":{"type":"Point","coordinates":[-111.7,51.2]},"properties":{"r":0.92,"w":1,"o":67}},{"type":"Feature","geometry":{"type":"Point","coordinates":[-113.8,51.3]},"properties":{"r":0.25,"w":2,"o":110}},{"type":"Feature","geometry":{"type":"Point","coordinates":[-113.7,51.3]},"properties":{"r":0.15,"w":1,"o":110}},{"type":"Feature","geometry":{"type":"Point","coordinates":[-113.2,51.3]},"properties":{"r":0.08,"w":4,"o":110}},{"type":"Feature","geometry":{"type":"Point","coordinates":[-113.1,51.3]},"properties":{"r":0.4,"w":6,"o":189}},{"type":"Feature","geometry":{"type":"Point","coordinates":[-113.0,51.3]},"properties":{"r":0.5,"w":8,"o":189}},{"type":"Feature","geometry":{"type":"Point","coordinates":[-112.9,51.3]},"properties":{"r":0.34,"w":5,"o":189}},{"type":"Feature","geometry":{"type":"Point","coordinates":[-112.8,51.3]},"properties":{"r":3.79,"w":2,"o":67}},{"type":"Feature","geometry":{"type":"Point","coordinates":[-112.7,51.3]},"properties":{"r":0.19,"w":1,"o":67}},{"type":"Feature","geometry":{"type":"Point","coordinates":[-112.5,51.3]},"properties":{"r":0.44,"w":2,"o":67}},{"type":"Feature","geometry":{"type":"Point","coordinates":[-112.4,51.3]},"properties":{"r":1.36,"w":11,"o":67}},{"type":"Feature","geometry":{"type":"Point","coordinates":[-112.3,51.3]},"properties":{"r":0.69,"w":5,"o":67}},{"type":"Feature","geometry":{"type":"Point","coordinates":[-112.2,51.3]},"properties":{"r":0.13,"w":2,"o":67}},{"type":"Feature","geometry":{"type":"Point","coordinates":[-111.9,51.3]},"properties":{"r":0.31,"w":1,"o":296}},{"type":"Feature","geometry":{"type":"Point","coordinates":[-111.8,51.3]},"properties":{"r":0.08,"w":1,"o":296}},{"type":"Feature","geometry":{"type":"Point","coordinates":[-111.7,51.3]},"properties":{"r":1.64,"w":1,"o":67}},{"type":"Feature","geometry":{"type":"Point","coordinates":[-111.3,51.3]},"properties":{"r":1.45,"w":1,"o":255}},{"type":"Feature","geometry":{"type":"Point","coordinates":[-114.8,51.4]},"properties":{"r":0.27,"w":1,"o":69}},{"type":"Feature","geometry":{"type":"Point","coordinates":[-113.5,51.4]},"properties":{"r":0.21,"w":2,"o":11}},{"type":"Feature","geometry":{"type":"Point","coordinates":[-113.2,51.4]},"properties":{"r":0.44,"w":15,"o":110}},{"type":"Feature","geometry":{"type":"Point","coordinates":[-113.1,51.4]},"properties":{"r":0.57,"w":9,"o":189}},{"type":"Feature","geometry":{"type":"Point","coordinates":[-113.0,51.4]},"properties":{"r":3.46,"w":22,"o":189}},{"type":"Feature","geometry":{"type":"Point","coordinates":[-112.9,51.4]},"properties":{"r":0.92,"w":14,"o":189}},{"type":"Feature","geometry":{"type":"Point","coordinates":[-112.8,51.4]},"properties":{"r":3.17,"w":21,"o":189}},{"type":"Feature","geometry":{"type":"Point","coordinates":[-112.7,51.4]},"properties":{"r":3.67,"w":10,"o":189}},{"type":"Feature","geometry":{"type":"Point","coordinates":[-112.6,51.4]},"properties":{"r":3.12,"w":2,"o":67}},{"type":"Feature","geometry":{"type":"Point","coordinates":[-112.5,51.4]},"properties":{"r":7.46,"w":13,"o":67}},{"type":"Feature","geometry":{"type":"Point","coordinates":[-112.4,51.4]},"properties":{"r":0.38,"w":9,"o":67}},{"type":"Feature","geometry":{"type":"Point","coordinates":[-112.3,51.4]},"properties":{"r":0.06,"w":2,"o":67}},{"type":"Feature","geometry":{"type":"Point","coordinates":[-112.2,51.4]},"properties":{"r":0.04,"w":1,"o":67}},{"type":"Feature","geometry":{"type":"Point","coordinates":[-112.1,51.4]},"properties":{"r":3.79,"w":1,"o":67}},{"type":"Feature","geometry":{"type":"Point","coordinates":[-111.3,51.4]},"properties":{"r":2.29,"w":1,"o":67}},{"type":"Feature","geometry":{"type":"Point","coordinates":[-113.6,51.5]},"properties":{"r":0.31,"w":7,"o":11}},{"type":"Feature","geometry":{"type":"Point","coordinates":[-113.5,51.5]},"properties":{"r":0.4,"w":11,"o":11}},{"type":"Feature","geometry":{"type":"Point","coordinates":[-113.4,51.5]},"properties":{"r":1.43,"w":3,"o":110}},{"type":"Feature","geometry":{"type":"Point","coordinates":[-113.2,51.5]},"properties":{"r":0.06,"w":1,"o":189}},{"type":"Feature","geometry":{"type":"Point","coordinates":[-113.0,51.5]},"properties":{"r":0.78,"w":5,"o":307}},{"type":"Feature","geometry":{"type":"Point","coordinates":[-112.9,51.5]},"properties":{"r":0.63,"w":25,"o":307}},{"type":"Feature","geometry":{"type":"Point","coordinates":[-112.8,51.5]},"properties":{"r":0.73,"w":5,"o":307}},{"type":"Feature","geometry":{"type":"Point","coordinates":[-112.7,51.5]},"properties":{"r":0.15,"w":1,"o":49}},{"type":"Feature","geometry":{"type":"Point","coordinates":[-112.5,51.5]},"properties":{"r":0.13,"w":2,"o":243}},{"type":"Feature","geometry":{"type":"Point","coordinates":[-112.4,51.5]},"properties":{"r":0.02,"w":1,"o":67}},{"type":"Feature","geometry":{"type":"Point","coordinates":[-112.3,51.5]},"properties":{"r":0.02,"w":1,"o":67}},{"type":"Feature","geometry":{"type":"Point","coordinates":[-112.0,51.5]},"properties":{"r":0.06,"w":3,"o":67}},{"type":"Feature","geometry":{"type":"Point","coordinates":[-114.4,51.6]},"properties":{"r":0.42,"w":1,"o":11}},{"type":"Feature","geometry":{"type":"Point","coordinates":[-114.3,51.6]},"properties":{"r":0.5,"w":1,"o":11}},{"type":"Feature","geometry":{"type":"Point","coordinates":[-114.0,51.6]},"properties":{"r":0.23,"w":1,"o":340}},{"type":"Feature","geometry":{"type":"Point","coordinates":[-113.5,51.6]},"properties":{"r":0.36,"w":1,"o":110}},{"type":"Feature","geometry":{"type":"Point","coordinates":[-113.1,51.6]},"properties":{"r":0.38,"w":2,"o":238}},{"type":"Feature","geometry":{"type":"Point","coordinates":[-113.0,51.6]},"properties":{"r":0.1,"w":1,"o":238}},{"type":"Feature","geometry":{"type":"Point","coordinates":[-112.9,51.6]},"properties":{"r":0.04,"w":1,"o":238}},{"type":"Feature","geometry":{"type":"Point","coordinates":[-112.5,51.6]},"properties":{"r":2.94,"w":1,"o":243}},{"type":"Feature","geometry":{"type":"Point","coordinates":[-114.3,51.7]},"properties":{"r":1.7,"w":1,"o":340}},{"type":"Feature","geometry":{"type":"Point","coordinates":[-113.9,51.7]},"properties":{"r":0.84,"w":1,"o":110}},{"type":"Feature","geometry":{"type":"Point","coordinates":[-113.8,51.7]},"properties":{"r":1.09,"w":2,"o":110}},{"type":"Feature","geometry":{"type":"Point","coordinates":[-113.6,51.7]},"properties":{"r":0.13,"w":1,"o":110}},{"type":"Feature","geometry":{"type":"Point","coordinates":[-113.1,51.7]},"properties":{"r":3.69,"w":1,"o":238}},{"type":"Feature","geometry":{"type":"Point","coordinates":[-112.7,51.7]},"properties":{"r":1.76,"w":1,"o":238}},{"type":"Feature","geometry":{"type":"Point","coordinates":[-115.0,51.8]},"properties":{"r":0.17,"w":1,"o":307}},{"type":"Feature","geometry":{"type":"Point","coordinates":[-114.9,51.8]},"properties":{"r":0.78,"w":4,"o":307}},{"type":"Feature","geometry":{"type":"Point","coordinates":[-114.6,51.8]},"properties":{"r":9.2,"w":4,"o":340}},{"type":"Feature","geometry":{"type":"Point","coordinates":[-114.5,51.8]},"properties":{"r":2.87,"w":1,"o":340}},{"type":"Feature","geometry":{"type":"Point","coordinates":[-114.4,51.8]},"properties":{"r":3.21,"w":3,"o":340}},{"type":"Feature","geometry":{"type":"Point","coordinates":[-114.3,51.8]},"properties":{"r":17.74,"w":16,"o":340}},{"type":"Feature","geometry":{"type":"Point","coordinates":[-114.1,51.8]},"properties":{"r":0.02,"w":1,"o":340}},{"type":"Feature","geometry":{"type":"Point","coordinates":[-113.9,51.8]},"properties":{"r":0.73,"w":1,"o":110}},{"type":"Feature","geometry":{"type":"Point","coordinates":[-113.8,51.8]},"properties":{"r":0.52,"w":1,"o":110}},{"type":"Feature","geometry":{"type":"Point","coordinates":[-113.6,51.8]},"properties":{"r":2.03,"w":1,"o":110}},{"type":"Feature","geometry":{"type":"Point","coordinates":[-110.3,51.8]},"properties":{"r":0.06,"w":1,"o":218}},{"type":"Feature","geometry":{"type":"Point","coordinates":[-110.2,51.8]},"properties":{"r":1.09,"w":2,"o":218}},{"type":"Feature","geometry":{"type":"Point","coordinates":[-110.1,51.8]},"properties":{"r":0.19,"w":1,"o":218}},{"type":"Feature","geometry":{"type":"Point","coordinates":[-115.1,51.9]},"properties":{"r":0.67,"w":2,"o":315}},{"type":"Feature","geometry":{"type":"Point","coordinates":[-115.0,51.9]},"properties":{"r":2.62,"w":5,"o":315}},{"type":"Feature","geometry":{"type":"Point","coordinates":[-114.9,51.9]},"properties":{"r":0.04,"w":1,"o":148}},{"type":"Feature","geometry":{"type":"Point","coordinates":[-114.8,51.9]},"properties":{"r":2.31,"w":2,"o":307}},{"type":"Feature","geometry":{"type":"Point","coordinates":[-114.6,51.9]},"properties":{"r":8.81,"w":5,"o":340}},{"type":"Feature","geometry":{"type":"Point","coordinates":[-114.5,51.9]},"properties":{"r":4.53,"w":4,"o":340}},{"type":"Feature","geometry":{"type":"Point","coordinates":[-114.4,51.9]},"properties":{"r":1.22,"w":2,"o":315}},{"type":"Feature","geometry":{"type":"Point","coordinates":[-114.3,51.9]},"properties":{"r":2.08,"w":1,"o":340}},{"type":"Feature","geometry":{"type":"Point","coordinates":[-113.3,51.9]},"properties":{"r":1.8,"w":3,"o":87}},{"type":"Feature","geometry":{"type":"Point","coordinates":[-113.2,51.9]},"properties":{"r":0.04,"w":1,"o":87}},{"type":"Feature","geometry":{"type":"Point","coordinates":[-115.2,52.0]},"properties":{"r":3.61,"w":1,"o":148}},{"type":"Feature","geometry":{"type":"Point","coordinates":[-115.1,52.0]},"properties":{"r":2.62,"w":2,"o":148}},{"type":"Feature","geometry":{"type":"Point","coordinates":[-115.0,52.0]},"properties":{"r":1.72,"w":2,"o":315}},{"type":"Feature","geometry":{"type":"Point","coordinates":[-114.9,52.0]},"properties":{"r":1.61,"w":2,"o":315}},{"type":"Feature","geometry":{"type":"Point","coordinates":[-114.7,52.0]},"properties":{"r":1.55,"w":1,"o":238}},{"type":"Feature","geometry":{"type":"Point","coordinates":[-114.6,52.0]},"properties":{"r":1.15,"w":2,"o":74}},{"type":"Feature","geometry":{"type":"Point","coordinates":[-114.5,52.0]},"properties":{"r":5.58,"w":3,"o":340}},{"type":"Feature","geometry":{"type":"Point","coordinates":[-114.3,52.0]},"properties":{"r":4.53,"w":1,"o":142}},{"type":"Feature","geometry":{"type":"Point","coordinates":[-113.9,52.0]},"properties":{"r":0.59,"w":2,"o":200}},{"type":"Feature","geometry":{"type":"Point","coordinates":[-113.7,52.0]},"properties":{"r":2.52,"w":1,"o":326}},{"type":"Feature","geometry":{"type":"Point","coordinates":[-113.6,52.0]},"properties":{"r":1.8,"w":2,"o":238}},{"type":"Feature","geometry":{"type":"Point","coordinates":[-113.5,52.0]},"properties":{"r":1.64,"w":2,"o":238}},{"type":"Feature","geometry":{"type":"Point","coordinates":[-113.3,52.0]},"properties":{"r":0.13,"w":1,"o":87}},{"type":"Feature","geometry":{"type":"Point","coordinates":[-113.2,52.0]},"properties":{"r":0.23,"w":1,"o":238}},{"type":"Feature","geometry":{"type":"Point","coordinates":[-110.7,52.0]},"properties":{"r":1.2,"w":1,"o":169}},{"type":"Feature","geometry":{"type":"Point","coordinates":[-115.2,52.1]},"properties":{"r":4.55,"w":3,"o":315}},{"type":"Feature","geometry":{"type":"Point","coordinates":[-114.8,52.1]},"properties":{"r":1.64,"w":2,"o":340}},{"type":"Feature","geometry":{"type":"Point","coordinates":[-114.7,52.1]},"properties":{"r":4.78,"w":2,"o":340}},{"type":"Feature","geometry":{"type":"Point","coordinates":[-114.6,52.1]},"properties":{"r":5.95,"w":3,"o":11}},{"type":"Feature","geometry":{"type":"Point","coordinates":[-114.5,52.1]},"properties":{"r":5.51,"w":6,"o":11}},{"type":"Feature","geometry":{"type":"Point","coordinates":[-114.3,52.1]},"properties":{"r":1.26,"w":3,"o":63}},{"type":"Feature","geometry":{"type":"Point","coordinates":[-114.2,52.1]},"properties":{"r":0.94,"w":2,"o":142}},{"type":"Feature","geometry":{"type":"Point","coordinates":[-114.1,52.1]},"properties":{"r":1.32,"w":1,"o":142}},{"type":"Feature","geometry":{"type":"Point","coordinates":[-114.0,52.1]},"properties":{"r":1.97,"w":2,"o":98}},{"type":"Feature","geometry":{"type":"Point","coordinates":[-113.8,52.1]},"properties":{"r":0.59,"w":2,"o":98}},{"type":"Feature","geometry":{"type":"Point","coordinates":[-113.6,52.1]},"properties":{"r":6.06,"w":4,"o":67}},{"type":"Feature","geometry":{"type":"Point","coordinates":[-112.3,52.1]},"properties":{"r":0.23,"w":1,"o":67}},{"type":"Feature","geometry":{"type":"Point","coordinates":[-111.3,52.1]},"properties":{"r":0.13,"w":1,"o":169}},{"type":"Feature","geometry":{"type":"Point","coordinates":[-115.4,52.2]},"properties":{"r":0.48,"w":1,"o":315}},{"type":"Feature","geometry":{"type":"Point","coordinates":[-115.3,52.2]},"properties":{"r":3.59,"w":2,"o":315}},{"type":"Feature","geometry":{"type":"Point","coordinates":[-115.2,52.2]},"properties":{"r":6.29,"w":5,"o":340}},{"type":"Feature","geometry":{"type":"Point","coordinates":[-115.1,52.2]},"properties":{"r":0.27,"w":1,"o":235}},{"type":"Feature","geometry":{"type":"Point","coordinates":[-114.7,52.2]},"properties":{"r":0.34,"w":1,"o":228}},{"type":"Feature","geometry":{"type":"Point","coordinates":[-114.6,52.2]},"properties":{"r":2.96,"w":2,"o":238}},{"type":"Feature","geometry":{"type":"Point","coordinates":[-114.5,52.2]},"properties":{"r":0.25,"w":1,"o":63}},{"type":"Feature","geometry":{"type":"Point","coordinates":[-114.4,52.2]},"properties":{"r":4.95,"w":8,"o":63}},{"type":"Feature","geometry":{"type":"Point","coordinates":[-114.3,52.2]},"properties":{"r":0.15,"w":3,"o":63}},{"type":"Feature","geometry":{"type":"Point","coordinates":[-113.3,52.2]},"properties":{"r":0.5,"w":1,"o":298}},{"type":"Feature","geometry":{"type":"Point","coordinates":[-113.1,52.2]},"properties":{"r":0.06,"w":2,"o":327}},{"type":"Feature","geometry":{"type":"Point","coordinates":[-113.0,52.2]},"properties":{"r":0.08,"w":1,"o":110}},{"type":"Feature","geometry":{"type":"Point","coordinates":[-112.9,52.2]},"properties":{"r":1.05,"w":1,"o":49}},{"type":"Feature","geometry":{"type":"Point","coordinates":[-112.8,52.2]},"properties":{"r":0.15,"w":1,"o":49}},{"type":"Feature","geometry":{"type":"Point","coordinates":[-115.5,52.3]},"properties":{"r":10.94,"w":3,"o":307}},{"type":"Feature","geometry":{"type":"Point","coordinates":[-115.3,52.3]},"properties":{"r":2.14,"w":1,"o":288}},{"type":"Feature","geometry":{"type":"Point","coordinates":[-115.2,52.3]},"properties":{"r":0.55,"w":3,"o":222}},{"type":"Feature","geometry":{"type":"Point","coordinates":[-115.1,52.3]},"properties":{"r":4.7,"w":4,"o":142}},{"type":"Feature","geometry":{"type":"Point","coordinates":[-115.0,52.3]},"properties":{"r":2.85,"w":4,"o":340}},{"type":"Feature","geometry":{"type":"Point","coordinates":[-114.9,52.3]},"properties":{"r":1.93,"w":1,"o":348}},{"type":"Feature","geometry":{"type":"Point","coordinates":[-114.8,52.3]},"properties":{"r":2.89,"w":3,"o":228}},{"type":"Feature","geometry":{"type":"Point","coordinates":[-114.5,52.3]},"properties":{"r":5.6,"w":4,"o":134}},{"type":"Feature","geometry":{"type":"Point","coordinates":[-114.4,52.3]},"properties":{"r":2.39,"w":6,"o":63}},{"type":"Feature","geometry":{"type":"Point","coordinates":[-114.3,52.3]},"properties":{"r":7.82,"w":8,"o":63}},{"type":"Feature","geometry":{"type":"Point","coordinates":[-114.2,52.3]},"properties":{"r":4.49,"w":3,"o":63}},{"type":"Feature","geometry":{"type":"Point","coordinates":[-114.1,52.3]},"properties":{"r":2.64,"w":3,"o":134}},{"type":"Feature","geometry":{"type":"Point","coordinates":[-112.8,52.3]},"properties":{"r":0.82,"w":2,"o":49}},{"type":"Feature","geometry":{"type":"Point","coordinates":[-112.7,52.3]},"properties":{"r":1.26,"w":1,"o":49}},{"type":"Feature","geometry":{"type":"Point","coordinates":[-115.4,52.4]},"properties":{"r":2.14,"w":3,"o":348}},{"type":"Feature","geometry":{"type":"Point","coordinates":[-115.3,52.4]},"properties":{"r":0.92,"w":5,"o":307}},{"type":"Feature","geometry":{"type":"Point","coordinates":[-115.2,52.4]},"properties":{"r":3.94,"w":2,"o":348}},{"type":"Feature","geometry":{"type":"Point","coordinates":[-115.1,52.4]},"properties":{"r":11.15,"w":6,"o":67}},{"type":"Feature","geometry":{"type":"Point","coordinates":[-115.0,52.4]},"properties":{"r":1.22,"w":2,"o":315}},{"type":"Feature","geometry":{"type":"Point","coordinates":[-114.9,52.4]},"properties":{"r":0.29,"w":2,"o":315}},{"type":"Feature","geometry":{"type":"Point","coordinates":[-114.8,52.4]},"properties":{"r":9.33,"w":6,"o":142}},{"type":"Feature","geometry":{"type":"Point","coordinates":[-114.7,52.4]},"properties":{"r":3.59,"w":10,"o":228}},{"type":"Feature","geometry":{"type":"Point","coordinates":[-114.6,52.4]},"properties":{"r":3.75,"w":8,"o":156}},{"type":"Feature","geometry":{"type":"Point","coordinates":[-114.5,52.4]},"properties":{"r":10.4,"w":11,"o":63}},{"type":"Feature","geometry":{"type":"Point","coordinates":[-114.4,52.4]},"properties":{"r":0.92,"w":3,"o":63}},{"type":"Feature","geometry":{"type":"Point","coordinates":[-114.3,52.4]},"properties":{"r":3.12,"w":6,"o":63}},{"type":"Feature","geometry":{"type":"Point","coordinates":[-114.2,52.4]},"properties":{"r":0.04,"w":1,"o":134}},{"type":"Feature","geometry":{"type":"Point","coordinates":[-114.1,52.4]},"properties":{"r":1.68,"w":3,"o":63}},{"type":"Feature","geometry":{"type":"Point","coordinates":[-114.0,52.4]},"properties":{"r":0.21,"w":1,"o":67}},{"type":"Feature","geometry":{"type":"Point","coordinates":[-113.9,52.4]},"properties":{"r":0.25,"w":1,"o":286}},{"type":"Feature","geometry":{"type":"Point","coordinates":[-113.0,52.4]},"properties":{"r":0.75,"w":1,"o":67}},{"type":"Feature","geometry":{"type":"Point","coordinates":[-112.6,52.4]},"properties":{"r":1.13,"w":1,"o":98}},{"type":"Feature","geometry":{"type":"Point","coordinates":[-111.3,52.4]},"properties":{"r":0.1,"w":1,"o":44}},{"type":"Feature","geometry":{"type":"Point","coordinates":[-115.5,52.5]},"properties":{"r":3.35,"w":2,"o":237}},{"type":"Feature","geometry":{"type":"Point","coordinates":[-115.4,52.5]},"properties":{"r":0.9,"w":2,"o":307}},{"type":"Feature","geometry":{"type":"Point","coordinates":[-115.3,52.5]},"properties":{"r":0.57,"w":14,"o":307}},{"type":"Feature","geometry":{"type":"Point","coordinates":[-115.2,52.5]},"properties":{"r":3.0,"w":12,"o":67}},{"type":"Feature","geometry":{"type":"Point","coordinates":[-115.1,52.5]},"properties":{"r":1.17,"w":1,"o":228}},{"type":"Feature","geometry":{"type":"Point","coordinates":[-115.0,52.5]},"properties":{"r":1.55,"w":2,"o":348}},{"type":"Feature","geometry":{"type":"Point","coordinates":[-114.9,52.5]},"properties":{"r":5.37,"w":3,"o":315}},{"type":"Feature","geometry":{"type":"Point","coordinates":[-114.8,52.5]},"properties":{"r":9.08,"w":11,"o":315}},{"type":"Feature","geometry":{"type":"Point","coordinates":[-114.6,52.5]},"properties":{"r":7.34,"w":2,"o":315}},{"type":"Feature","geometry":{"type":"Point","coordinates":[-114.5,52.5]},"properties":{"r":2.05,"w":2,"o":200}},{"type":"Feature","geometry":{"type":"Point","coordinates":[-114.4,52.5]},"properties":{"r":5.7,"w":8,"o":134}},{"type":"Feature","geometry":{"type":"Point","coordinates":[-114.2,52.5]},"properties":{"r":2.12,"w":5,"o":166}},{"type":"Feature","geometry":{"type":"Point","coordinates":[-114.1,52.5]},"properties":{"r":1.68,"w":2,"o":238}},{"type":"Feature","geometry":{"type":"Point","coordinates":[-114.0,52.5]},"properties":{"r":0.61,"w":1,"o":289}},{"type":"Feature","geometry":{"type":"Point","coordinates":[-113.9,52.5]},"properties":{"r":4.95,"w":1,"o":315}},{"type":"Feature","geometry":{"type":"Point","coordinates":[-115.6,52.6]},"properties":{"r":0.04,"w":1,"o":307}},{"type":"Feature","geometry":{"type":"Point","coordinates":[-115.5,52.6]},"properties":{"r":0.15,"w":1,"o":307}},{"type":"Feature","geometry":{"type":"Point","coordinates":[-115.4,52.6]},"properties":{"r":0.46,"w":7,"o":307}},{"type":"Feature","geometry":{"type":"Point","coordinates":[-115.3,52.6]},"properties":{"r":0.04,"w":1,"o":307}},{"type":"Feature","geometry":{"type":"Point","coordinates":[-115.2,52.6]},"properties":{"r":0.59,"w":2,"o":307}},{"type":"Feature","geometry":{"type":"Point","coordinates":[-115.1,52.6]},"properties":{"r":3.92,"w":3,"o":234}},{"type":"Feature","geometry":{"type":"Point","coordinates":[-115.0,52.6]},"properties":{"r":1.36,"w":2,"o":348}},{"type":"Feature","geometry":{"type":"Point","coordinates":[-114.9,52.6]},"properties":{"r":9.02,"w":3,"o":234}},{"type":"Feature","geometry":{"type":"Point","coordinates":[-114.8,52.6]},"properties":{"r":2.73,"w":4,"o":315}},{"type":"Feature","geometry":{"type":"Point","coordinates":[-114.7,52.6]},"properties":{"r":2.73,"w":2,"o":134}},{"type":"Feature","geometry":{"type":"Point","coordinates":[-114.6,52.6]},"properties":{"r":4.76,"w":8,"o":134}},{"type":"Feature","geometry":{"type":"Point","coordinates":[-114.5,52.6]},"properties":{"r":2.05,"w":4,"o":315}},{"type":"Feature","geometry":{"type":"Point","coordinates":[-114.4,52.6]},"properties":{"r":6.63,"w":11,"o":192}},{"type":"Feature","geometry":{"type":"Point","coordinates":[-114.3,52.6]},"properties":{"r":4.11,"w":9,"o":192}},{"type":"Feature","geometry":{"type":"Point","coordinates":[-114.2,52.6]},"properties":{"r":3.35,"w":7,"o":166}},{"type":"Feature","geometry":{"type":"Point","coordinates":[-113.9,52.6]},"properties":{"r":1.15,"w":2,"o":315}},{"type":"Feature","geometry":{"type":"Point","coordinates":[-115.6,52.7]},"properties":{"r":0.17,"w":4,"o":307}},{"type":"Feature","geometry":{"type":"Point","coordinates":[-115.5,52.7]},"properties":{"r":0.78,"w":10,"o":307}},{"type":"Feature","geometry":{"type":"Point","coordinates":[-115.4,52.7]},"properties":{"r":0.8,"w":14,"o":307}},{"type":"Feature","geometry":{"type":"Point","coordinates":[-115.3,52.7]},"properties":{"r":0.71,"w":8,"o":307}},{"type":"Feature","geometry":{"type":"Point","coordinates":[-115.2,52.7]},"properties":{"r":0.02,"w":1,"o":218}},{"type":"Feature","geometry":{"type":"Point","coordinates":[-115.1,52.7]},"properties":{"r":4.8,"w":2,"o":75}},{"type":"Feature","geometry":{"type":"Point","coordinates":[-115.0,52.7]},"properties":{"r":6.27,"w":2,"o":234}},{"type":"Feature","geometry":{"type":"Point","coordinates":[-114.5,52.7]},"properties":{"r":3.69,"w":7,"o":166}},{"type":"Feature","geometry":{"type":"Point","coordinates":[-114.4,52.7]},"properties":{"r":7.82,"w":10,"o":134}},{"type":"Feature","geometry":{"type":"Point","coordinates":[-114.3,52.7]},"properties":{"r":5.12,"w":4,"o":134}},{"type":"Feature","geometry":{"type":"Point","coordinates":[-114.2,52.7]},"properties":{"r":6.65,"w":10,"o":134}},{"type":"Feature","geometry":{"type":"Point","coordinates":[-114.1,52.7]},"properties":{"r":0.99,"w":5,"o":192}},{"type":"Feature","geometry":{"type":"Point","coordinates":[-114.0,52.7]},"properties":{"r":0.44,"w":3,"o":192}},{"type":"Feature","geometry":{"type":"Point","coordinates":[-113.9,52.7]},"properties":{"r":1.11,"w":3,"o":315}},{"type":"Feature","geometry":{"type":"Point","coordinates":[-113.8,52.7]},"properties":{"r":0.38,"w":2,"o":315}},{"type":"Feature","geometry":{"type":"Point","coordinates":[-115.7,52.8]},"properties":{"r":0.02,"w":1,"o":75}},{"type":"Feature","geometry":{"type":"Point","coordinates":[-115.6,52.8]},"properties":{"r":3.56,"w":14,"o":75}},{"type":"Feature","geometry":{"type":"Point","coordinates":[-115.5,52.8]},"properties":{"r":0.57,"w":11,"o":307}},{"type":"Feature","geometry":{"type":"Point","coordinates":[-115.4,52.8]},"properties":{"r":14.59,"w":34,"o":307}},{"type":"Feature","geometry":{"type":"Point","coordinates":[-115.3,52.8]},"properties":{"r":0.61,"w":10,"o":307}},{"type":"Feature","geometry":{"type":"Point","coordinates":[-115.1,52.8]},"properties":{"r":0.57,"w":1,"o":218}},{"type":"Feature","geometry":{"type":"Point","coordinates":[-114.7,52.8]},"properties":{"r":2.94,"w":2,"o":192}},{"type":"Feature","geometry":{"type":"Point","coordinates":[-114.6,52.8]},"properties":{"r":0.36,"w":1,"o":192}},{"type":"Feature","geometry":{"type":"Point","coordinates":[-114.5,52.8]},"properties":{"r":3.48,"w":5,"o":278}},{"type":"Feature","geometry":{"type":"Point","coordinates":[-114.4,52.8]},"properties":{"r":4.97,"w":16,"o":192}},{"type":"Feature","geometry":{"type":"Point","coordinates":[-114.3,52.8]},"properties":{"r":8.93,"w":11,"o":134}},{"type":"Feature","geometry":{"type":"Point","coordinates":[-114.2,52.8]},"properties":{"r":4.76,"w":12,"o":134}},{"type":"Feature","geometry":{"type":"Point","coordinates":[-114.1,52.8]},"properties":{"r":1.3,"w":9,"o":67}},{"type":"Feature","geometry":{"type":"Point","coordinates":[-114.0,52.8]},"properties":{"r":0.34,"w":3,"o":315}},{"type":"Feature","geometry":{"type":"Point","coordinates":[-113.9,52.8]},"properties":{"r":0.15,"w":1,"o":315}},{"type":"Feature","geometry":{"type":"Point","coordinates":[-116.2,52.9]},"properties":{"r":3.04,"w":1,"o":315}},{"type":"Feature","geometry":{"type":"Point","coordinates":[-115.9,52.9]},"properties":{"r":0.27,"w":2,"o":75}},{"type":"Feature","geometry":{"type":"Point","coordinates":[-115.8,52.9]},"properties":{"r":1.09,"w":3,"o":75}},{"type":"Feature","geometry":{"type":"Point","coordinates":[-115.6,52.9]},"properties":{"r":1.7,"w":2,"o":278}},{"type":"Feature","geometry":{"type":"Point","coordinates":[-115.4,52.9]},"properties":{"r":0.06,"w":1,"o":307}},{"type":"Feature","geometry":{"type":"Point","coordinates":[-115.2,52.9]},"properties":{"r":0.02,"w":1,"o":75}},{"type":"Feature","geometry":{"type":"Point","coordinates":[-115.1,52.9]},"properties":{"r":1.28,"w":1,"o":307}},{"type":"Feature","geometry":{"type":"Point","coordinates":[-114.9,52.9]},"properties":{"r":4.0,"w":2,"o":192}},{"type":"Feature","geometry":{"type":"Point","coordinates":[-114.8,52.9]},"properties":{"r":0.02,"w":1,"o":156}},{"type":"Feature","geometry":{"type":"Point","coordinates":[-114.5,52.9]},"properties":{"r":1.01,"w":1,"o":258}},{"type":"Feature","geometry":{"type":"Point","coordinates":[-114.4,52.9]},"properties":{"r":3.75,"w":1,"o":258}},{"type":"Feature","geometry":{"type":"Point","coordinates":[-114.3,52.9]},"properties":{"r":0.1,"w":1,"o":186}},{"type":"Feature","geometry":{"type":"Point","coordinates":[-114.2,52.9]},"properties":{"r":0.92,"w":5,"o":315}},{"type":"Feature","geometry":{"type":"Point","coordinates":[-114.1,52.9]},"properties":{"r":0.08,"w":1,"o":315}},{"type":"Feature","geometry":{"type":"Point","coordinates":[-114.0,52.9]},"properties":{"r":4.44,"w":6,"o":192}},{"type":"Feature","geometry":{"type":"Point","coordinates":[-113.8,52.9]},"properties":{"r":0.42,"w":4,"o":67}},{"type":"Feature","geometry":{"type":"Point","coordinates":[-115.9,53.0]},"properties":{"r":1.17,"w":1,"o":75}},{"type":"Feature","geometry":{"type":"Point","coordinates":[-115.7,53.0]},"properties":{"r":12.14,"w":3,"o":287}},{"type":"Feature","geometry":{"type":"Point","coordinates":[-115.6,53.0]},"properties":{"r":17.67,"w":7,"o":287}},{"type":"Feature","geometry":{"type":"Point","coordinates":[-115.5,53.0]},"properties":{"r":4.95,"w":3,"o":287}},{"type":"Feature","geometry":{"type":"Point","coordinates":[-115.3,53.0]},"properties":{"r":2.35,"w":1,"o":43}},{"type":"Feature","geometry":{"type":"Point","coordinates":[-114.8,53.0]},"properties":{"r":0.04,"w":1,"o":156}},{"type":"Feature","geometry":{"type":"Point","coordinates":[-114.5,53.0]},"properties":{"r":0.25,"w":1,"o":166}},{"type":"Feature","geometry":{"type":"Point","coordinates":[-114.4,53.0]},"properties":{"r":4.63,"w":3,"o":258}},{"type":"Feature","geometry":{"type":"Point","coordinates":[-114.3,53.0]},"properties":{"r":4.95,"w":2,"o":258}},{"type":"Feature","geometry":{"type":"Point","coordinates":[-114.1,53.0]},"properties":{"r":0.82,"w":3,"o":166}},{"type":"Feature","geometry":{"type":"Point","coordinates":[-113.9,53.0]},"properties":{"r":1.53,"w":2,"o":134}},{"type":"Feature","geometry":{"type":"Point","coordinates":[-113.8,53.0]},"properties":{"r":0.06,"w":1,"o":134}},{"type":"Feature","geometry":{"type":"Point","coordinates":[-116.8,53.1]},"properties":{"r":7.65,"w":3,"o":167}},{"type":"Feature","geometry":{"type":"Point","coordinates":[-116.7,53.1]},"properties":{"r":2.39,"w":1,"o":167}},{"type":"Feature","geometry":{"type":"Point","coordinates":[-115.8,53.1]},"properties":{"r":1.26,"w":1,"o":327}},{"type":"Feature","geometry":{"type":"Point","coordinates":[-115.6,53.1]},"properties":{"r":13.0,"w":6,"o":287}},{"type":"Feature","geometry":{"type":"Point","coordinates":[-115.5,53.1]},"properties":{"r":2.26,"w":3,"o":287}},{"type":"Feature","geometry":{"type":"Point","coordinates":[-115.4,53.1]},"properties":{"r":1.85,"w":2,"o":43}},{"type":"Feature","geometry":{"type":"Point","coordinates":[-115.3,53.1]},"properties":{"r":0.02,"w":1,"o":43}},{"type":"Feature","geometry":{"type":"Point","coordinates":[-115.2,53.1]},"properties":{"r":0.04,"w":2,"o":43}},{"type":"Feature","geometry":{"type":"Point","coordinates":[-114.2,53.1]},"properties":{"r":0.08,"w":1,"o":235}},{"type":"Feature","geometry":{"type":"Point","coordinates":[-117.4,53.2]},"properties":{"r":0.78,"w":1,"o":69}},{"type":"Feature","geometry":{"type":"Point","coordinates":[-117.0,53.2]},"properties":{"r":0.25,"w":2,"o":69}},{"type":"Feature","geometry":{"type":"Point","coordinates":[-116.9,53.2]},"properties":{"r":0.06,"w":2,"o":315}},{"type":"Feature","geometry":{"type":"Point","coordinates":[-116.8,53.2]},"properties":{"r":0.59,"w":1,"o":75}},{"type":"Feature","geometry":{"type":"Point","coordinates":[-116.7,53.2]},"properties":{"r":0.38,"w":2,"o":75}},{"type":"Feature","geometry":{"type":"Point","coordinates":[-116.0,53.2]},"properties":{"r":3.44,"w":1,"o":75}},{"type":"Feature","geometry":{"type":"Point","coordinates":[-115.7,53.2]},"properties":{"r":4.78,"w":2,"o":192}},{"type":"Feature","geometry":{"type":"Point","coordinates":[-115.6,53.2]},"properties":{"r":6.37,"w":4,"o":327}},{"type":"Feature","geometry":{"type":"Point","coordinates":[-115.5,53.2]},"properties":{"r":5.07,"w":2,"o":327}},{"type":"Feature","geometry":{"type":"Point","coordinates":[-115.4,53.2]},"properties":{"r":0.04,"w":1,"o":134}},{"type":"Feature","geometry":{"type":"Point","coordinates":[-115.3,53.2]},"properties":{"r":3.75,"w":1,"o":287}},{"type":"Feature","geometry":{"type":"Point","coordinates":[-115.2,53.2]},"properties":{"r":5.41,"w":2,"o":275}},{"type":"Feature","geometry":{"type":"Point","coordinates":[-115.1,53.2]},"properties":{"r":5.07,"w":2,"o":275}},{"type":"Feature","geometry":{"type":"Point","coordinates":[-114.2,53.2]},"properties":{"r":0.1,"w":1,"o":235}},{"type":"Feature","geometry":{"type":"Point","coordinates":[-114.1,53.2]},"properties":{"r":2.08,"w":2,"o":235}},{"type":"Feature","geometry":{"type":"Point","coordinates":[-114.0,53.2]},"properties":{"r":0.06,"w":1,"o":235}},{"type":"Feature","geometry":{"type":"Point","coordinates":[-117.1,53.3]},"properties":{"r":0.31,"w":3,"o":69}},{"type":"Feature","geometry":{"type":"Point","coordinates":[-116.7,53.3]},"properties":{"r":0.4,"w":5,"o":75}},{"type":"Feature","geometry":{"type":"Point","coordinates":[-116.6,53.3]},"properties":{"r":0.4,"w":4,"o":75}},{"type":"Feature","geometry":{"type":"Point","coordinates":[-116.1,53.3]},"properties":{"r":0.02,"w":1,"o":75}},{"type":"Feature","geometry":{"type":"Point","coordinates":[-115.8,53.3]},"properties":{"r":0.88,"w":1,"o":192}},{"type":"Feature","geometry":{"type":"Point","coordinates":[-115.5,53.3]},"properties":{"r":0.8,"w":1,"o":340}},{"type":"Feature","geometry":{"type":"Point","coordinates":[-115.4,53.3]},"properties":{"r":4.05,"w":1,"o":327}},{"type":"Feature","geometry":{"type":"Point","coordinates":[-115.0,53.3]},"properties":{"r":1.17,"w":3,"o":156}},{"type":"Feature","geometry":{"type":"Point","coordinates":[-114.9,53.3]},"properties":{"r":2.24,"w":5,"o":263}},{"type":"Feature","geometry":{"type":"Point","coordinates":[-114.8,53.3]},"properties":{"r":0.02,"w":1,"o":285}},{"type":"Feature","geometry":{"type":"Point","coordinates":[-114.0,53.3]},"properties":{"r":0.25,"w":5,"o":235}},{"type":"Feature","geometry":{"type":"Point","coordinates":[-117.5,53.4]},"properties":{"r":0.06,"w":1,"o":69}},{"type":"Feature","geometry":{"type":"Point","coordinates":[-117.4,53.4]},"properties":{"r":0.1,"w":1,"o":69}},{"type":"Feature","geometry":{"type":"Point","coordinates":[-117.3,53.4]},"properties":{"r":0.04,"w":1,"o":69}},{"type":"Feature","geometry":{"type":"Point","coordinates":[-117.2,53.4]},"properties":{"r":1.47,"w":1,"o":315}},{"type":"Feature","geometry":{"type":"Point","coordinates":[-116.0,53.4]},"properties":{"r":14.38,"w":8,"o":238}},{"type":"Feature","geometry":{"type":"Point","coordinates":[-115.9,53.4]},"properties":{"r":5.98,"w":2,"o":327}},{"type":"Feature","geometry":{"type":"Point","coordinates":[-115.5,53.4]},"properties":{"r":7.02,"w":4,"o":327}},{"type":"Feature","geometry":{"type":"Point","coordinates":[-115.1,53.4]},"properties":{"r":0.65,"w":1,"o":156}},{"type":"Feature","geometry":{"type":"Point","coordinates":[-115.0,53.4]},"properties":{"r":2.18,"w":3,"o":156}},{"type":"Feature","geometry":{"type":"Point","coordinates":[-114.9,53.4]},"properties":{"r":0.65,"w":2,"o":285}},{"type":"Feature","geometry":{"type":"Point","coordinates":[-117.2,53.5]},"properties":{"r":0.02,"w":1,"o":237}},{"type":"Feature","geometry":{"type":"Point","coordinates":[-117.0,53.5]},"properties":{"r":2.47,"w":1,"o":237}},{"type":"Feature","geometry":{"type":"Point","coordinates":[-116.9,53.5]},"properties":{"r":3.69,"w":1,"o":67}},{"type":"Feature","geometry":{"type":"Point","coordinates":[-116.0,53.5]},"properties":{"r":1.45,"w":2,"o":327}},{"type":"Feature","geometry":{"type":"Point","coordinates":[-115.9,53.5]},"properties":{"r":3.4,"w":3,"o":327}},{"type":"Feature","geometry":{"type":"Point","coordinates":[-115.7,53.5]},"properties":{"r":1.74,"w":1,"o":166}},{"type":"Feature","geometry":{"type":"Point","coordinates":[-115.6,53.5]},"properties":{"r":0.02,"w":1,"o":166}},{"type":"Feature","geometry":{"type":"Point","coordinates":[-115.1,53.5]},"properties":{"r":0.19,"w":1,"o":156}},{"type":"Feature","geometry":{"type":"Point","coordinates":[-117.0,53.6]},"properties":{"r":3.31,"w":1,"o":237}},{"type":"Feature","geometry":{"type":"Point","coordinates":[-116.1,53.6]},"properties":{"r":2.85,"w":2,"o":327}},{"type":"Feature","geometry":{"type":"Point","coordinates":[-116.0,53.6]},"properties":{"r":2.2,"w":1,"o":327}},{"type":"Feature","geometry":{"type":"Point","coordinates":[-115.7,53.6]},"properties":{"r":0.08,"w":1,"o":166}},{"type":"Feature","geometry":{"type":"Point","coordinates":[-115.4,53.6]},"properties":{"r":2.7,"w":2,"o":287}},{"type":"Feature","geometry":{"type":"Point","coordinates":[-117.1,53.7]},"properties":{"r":6.04,"w":3,"o":237}},{"type":"Feature","geometry":{"type":"Point","coordinates":[-116.6,53.7]},"properties":{"r":5.09,"w":2,"o":43}},{"type":"Feature","geometry":{"type":"Point","coordinates":[-116.5,53.7]},"properties":{"r":9.67,"w":6,"o":43}},{"type":"Feature","geometry":{"type":"Point","coordinates":[-116.4,53.7]},"properties":{"r":2.35,"w":1,"o":327}},{"type":"Feature","geometry":{"type":"Point","coordinates":[-116.3,53.7]},"properties":{"r":0.08,"w":1,"o":291}},{"type":"Feature","geometry":{"type":"Point","coordinates":[-116.2,53.7]},"properties":{"r":5.12,"w":4,"o":11}},{"type":"Feature","geometry":{"type":"Point","coordinates":[-116.1,53.7]},"properties":{"r":2.33,"w":3,"o":327}},{"type":"Feature","geometry":{"type":"Point","coordinates":[-116.0,53.7]},"properties":{"r":1.76,"w":3,"o":327}},{"type":"Feature","geometry":{"type":"Point","coordinates":[-115.9,53.7]},"properties":{"r":3.52,"w":1,"o":75}},{"type":"Feature","geometry":{"type":"Point","coordinates":[-115.8,53.7]},"properties":{"r":0.67,"w":1,"o":75}},{"type":"Feature","geometry":{"type":"Point","coordinates":[-115.7,53.7]},"properties":{"r":2.47,"w":2,"o":75}},{"type":"Feature","geometry":{"type":"Point","coordinates":[-115.6,53.7]},"properties":{"r":1.97,"w":4,"o":75}},{"type":"Feature","geometry":{"type":"Point","coordinates":[-118.5,53.8]},"properties":{"r":3.21,"w":5,"o":67}},{"type":"Feature","geometry":{"type":"Point","coordinates":[-117.8,53.8]},"properties":{"r":0.17,"w":3,"o":67}},{"type":"Feature","geometry":{"type":"Point","coordinates":[-117.5,53.8]},"properties":{"r":0.61,"w":5,"o":237}},{"type":"Feature","geometry":{"type":"Point","coordinates":[-117.3,53.8]},"properties":{"r":1.09,"w":1,"o":237}},{"type":"Feature","geometry":{"type":"Point","coordinates":[-117.2,53.8]},"properties":{"r":2.26,"w":2,"o":237}},{"type":"Feature","geometry":{"type":"Point","coordinates":[-117.1,53.8]},"properties":{"r":0.19,"w":1,"o":237}},{"type":"Feature","geometry":{"type":"Point","coordinates":[-116.6,53.8]},"properties":{"r":0.84,"w":1,"o":43}},{"type":"Feature","geometry":{"type":"Point","coordinates":[-116.5,53.8]},"properties":{"r":0.9,"w":1,"o":327}},{"type":"Feature","geometry":{"type":"Point","coordinates":[-116.3,53.8]},"properties":{"r":0.71,"w":4,"o":67}},{"type":"Feature","geometry":{"type":"Point","coordinates":[-116.2,53.8]},"properties":{"r":2.75,"w":5,"o":67}},{"type":"Feature","geometry":{"type":"Point","coordinates":[-116.1,53.8]},"properties":{"r":2.62,"w":4,"o":238}},{"type":"Feature","geometry":{"type":"Point","coordinates":[-115.9,53.8]},"properties":{"r":2.33,"w":4,"o":75}},{"type":"Feature","geometry":{"type":"Point","coordinates":[-115.8,53.8]},"properties":{"r":3.0,"w":3,"o":75}},{"type":"Feature","geometry":{"type":"Point","coordinates":[-115.7,53.8]},"properties":{"r":5.26,"w":5,"o":75}},{"type":"Feature","geometry":{"type":"Point","coordinates":[-115.5,53.8]},"properties":{"r":2.26,"w":3,"o":75}},{"type":"Feature","geometry":{"type":"Point","coordinates":[-113.9,53.8]},"properties":{"r":4.86,"w":1,"o":327}},{"type":"Feature","geometry":{"type":"Point","coordinates":[-117.6,53.9]},"properties":{"r":0.46,"w":3,"o":237}},{"type":"Feature","geometry":{"type":"Point","coordinates":[-117.5,53.9]},"properties":{"r":1.53,"w":13,"o":237}},{"type":"Feature","geometry":{"type":"Point","coordinates":[-117.4,53.9]},"properties":{"r":1.22,"w":8,"o":237}},{"type":"Feature","geometry":{"type":"Point","coordinates":[-117.3,53.9]},"properties":{"r":0.55,"w":1,"o":237}},{"type":"Feature","geometry":{"type":"Point","coordinates":[-117.2,53.9]},"properties":{"r":3.48,"w":7,"o":237}},{"type":"Feature","geometry":{"type":"Point","coordinates":[-117.1,53.9]},"properties":{"r":0.52,"w":4,"o":237}},{"type":"Feature","geometry":{"type":"Point","coordinates":[-116.8,53.9]},"properties":{"r":0.19,"w":1,"o":228}},{"type":"Feature","geometry":{"type":"Point","coordinates":[-116.3,53.9]},"properties":{"r":1.64,"w":2,"o":161}},{"type":"Feature","geometry":{"type":"Point","coordinates":[-116.1,53.9]},"properties":{"r":0.75,"w":2,"o":238}},{"type":"Feature","geometry":{"type":"Point","coordinates":[-116.0,53.9]},"properties":{"r":1.45,"w":1,"o":75}},{"type":"Feature","geometry":{"type":"Point","coordinates":[-115.6,53.9]},"properties":{"r":3.44,"w":2,"o":75}},{"type":"Feature","geometry":{"type":"Point","coordinates":[-117.8,54.0]},"properties":{"r":0.06,"w":1,"o":75}},{"type":"Feature","geometry":{"type":"Point","coordinates":[-117.4,54.0]},"properties":{"r":0.06,"w":1,"o":67}},{"type":"Feature","geometry":{"type":"Point","coordinates":[-117.2,54.0]},"properties":{"r":0.27,"w":1,"o":237}},{"type":"Feature","geometry":{"type":"Point","coordinates":[-116.7,54.0]},"properties":{"r":0.92,"w":1,"o":228}},{"type":"Feature","geometry":{"type":"Point","coordinates":[-119.0,54.1]},"properties":{"r":0.82,"w":2,"o":170}},{"type":"Feature","geometry":{"type":"Point","coordinates":[-117.4,54.1]},"properties":{"r":0.94,"w":2,"o":173}},{"type":"Feature","geometry":{"type":"Point","coordinates":[-117.0,54.1]},"properties":{"r":1.47,"w":2,"o":270}},{"type":"Feature","geometry":{"type":"Point","coordinates":[-116.9,54.1]},"properties":{"r":5.22,"w":15,"o":228}},{"type":"Feature","geometry":{"type":"Point","coordinates":[-116.8,54.1]},"properties":{"r":0.84,"w":3,"o":228}},{"type":"Feature","geometry":{"type":"Point","coordinates":[-116.7,54.1]},"properties":{"r":1.45,"w":2,"o":340}},{"type":"Feature","geometry":{"type":"Point","coordinates":[-116.5,54.1]},"properties":{"r":2.18,"w":4,"o":223}},{"type":"Feature","geometry":{"type":"Point","coordinates":[-116.4,54.1]},"properties":{"r":0.94,"w":3,"o":223}},{"type":"Feature","geometry":{"type":"Point","coordinates":[-116.2,54.1]},"properties":{"r":0.52,"w":1,"o":278}},{"type":"Feature","geometry":{"type":"Point","coordinates":[-115.9,54.1]},"properties":{"r":4.95,"w":1,"o":223}},{"type":"Feature","geometry":{"type":"Point","coordinates":[-118.7,54.2]},"properties":{"r":2.73,"w":2,"o":315}},{"type":"Feature","geometry":{"type":"Point","coordinates":[-118.3,54.2]},"properties":{"r":3.08,"w":1,"o":27}},{"type":"Feature","geometry":{"type":"Point","coordinates":[-118.2,54.2]},"properties":{"r":3.71,"w":2,"o":27}},{"type":"Feature","geometry":{"type":"Point","coordinates":[-117.5,54.2]},"properties":{"r":20.82,"w":5,"o":90}},{"type":"Feature","geometry":{"type":"Point","coordinates":[-117.4,54.2]},"properties":{"r":33.63,"w":11,"o":90}},{"type":"Feature","geometry":{"type":"Point","coordinates":[-117.3,54.2]},"properties":{"r":9.2,"w":8,"o":173}},{"type":"Feature","geometry":{"type":"Point","coordinates":[-117.2,54.2]},"properties":{"r":3.84,"w":4,"o":173}},{"type":"Feature","geometry":{"type":"Point","coordinates":[-117.0,54.2]},"properties":{"r":0.59,"w":1,"o":270}},{"type":"Feature","geometry":{"type":"Point","coordinates":[-116.9,54.2]},"properties":{"r":3.17,"w":7,"o":340}},{"type":"Feature","geometry":{"type":"Point","coordinates":[-116.8,54.2]},"properties":{"r":4.86,"w":2,"o":67}},{"type":"Feature","geometry":{"type":"Point","coordinates":[-116.7,54.2]},"properties":{"r":1.57,"w":16,"o":67}},{"type":"Feature","geometry":{"type":"Point","coordinates":[-116.6,54.2]},"properties":{"r":9.62,"w":9,"o":67}},{"type":"Feature","geometry":{"type":"Point","coordinates":[-116.5,54.2]},"properties":{"r":2.6,"w":5,"o":228}},{"type":"Feature","geometry":{"type":"Point","coordinates":[-116.4,54.2]},"properties":{"r":1.09,"w":2,"o":223}},{"type":"Feature","geometry":{"type":"Point","coordinates":[-119.1,54.3]},"properties":{"r":0.9,"w":1,"o":315}},{"type":"Feature","geometry":{"type":"Point","coordinates":[-118.6,54.3]},"properties":{"r":5.56,"w":6,"o":315}},{"type":"Feature","geometry":{"type":"Point","coordinates":[-118.5,54.3]},"properties":{"r":0.71,"w":1,"o":27}},{"type":"Feature","geometry":{"type":"Point","coordinates":[-118.3,54.3]},"properties":{"r":1.3,"w":2,"o":340}},{"type":"Feature","geometry":{"type":"Point","coordinates":[-117.8,54.3]},"properties":{"r":0.23,"w":1,"o":151}},{"type":"Feature","geometry":{"type":"Point","coordinates":[-117.7,54.3]},"properties":{"r":3.21,"w":2,"o":173}},{"type":"Feature","geometry":{"type":"Point","coordinates":[-117.6,54.3]},"properties":{"r":1.64,"w":3,"o":173}},{"type":"Feature","geometry":{"type":"Point","coordinates":[-117.3,54.3]},"properties":{"r":6.56,"w":4,"o":90}},{"type":"Feature","geometry":{"type":"Point","coordinates":[-117.2,54.3]},"properties":{"r":2.24,"w":1,"o":67}},{"type":"Feature","geometry":{"type":"Point","coordinates":[-117.1,54.3]},"properties":{"r":0.84,"w":3,"o":67}},{"type":"Feature","geometry":{"type":"Point","coordinates":[-116.8,54.3]},"properties":{"r":1.4,"w":3,"o":67}},{"type":"Feature","geometry":{"type":"Point","coordinates":[-116.7,54.3]},"properties":{"r":1.95,"w":11,"o":67}},{"type":"Feature","geometry":{"type":"Point","coordinates":[-116.6,54.3]},"properties":{"r":8.34,"w":11,"o":67}},{"type":"Feature","geometry":{"type":"Point","coordinates":[-116.3,54.3]},"properties":{"r":4.15,"w":5,"o":223}},{"type":"Feature","geometry":{"type":"Point","coordinates":[-116.2,54.3]},"properties":{"r":1.15,"w":1,"o":223}},{"type":"Feature","geometry":{"type":"Point","coordinates":[-116.1,54.3]},"properties":{"r":0.38,"w":1,"o":223}},{"type":"Feature","geometry":{"type":"Point","coordinates":[-119.2,54.4]},"properties":{"r":0.19,"w":1,"o":315}},{"type":"Feature","geometry":{"type":"Point","coordinates":[-119.1,54.4]},"properties":{"r":4.49,"w":5,"o":315}},{"type":"Feature","geometry":{"type":"Point","coordinates":[-119.0,54.4]},"properties":{"r":0.55,"w":5,"o":315}},{"type":"Feature","geometry":{"type":"Point","coordinates":[-118.9,54.4]},"properties":{"r":0.42,"w":4,"o":315}},{"type":"Feature","geometry":{"type":"Point","coordinates":[-118.8,54.4]},"properties":{"r":0.38,"w":6,"o":291}},{"type":"Feature","geometry":{"type":"Point","coordinates":[-118.7,54.4]},"properties":{"r":8.89,"w":13,"o":222}},{"type":"Feature","geometry":{"type":"Point","coordinates":[-118.6,54.4]},"properties":{"r":25.52,"w":14,"o":27}},{"type":"Feature","geometry":{"type":"Point","coordinates":[-118.5,54.4]},"properties":{"r":15.18,"w":7,"o":27}},{"type":"Feature","geometry":{"type":"Point","coordinates":[-118.4,54.4]},"properties":{"r":2.81,"w":3,"o":27}},{"type":"Feature","geometry":{"type":"Point","coordinates":[-118.1,54.4]},"properties":{"r":0.48,"w":1,"o":67}},{"type":"Feature","geometry":{"type":"Point","coordinates":[-118.0,54.4]},"properties":{"r":4.47,"w":2,"o":67}},{"type":"Feature","geometry":{"type":"Point","coordinates":[-117.9,54.4]},"properties":{"r":0.73,"w":3,"o":67}},{"type":"Feature","geometry":{"type":"Point","coordinates":[-117.8,54.4]},"properties":{"r":1.66,"w":1,"o":67}},{"type":"Feature","geometry":{"type":"Point","coordinates":[-117.4,54.4]},"properties":{"r":5.58,"w":9,"o":67}},{"type":"Feature","geometry":{"type":"Point","coordinates":[-117.3,54.4]},"properties":{"r":13.92,"w":5,"o":90}},{"type":"Feature","geometry":{"type":"Point","coordinates":[-117.2,54.4]},"properties":{"r":3.92,"w":8,"o":67}},{"type":"Feature","geometry":{"type":"Point","coordinates":[-117.1,54.4]},"properties":{"r":0.08,"w":1,"o":134}},{"type":"Feature","geometry":{"type":"Point","coordinates":[-117.0,54.4]},"properties":{"r":0.21,"w":1,"o":339}},{"type":"Feature","geometry":{"type":"Point","coordinates":[-116.9,54.4]},"properties":{"r":0.55,"w":4,"o":228}},{"type":"Feature","geometry":{"type":"Point","coordinates":[-116.8,54.4]},"properties":{"r":1.64,"w":4,"o":67}},{"type":"Feature","geometry":{"type":"Point","coordinates":[-116.7,54.4]},"properties":{"r":18.45,"w":20,"o":67}},{"type":"Feature","geometry":{"type":"Point","coordinates":[-116.6,54.4]},"properties":{"r":7.48,"w":11,"o":339}},{"type":"Feature","geometry":{"type":"Point","coordinates":[-119.3,54.5]},"properties":{"r":0.02,"w":1,"o":315}},{"type":"Feature","geometry":{"type":"Point","coordinates":[-119.2,54.5]},"properties":{"r":5.95,"w":15,"o":315}},{"type":"Feature","geometry":{"type":"Point","coordinates":[-119.1,54.5]},"properties":{"r":3.71,"w":7,"o":315}},{"type":"Feature","geometry":{"type":"Point","coordinates":[-119.0,54.5]},"properties":{"r":0.29,"w":2,"o":315}},{"type":"Feature","geometry":{"type":"Point","coordinates":[-118.9,54.5]},"properties":{"r":3.9,"w":11,"o":222}},{"type":"Feature","geometry":{"type":"Point","coordinates":[-118.8,54.5]},"properties":{"r":2.77,"w":1,"o":27}},{"type":"Feature","geometry":{"type":"Point","coordinates":[-118.7,54.5]},"properties":{"r":17.49,"w":6,"o":27}},{"type":"Feature","geometry":{"type":"Point","coordinates":[-118.6,54.5]},"properties":{"r":38.24,"w":19,"o":27}},{"type":"Feature","geometry":{"type":"Point","coordinates":[-118.5,54.5]},"properties":{"r":9.43,"w":6,"o":27}},{"type":"Feature","geometry":{"type":"Point","coordinates":[-118.3,54.5]},"properties":{"r":2.58,"w":4,"o":67}},{"type":"Feature","geometry":{"type":"Point","coordinates":[-118.2,54.5]},"properties":{"r":1.59,"w":1,"o":67}},{"type":"Feature","geometry":{"type":"Point","coordinates":[-118.1,54.5]},"properties":{"r":7.53,"w":6,"o":67}},{"type":"Feature","geometry":{"type":"Point","coordinates":[-117.6,54.5]},"properties":{"r":2.45,"w":2,"o":67}},{"type":"Feature","geometry":{"type":"Point","coordinates":[-117.5,54.5]},"properties":{"r":0.71,"w":3,"o":67}},{"type":"Feature","geometry":{"type":"Point","coordinates":[-117.4,54.5]},"properties":{"r":0.21,"w":1,"o":67}},{"type":"Feature","geometry":{"type":"Point","coordinates":[-117.0,54.5]},"properties":{"r":2.81,"w":5,"o":339}},{"type":"Feature","geometry":{"type":"Point","coordinates":[-116.9,54.5]},"properties":{"r":6.67,"w":6,"o":339}},{"type":"Feature","geometry":{"type":"Point","coordinates":[-116.8,54.5]},"properties":{"r":4.21,"w":3,"o":228}},{"type":"Feature","geometry":{"type":"Point","coordinates":[-116.7,54.5]},"properties":{"r":0.61,"w":1,"o":339}},{"type":"Feature","geometry":{"type":"Point","coordinates":[-116.3,54.5]},"properties":{"r":0.13,"w":2,"o":67}},{"type":"Feature","geometry":{"type":"Point","coordinates":[-119.2,54.6]},"properties":{"r":2.89,"w":6,"o":67}},{"type":"Feature","geometry":{"type":"Point","coordinates":[-119.1,54.6]},"properties":{"r":0.44,"w":3,"o":67}},{"type":"Feature","geometry":{"type":"Point","coordinates":[-118.9,54.6]},"properties":{"r":9.71,"w":5,"o":225}},{"type":"Feature","geometry":{"type":"Point","coordinates":[-118.8,54.6]},"properties":{"r":44.89,"w":36,"o":225}},{"type":"Feature","geometry":{"type":"Point","coordinates":[-118.7,54.6]},"properties":{"r":4.65,"w":1,"o":27}},{"type":"Feature","geometry":{"type":"Point","coordinates":[-118.5,54.6]},"properties":{"r":4.19,"w":4,"o":27}},{"type":"Feature","geometry":{"type":"Point","coordinates":[-118.4,54.6]},"properties":{"r":0.44,"w":3,"o":67}},{"type":"Feature","geometry":{"type":"Point","coordinates":[-118.3,54.6]},"properties":{"r":1.57,"w":2,"o":67}},{"type":"Feature","geometry":{"type":"Point","coordinates":[-118.2,54.6]},"properties":{"r":3.56,"w":1,"o":67}},{"type":"Feature","geometry":{"type":"Point","coordinates":[-117.4,54.6]},"properties":{"r":1.49,"w":1,"o":339}},{"type":"Feature","geometry":{"type":"Point","coordinates":[-119.1,54.7]},"properties":{"r":0.02,"w":1,"o":67}},{"type":"Feature","geometry":{"type":"Point","coordinates":[-119.0,54.7]},"properties":{"r":0.02,"w":1,"o":67}},{"type":"Feature","geometry":{"type":"Point","coordinates":[-118.9,54.7]},"properties":{"r":1.93,"w":3,"o":225}},{"type":"Feature","geometry":{"type":"Point","coordinates":[-118.8,54.7]},"properties":{"r":23.42,"w":38,"o":225}},{"type":"Feature","geometry":{"type":"Point","coordinates":[-118.7,54.7]},"properties":{"r":9.71,"w":22,"o":225}},{"type":"Feature","geometry":{"type":"Point","coordinates":[-118.6,54.7]},"properties":{"r":0.99,"w":1,"o":340}},{"type":"Feature","geometry":{"type":"Point","coordinates":[-118.5,54.7]},"properties":{"r":1.07,"w":3,"o":225}},{"type":"Feature","geometry":{"type":"Point","coordinates":[-117.6,54.7]},"properties":{"r":2.43,"w":2,"o":67}},{"type":"Feature","geometry":{"type":"Point","coordinates":[-119.0,54.8]},"properties":{"r":1.64,"w":1,"o":67}},{"type":"Feature","geometry":{"type":"Point","coordinates":[-118.9,54.8]},"properties":{"r":1.28,"w":2,"o":202}},{"type":"Feature","geometry":{"type":"Point","coordinates":[-118.8,54.8]},"properties":{"r":6.69,"w":9,"o":67}},{"type":"Feature","geometry":{"type":"Point","coordinates":[-118.7,54.8]},"properties":{"r":11.49,"w":7,"o":67}},{"type":"Feature","geometry":{"type":"Point","coordinates":[-118.6,54.8]},"properties":{"r":1.82,"w":3,"o":67}},{"type":"Feature","geometry":{"type":"Point","coordinates":[-119.4,54.9]},"properties":{"r":0.36,"w":6,"o":43}},{"type":"Feature","geometry":{"type":"Point","coordinates":[-119.1,54.9]},"properties":{"r":2.22,"w":1,"o":287}},{"type":"Feature","geometry":{"type":"Point","coordinates":[-119.0,54.9]},"properties":{"r":1.53,"w":2,"o":134}},{"type":"Feature","geometry":{"type":"Point","coordinates":[-118.9,54.9]},"properties":{"r":0.06,"w":1,"o":67}},{"type":"Feature","geometry":{"type":"Point","coordinates":[-118.8,54.9]},"properties":{"r":0.27,"w":1,"o":67}},{"type":"Feature","geometry":{"type":"Point","coordinates":[-119.5,55.1]},"properties":{"r":0.27,"w":1,"o":225}},{"type":"Feature","geometry":{"type":"Point","coordinates":[-119.5,55.2]},"properties":{"r":0.08,"w":1,"o":67}},{"type":"Feature","geometry":{"type":"Point","coordinates":[-119.4,55.2]},"properties":{"r":1.22,"w":5,"o":67}},{"type":"Feature","geometry":{"type":"Point","coordinates":[-118.8,55.2]},"properties":{"r":0.84,"w":1,"o":67}},{"type":"Feature","geometry":{"type":"Point","coordinates":[-119.6,55.3]},"properties":{"r":0.82,"w":7,"o":67}},{"type":"Feature","geometry":{"type":"Point","coordinates":[-119.5,55.3]},"properties":{"r":7.86,"w":17,"o":67}},{"type":"Feature","geometry":{"type":"Point","coordinates":[-119.4,55.3]},"properties":{"r":0.46,"w":1,"o":67}},{"type":"Feature","geometry":{"type":"Point","coordinates":[-119.7,55.4]},"properties":{"r":0.04,"w":1,"o":67}},{"type":"Feature","geometry":{"type":"Point","coordinates":[-119.6,55.4]},"properties":{"r":0.04,"w":1,"o":67}},{"type":"Feature","geometry":{"type":"Point","coordinates":[-119.6,55.5]},"properties":{"r":0.08,"w":1,"o":67}},{"type":"Feature","geometry":{"type":"Point","coordinates":[-119.7,55.6]},"properties":{"r":6.18,"w":12,"o":69}},{"type":"Feature","geometry":{"type":"Point","coordinates":[-119.6,55.6]},"properties":{"r":3.65,"w":7,"o":69}},{"type":"Feature","geometry":{"type":"Point","coordinates":[-119.2,55.6]},"properties":{"r":0.04,"w":1,"o":14}},{"type":"Feature","geometry":{"type":"Point","coordinates":[-114.3,55.6]},"properties":{"r":0.04,"w":2,"o":67}},{"type":"Feature","geometry":{"type":"Point","coordinates":[-119.9,55.7]},"properties":{"r":2.14,"w":3,"o":170}},{"type":"Feature","geometry":{"type":"Point","coordinates":[-119.8,55.7]},"properties":{"r":3.25,"w":2,"o":170}},{"type":"Feature","geometry":{"type":"Point","coordinates":[-119.7,55.7]},"properties":{"r":9.92,"w":6,"o":170}},{"type":"Feature","geometry":{"type":"Point","coordinates":[-119.6,55.7]},"properties":{"r":1.15,"w":5,"o":69}},{"type":"Feature","geometry":{"type":"Point","coordinates":[-119.4,55.7]},"properties":{"r":0.71,"w":1,"o":307}},{"type":"Feature","geometry":{"type":"Point","coordinates":[-119.1,55.7]},"properties":{"r":0.04,"w":1,"o":170}},{"type":"Feature","geometry":{"type":"Point","coordinates":[-117.9,55.7]},"properties":{"r":0.65,"w":4,"o":67}},{"type":"Feature","geometry":{"type":"Point","coordinates":[-120.0,55.8]},"properties":{"r":3.19,"w":4,"o":53}},{"type":"Feature","geometry":{"type":"Point","coordinates":[-119.9,55.8]},"properties":{"r":1.3,"w":1,"o":53}},{"type":"Feature","geometry":{"type":"Point","coordinates":[-119.8,55.8]},"properties":{"r":2.75,"w":1,"o":53}},{"type":"Feature","geometry":{"type":"Point","coordinates":[-119.7,55.8]},"properties":{"r":1.05,"w":3,"o":67}},{"type":"Feature","geometry":{"type":"Point","coordinates":[-119.6,55.8]},"properties":{"r":2.66,"w":10,"o":53}},{"type":"Feature","geometry":{"type":"Point","coordinates":[-119.5,55.8]},"properties":{"r":1.87,"w":1,"o":67}},{"type":"Feature","geometry":{"type":"Point","coordinates":[-119.4,55.8]},"properties":{"r":4.09,"w":4,"o":67}},{"type":"Feature","geometry":{"type":"Point","coordinates":[-118.9,55.8]},"properties":{"r":0.29,"w":1,"o":67}},{"type":"Feature","geometry":{"type":"Point","coordinates":[-118.1,55.8]},"properties":{"r":1.38,"w":4,"o":67}},{"type":"Feature","geometry":{"type":"Point","coordinates":[-117.3,55.8]},"properties":{"r":2.91,"w":1,"o":67}},{"type":"Feature","geometry":{"type":"Point","coordinates":[-120.0,55.9]},"properties":{"r":1.64,"w":4,"o":53}},{"type":"Feature","geometry":{"type":"Point","coordinates":[-119.9,55.9]},"properties":{"r":11.55,"w":7,"o":53}},{"type":"Feature","geometry":{"type":"Point","coordinates":[-119.8,55.9]},"properties":{"r":4.91,"w":5,"o":53}},{"type":"Feature","geometry":{"type":"Point","coordinates":[-118.4,55.9]},"properties":{"r":17.46,"w":16,"o":67}},{"type":"Feature","geometry":{"type":"Point","coordinates":[-118.3,55.9]},"properties":{"r":8.74,"w":3,"o":67}},{"type":"Feature","geometry":{"type":"Point","coordinates":[-119.9,56.0]},"properties":{"r":4.28,"w":2,"o":285}},{"type":"Feature","geometry":{"type":"Point","coordinates":[-118.6,56.0]},"properties":{"r":14.11,"w":26,"o":67}},{"type":"Feature","geometry":{"type":"Point","coordinates":[-118.5,56.0]},"properties":{"r":8.39,"w":19,"o":67}},{"type":"Feature","geometry":{"type":"Point","coordinates":[-118.4,56.0]},"properties":{"r":1.17,"w":2,"o":67}},{"type":"Feature","geometry":{"type":"Point","coordinates":[-119.5,56.1]},"properties":{"r":1.85,"w":1,"o":67}},{"type":"Feature","geometry":{"type":"Point","coordinates":[-119.4,56.2]},"properties":{"r":0.13,"w":1,"o":67}},{"type":"Feature","geometry":{"type":"Point","coordinates":[-119.8,56.3]},"properties":{"r":0.08,"w":1,"o":67}},{"type":"Feature","geometry":{"type":"Point","coordinates":[-119.7,56.3]},"properties":{"r":0.15,"w":1,"o":67}},{"type":"Feature","geometry":{"type":"Point","coordinates":[-119.1,56.3]},"properties":{"r":8.87,"w":5,"o":67}}]}