{"type":"FeatureCollection","features":[{"type":"Feature","geometry":{"type":"Polygon","coordinates":[[[-115.31749,50.07649],[-117.1479,49.54577],[-117.038,48.97248],[-114.03265,48.95611],[-115.31749,50.07649]]]},"properties":{"acronym":"FHBC","dop_acronym":"FHZ8","display_name":"Foothills BC","type_name":"Receipt","tc_colour":[150,39,154,127],"notes":"*Capabilities listed are receipt (takeaway) capabilities from NGTL, not delivery to NGTL","assumptions":"Energy rate calculated using heating value of 38.5 MJ/m3","center_lat":49.688179095496345,"center_lng":-116.13647460937501,"vertices":4}},{"type":"Feature","geometry":{"type":"Polygon","coordinates":[[[-110.05196,50.99142],[-106.77354,50.89456],[-106.75156,49.65962],[-110.05196,49.68805],[-110.05196,50.99142]]]},"properties":{"acronym":"FHSK","dop_acronym":"FHZ9","display_name":"Foothills Saskatchewan","type_name":"Receipt","tc_colour":[214,185,47,127],"notes":"*Capabilities listed are receipt (takeaway) capabilities from NGTL, not delivery to NGTL","assumptions":"","center_lat":50.8459526384811,"center_lng":-109.22023804809916,"vertices":4}},{"type":"Feature","geometry":{"type":"Polygon","coordinates":[[[-116.21278,58.21602],[-110.07392,58.21637],[-110.05196,50.77291],[-112.04354,50.77399],[-113.67587,51.21569],[-113.95277,51.31406],[-114.80714,52.31728],[-115.99314,52.77185],[-114.93892,53.45799],[-115.46603,55.84824],[-118.11386,57.11329],[-116.21278,58.21602]]]},"properties":{"acronym":"NEDA","dop_acronym":"NEDA","display_name":"North & East Delivery Area","type_name":"Delivery","tc_colour":[248,130,142,127],"notes":"North and East Delivery Area (NEDA): Unity, Cold Lake, Warwick Southeast interconnects, and all delivery locations in Segments 6, 10, 11, 13, 14, 15, 16, 17, 23, 24, partial 28","assumptions":"","center_lat":53.28788002541979,"center_lng":-114.06007156805481,"vertices":11}},{"type":"Feature","geometry":{"type":"Polygon","coordinates":[[[-118.14553,59.48944],[-121.35214,59.31039],[-122.49422,58.51582],[-122.49422,55.25131],[-116.081,50.86972],[-114.19217,50.98058],[-113.95277,51.31406],[-114.80714,52.31728],[-115.99314,52.77185],[-114.93892,53.45799],[-115.46603,55.84824],[-118.11386,57.11329],[-116.21278,58.21602],[-116.51157,59.34883],[-118.14553,59.48944]]]},"properties":{"acronym":"USJR","dop_acronym":"USJR","display_name":"Upstream James River","type_name":"Receipt","tc_colour":[247,132,43,127],"notes":"Upstream James River Receipt Area (USJR): Groundbirch East, Gordondale, Big Eddy, and January Creek interconnects, and all receipt locations in Segments 1, 2, 3, 4, 5, 7, 8, partial 9\n\nRefer to USJR Capability and Historical Flow Chart for outages with 'N/A' in the 'Area Base Capability' and 'Area Outage Capability' columns\n\nWhen risk to FT-R is expected to be within a subset of USJR only (eg. Upstream of Latornell or Berland), if adequate downstream IT-D/IT-S exists to offset an FT-R curtailment, area of IT-D/IT-S curtailment could include portions of segments 7, 8, and 9 based on hydraulic equivalency analysis and location of the bottleneck.","assumptions":"Energy rate calculated using heating value of 40.5 MJ/m3\nActual Flow: Daily Average Flow incl. Storage receipts.\nHistorical Flow: Daily Average Flow incl. Storage receipts, 12 months prior.\nNPS 36 Grande Prairie Mainline pressure derates continue to remain in place until the end of 2026.","center_lat":56.79051120019145,"center_lng":-120.049206989441,"vertices":14}},{"type":"Feature","geometry":{"type":"Polygon","coordinates":[[[-113.20409,57.62088],[-111.0308,57.65618],[-110.17465,57.09915],[-110.17465,54.47993],[-111.46985,53.86223],[-112.06256,53.77137],[-112.17233,53.53685],[-113.35776,53.51071],[-113.07238,54.86132],[-113.86267,55.05068],[-114.47734,56.35134],[-113.95048,57.42018],[-113.20409,57.62088]]]},"properties":{"acronym":"OSDA","dop_acronym":"OSDA","display_name":"Oil Sands Delivery Area","type_name":"Delivery","tc_colour":[238,94,135,127],"notes":"Oil Sands Delivery Area (OSDA): Cold Lake interconnect, and all delivery locations in Segments 10, 11, 14","assumptions":"Energy rate calculated using heating value of 39.5 MJ/m3\nActual Flow: Daily Average Flow.\nHistorical Flow: Flow, 12 months prior.","center_lat":57.03938225950859,"center_lng":-112.91807504982135,"vertices":12}},{"type":"Feature","geometry":{"type":"Polygon","coordinates":[[[-110.05196,49.9121],[-111.08483,49.90487],[-112.22691,50.39791],[-111.98531,50.70522],[-113.61058,50.66343],[-114.19217,50.98058],[-113.95277,51.31406],[-113.69201,51.23003],[-112.04354,50.77399],[-110.05196,50.77291],[-110.05196,49.9121]]]},"properties":{"acronym":"EGAT","dop_acronym":"EGAT","display_name":"East Gate","type_name":"Delivery","tc_colour":[70,139,69,127],"notes":"East Gate Delivery Area (EGAT): Empress, McNeill, Unity, Cold Lake, Aeco C, Warwick Southeast, Chancellor, Carbon, Severn Creek, and Crossfield interconnects, and all delivery locations in Segments 6, 10, 11, 13, 14, 15, 16, 17, 18, 19, 20, partial 21, 23, 24, partial 28.\n- Lower East Gate Delivery Area (LEGAT): Empress, McNeill, Unity, Aeco C, Warwick Southeast, Chancellor, Carbon, Severn Creek, and Crossfield interconnects, and all delivery locations in Segments 15, 16, 17, 18, 19, 20, 23, partial 21, partial 28\n\nCapability/Allowable for Empress/McNeill Border entries is reflective of only Empress/McNeill flow and does not include flow to deliveries in segments 10, 11, 12, 13, 14, 15, 16, 17, 18, 19, 20, partial 21, 23, 24, or partial 28.  Where the Location/Area description includes segments in addition to Empress/McNeill Border, delivery locations in those segments will receive the same percent allowable as Empress/McNeill Border.","assumptions":"Energy rate calculated using heating value of 38.5 MJ/m3\nActual Flow: Daily average flow incl. Storage deliveries.\nHistorical Flow: Daily average flow incl. Storage deliveries, 12 months prior.","center_lat":50.590414779916784,"center_lng":-111.27005600862334,"vertices":10}},{"type":"Feature","geometry":{"type":"Polygon","coordinates":[[[-114.17541,50.95713],[-114.98804,50.51188],[-115.31749,50.07649],[-114.03265,48.95611],[-111.48016,49.01899],[-111.08483,49.90487],[-112.22691,50.39791],[-111.98531,50.70522],[-113.61058,50.66343],[-114.19217,50.98058],[-114.17541,50.95713]]]},"properties":{"acronym":"WGAT","dop_acronym":"WGAT","display_name":"West Gate","type_name":"Delivery","tc_colour":[83,192,213,127],"notes":"West Gate Delivery Area (WGAT): Alberta B.C. and Alberta Montana interconnects (Delivery locations in partial Segment 21 and Segment 22 may or may not be included depending on season)\n\nCapability/Allowable for Alberta/BC Border entries is reflective of only Alberta/BC flow and does not include flow to deliveries in segments 22 and partial 21. Where the Location/Area description includes segments in addition to Alberta/BC Border, delivery locations in those segments will receive the same percent allowable as Alberta/BC Border.","assumptions":"Energy rate calculated using heating value of 38.5 MJ/m3\nActual Flow: Daily Average Flow.\nHistorical Flow: Daily Average Flow, 12 months prior.","center_lat":50.36415351802929,"center_lng":-114.0384654622131,"vertices":10}}]}