{"type":"FeatureCollection","features":[{"type":"Feature","geometry":{"type":"Point","coordinates":[-119.45975,57.3611]},"properties":{"name":"MEIKLE RIVER","match_key":"MEIKLERIVER","multi_direction":false,"position_from":"marker","snap_km":5.37,"snapped":true}},{"type":"Feature","geometry":{"type":"Point","coordinates":[-117.4616,57.10523]},"properties":{"name":"OTTER LAKE","match_key":"OTTERLAKE","multi_direction":false,"position_from":"label","snap_km":2.67,"snapped":true}},{"type":"Feature","geometry":{"type":"Point","coordinates":[-115.97004,56.90051]},"properties":{"name":"GOODFISH","match_key":"GOODFISH","multi_direction":false,"position_from":"label","snap_km":11.9,"snapped":true}},{"type":"Feature","geometry":{"type":"Point","coordinates":[-114.7429,56.60345]},"properties":{"name":"WOODENHOUSE","match_key":"WOODENHOUSE","multi_direction":false,"position_from":"marker","snap_km":26.19,"snapped":false}},{"type":"Feature","geometry":{"type":"Point","coordinates":[-120.91267,56.51942]},"properties":{"name":"ALCES RIVER","match_key":"ALCESRIVER","multi_direction":true,"position_from":"marker","snap_km":59.56,"snapped":false}},{"type":"Feature","geometry":{"type":"Point","coordinates":[-113.38182,56.57495]},"properties":{"name":"BUFFALO CREEK NORTH","match_key":"BUFFALOCREEKNORTH","multi_direction":false,"position_from":"marker","snap_km":3.48,"snapped":true}},{"type":"Feature","geometry":{"type":"Point","coordinates":[-113.39518,56.51672]},"properties":{"name":"BUFFALO CREEK","match_key":"BUFFALOCREEK","multi_direction":false,"position_from":"marker","snap_km":0.68,"snapped":true}},{"type":"Feature","geometry":{"type":"Point","coordinates":[-112.42819,56.04131]},"properties":{"name":"LEISMER EAST","match_key":"LEISMEREAST","multi_direction":false,"position_from":"marker","snap_km":6.69,"snapped":true}},{"type":"Feature","geometry":{"type":"Point","coordinates":[-119.93353,55.95089]},"properties":{"name":"SADDLE HILLS","match_key":"SADDLEHILLS","multi_direction":true,"position_from":"marker","snap_km":17.56,"snapped":true}},{"type":"Feature","geometry":{"type":"Point","coordinates":[-114.37547,55.69483]},"properties":{"name":"PAUL LAKE","match_key":"PAULLAKE","multi_direction":true,"position_from":"marker","snap_km":19.37,"snapped":true}},{"type":"Feature","geometry":{"type":"Point","coordinates":[-112.97398,55.15197]},"properties":{"name":"RIVER","match_key":"RIVER","multi_direction":true,"position_from":"marker","snap_km":15.56,"snapped":true}},{"type":"Feature","geometry":{"type":"Point","coordinates":[-120.62024,55.24249]},"properties":{"name":"PIPESTONE CREEK","match_key":"PIPESTONECREEK","multi_direction":false,"position_from":"marker","snap_km":42.06,"snapped":false}},{"type":"Feature","geometry":{"type":"Point","coordinates":[-111.73256,55.38446]},"properties":{"name":"BEHAN","match_key":"BEHAN","multi_direction":true,"position_from":"marker","snap_km":11.25,"snapped":true}},{"type":"Feature","geometry":{"type":"Point","coordinates":[-114.46419,55.04121]},"properties":{"name":"SLAVE LAKE","match_key":"SLAVELAKE","multi_direction":false,"position_from":"marker","snap_km":4.23,"snapped":true}},{"type":"Feature","geometry":{"type":"Point","coordinates":[-112.10134,54.74317]},"properties":{"name":"FIELD LAKE","match_key":"FIELDLAKE","multi_direction":true,"position_from":"marker","snap_km":11.32,"snapped":true}},{"type":"Feature","geometry":{"type":"Point","coordinates":[-118.772,54.85882]},"properties":{"name":"GOLD CREEK","match_key":"GOLDCREEK","multi_direction":false,"position_from":"marker","snap_km":5.69,"snapped":true}},{"type":"Feature","geometry":{"type":"Point","coordinates":[-112.9309,54.72178]},"properties":{"name":"AMBER VALLEY","match_key":"AMBERVALLEY","multi_direction":false,"position_from":"marker","snap_km":1.82,"snapped":true}},{"type":"Feature","geometry":{"type":"Point","coordinates":[-118.27305,54.62922]},"properties":{"name":"LATORNELL","match_key":"LATORNELL","multi_direction":false,"position_from":"marker","snap_km":12.99,"snapped":true}},{"type":"Feature","geometry":{"type":"Point","coordinates":[-114.01626,54.48797]},"properties":{"name":"HANMORE LAKE","match_key":"HANMORELAKE","multi_direction":true,"position_from":"marker","snap_km":4.21,"snapped":true}},{"type":"Feature","geometry":{"type":"Point","coordinates":[-115.16749,54.4706]},"properties":{"name":"NOEL LAKE","match_key":"NOELLAKE","multi_direction":false,"position_from":"marker","snap_km":10.05,"snapped":true}},{"type":"Feature","geometry":{"type":"Point","coordinates":[-117.21025,54.25879]},"properties":{"name":"FOX CREEK","match_key":"FOXCREEK","multi_direction":false,"position_from":"marker","snap_km":15.85,"snapped":true}},{"type":"Feature","geometry":{"type":"Point","coordinates":[-111.29948,54.35618]},"properties":{"name":"DENNING LAKE NO.2","match_key":"DENNINGLAKENO","multi_direction":false,"position_from":"marker","snap_km":4.71,"snapped":true}},{"type":"Feature","geometry":{"type":"Point","coordinates":[-111.45147,54.14264]},"properties":{"name":"SNIPE HILLS","match_key":"SNIPEHILLS","multi_direction":false,"position_from":"marker","snap_km":4.93,"snapped":true}},{"type":"Feature","geometry":{"type":"Point","coordinates":[-112.69221,54.11556]},"properties":{"name":"SMOKY LAKE","match_key":"SMOKYLAKE","multi_direction":true,"position_from":"marker","snap_km":3.99,"snapped":true}},{"type":"Feature","geometry":{"type":"Point","coordinates":[-117.49845,54.07919]},"properties":{"name":"BERLAND RIVER","match_key":"BERLANDRIVER","multi_direction":false,"position_from":"marker","snap_km":4.49,"snapped":true}},{"type":"Feature","geometry":{"type":"Point","coordinates":[-116.57053,53.9888]},"properties":{"name":"KNIGHT","match_key":"KNIGHT","multi_direction":false,"position_from":"marker","snap_km":2.38,"snapped":true}},{"type":"Feature","geometry":{"type":"Point","coordinates":[-117.11654,53.88929]},"properties":{"name":"EMERSON CREEK","match_key":"EMERSONCREEK","multi_direction":false,"position_from":"marker","snap_km":4.31,"snapped":true}},{"type":"Feature","geometry":{"type":"Point","coordinates":[-116.05604,53.74453]},"properties":{"name":"PIONEER YELLOWHEAD","match_key":"PIONEERYELLOWHEAD","multi_direction":false,"position_from":"marker","snap_km":1.38,"snapped":true}},{"type":"Feature","geometry":{"type":"Point","coordinates":[-112.03078,53.66476]},"properties":{"name":"BENS LAKE","match_key":"BENSLAKE","multi_direction":true,"position_from":"marker","snap_km":2.24,"snapped":true}},{"type":"Feature","geometry":{"type":"Point","coordinates":[-115.92769,53.65296]},"properties":{"name":"PEERS","match_key":"PEERS","multi_direction":false,"position_from":"marker","snap_km":0.91,"snapped":true}},{"type":"Feature","geometry":{"type":"Point","coordinates":[-113.00338,53.64058]},"properties":{"name":"CLOVERBAR","match_key":"CLOVERBAR","multi_direction":false,"position_from":"marker","snap_km":35.12,"snapped":false}},{"type":"Feature","geometry":{"type":"Point","coordinates":[-117.13998,53.37146]},"properties":{"name":"SWARTZCREEK","match_key":"SWARTZCREEK","multi_direction":false,"position_from":"label","snap_km":26.54,"snapped":false}},{"type":"Feature","geometry":{"type":"Point","coordinates":[-111.24243,53.33785]},"properties":{"name":"VERMILION","match_key":"VERMILION","multi_direction":false,"position_from":"marker","snap_km":16.08,"snapped":true}},{"type":"Feature","geometry":{"type":"Point","coordinates":[-112.31998,53.15921]},"properties":{"name":"THOMAS LAKE","match_key":"THOMASLAKE","multi_direction":true,"position_from":"label","snap_km":16.18,"snapped":true}},{"type":"Feature","geometry":{"type":"Point","coordinates":[-112.18629,53.01318]},"properties":{"name":"DUSTY LAKE","match_key":"DUSTYLAKE","multi_direction":false,"position_from":"marker","snap_km":4.69,"snapped":true}},{"type":"Feature","geometry":{"type":"Point","coordinates":[-115.93874,52.96504]},"properties":{"name":"LODGEPOLE","match_key":"LODGEPOLE","multi_direction":false,"position_from":"marker","snap_km":0.65,"snapped":true}},{"type":"Feature","geometry":{"type":"Point","coordinates":[-111.27116,52.75028]},"properties":{"name":"WAINWRIGHT","match_key":"WAINWRIGHT","multi_direction":false,"position_from":"marker","snap_km":6.78,"snapped":true}},{"type":"Feature","geometry":{"type":"Point","coordinates":[-115.71422,52.73162]},"properties":{"name":"NORDEGG","match_key":"NORDEGG","multi_direction":false,"position_from":"marker","snap_km":1.15,"snapped":true}},{"type":"Feature","geometry":{"type":"Point","coordinates":[-112.234,52.44909]},"properties":{"name":"GADSBY","match_key":"GADSBY","multi_direction":true,"position_from":"marker","snap_km":6.67,"snapped":true}},{"type":"Feature","geometry":{"type":"Point","coordinates":[-115.312,52.41539]},"properties":{"name":"VETCHLAND","match_key":"VETCHLAND","multi_direction":false,"position_from":"marker","snap_km":4.02,"snapped":true}},{"type":"Feature","geometry":{"type":"Point","coordinates":[-115.62801,51.99092]},"properties":{"name":"CLEARWATER","match_key":"CLEARWATER","multi_direction":false,"position_from":"label","snap_km":27.51,"snapped":false}},{"type":"Feature","geometry":{"type":"Point","coordinates":[-112.06512,51.92644]},"properties":{"name":"FARRELL LAKE","match_key":"FARRELLLAKE","multi_direction":true,"position_from":"marker","snap_km":6.71,"snapped":true}},{"type":"Feature","geometry":{"type":"Point","coordinates":[-114.36464,51.68486]},"properties":{"name":"TORRINGTON","match_key":"TORRINGTON","multi_direction":true,"position_from":"marker","snap_km":5.26,"snapped":true}},{"type":"Feature","geometry":{"type":"Point","coordinates":[-114.40188,51.52637]},"properties":{"name":"DIDSBURY","match_key":"DIDSBURY","multi_direction":false,"position_from":"marker","snap_km":0.25,"snapped":true}},{"type":"Feature","geometry":{"type":"Point","coordinates":[-114.5253,51.44356]},"properties":{"name":"WINCHELL LAKE","match_key":"WINCHELLLAKE","multi_direction":false,"position_from":"marker","snap_km":6.38,"snapped":true}},{"type":"Feature","geometry":{"type":"Point","coordinates":[-113.58268,51.38768]},"properties":{"name":"ENTIC ENOR","match_key":"ENTICENOR","multi_direction":false,"position_from":"marker","snap_km":3.51,"snapped":true}},{"type":"Feature","geometry":{"type":"Point","coordinates":[-111.62486,51.36456]},"properties":{"name":"OAKLAND","match_key":"OAKLAND","multi_direction":true,"position_from":"marker","snap_km":2.83,"snapped":true}},{"type":"Feature","geometry":{"type":"Point","coordinates":[-113.8256,51.46176]},"properties":{"name":"ACME No.363","match_key":"ACMENO","multi_direction":false,"position_from":"marker","snap_km":7.72,"snapped":true}},{"type":"Feature","geometry":{"type":"Point","coordinates":[-113.29065,51.29397]},"properties":{"name":"GAYFORD BEISEKER","match_key":"GAYFORDBEISEKER","multi_direction":false,"position_from":"marker","snap_km":2.9,"snapped":true}},{"type":"Feature","geometry":{"type":"Point","coordinates":[-112.58236,51.08019]},"properties":{"name":"HUSSAR","match_key":"HUSSAR","multi_direction":false,"position_from":"marker","snap_km":3.46,"snapped":true}},{"type":"Feature","geometry":{"type":"Point","coordinates":[-110.63283,50.89893]},"properties":{"name":"RED DEER BIN D L RIVER O","match_key":"REDDEERBINDLRIVERO","multi_direction":false,"position_from":"label","snap_km":23.28,"snapped":true}},{"type":"Feature","geometry":{"type":"Point","coordinates":[-112.73208,50.83931]},"properties":{"name":"No.365","match_key":"NO","multi_direction":false,"position_from":"label","snap_km":12.81,"snapped":true}},{"type":"Feature","geometry":{"type":"Point","coordinates":[-111.7582,50.67509]},"properties":{"name":"BA NTRY PRINCESS","match_key":"BANTRYPRINCESS","multi_direction":false,"position_from":"marker","snap_km":2.26,"snapped":true}},{"type":"Feature","geometry":{"type":"Point","coordinates":[-110.02198,50.66007]},"properties":{"name":"B URS TALL","match_key":"BURSTALL","multi_direction":false,"position_from":"label","snap_km":2.74,"snapped":true}},{"type":"Feature","geometry":{"type":"Point","coordinates":[-109.01482,50.6019]},"properties":{"name":"CABRI","match_key":"CABRI","multi_direction":false,"position_from":"label","snap_km":71.1,"snapped":false}},{"type":"Feature","geometry":{"type":"Point","coordinates":[-114.32739,50.69307]},"properties":{"name":"TURNER VALLEY","match_key":"TURNERVALLEY","multi_direction":false,"position_from":"marker","snap_km":4.14,"snapped":true}},{"type":"Feature","geometry":{"type":"Point","coordinates":[-114.32739,50.69305]},"properties":{"name":"MAZEPPA","match_key":"MAZEPPA","multi_direction":false,"position_from":"marker","snap_km":4.3,"snapped":true}},{"type":"Feature","geometry":{"type":"Point","coordinates":[-110.02071,50.66048]},"properties":{"name":"RICHMOUND No.391","match_key":"RICHMOUNDNO","multi_direction":false,"position_from":"marker","snap_km":16.82,"snapped":true}},{"type":"Feature","geometry":{"type":"Point","coordinates":[-111.28618,50.45839]},"properties":{"name":"JENNER No.367","match_key":"JENNERNO","multi_direction":false,"position_from":"marker","snap_km":0.97,"snapped":true}},{"type":"Feature","geometry":{"type":"Point","coordinates":[-111.10911,50.09907]},"properties":{"name":"WEST MEDICINE HAT","match_key":"WESTMEDICINEHAT","multi_direction":false,"position_from":"marker","snap_km":5.21,"snapped":true}},{"type":"Feature","geometry":{"type":"Point","coordinates":[-109.11971,49.98124]},"properties":{"name":"PIAPOT No.392","match_key":"PIAPOTNO","multi_direction":false,"position_from":"marker","snap_km":72.9,"snapped":false}},{"type":"Feature","geometry":{"type":"Point","coordinates":[-114.1368,49.9896]},"properties":{"name":"BURTON CREEK","match_key":"BURTONCREEK","multi_direction":false,"position_from":"marker","snap_km":0.31,"snapped":true}},{"type":"Feature","geometry":{"type":"Point","coordinates":[-113.0666,49.78628]},"properties":{"name":"MONARCH","match_key":"MONARCH","multi_direction":false,"position_from":"marker","snap_km":4.32,"snapped":true}},{"type":"Feature","geometry":{"type":"Point","coordinates":[-113.27272,49.67263]},"properties":{"name":"ORTON","match_key":"ORTON","multi_direction":false,"position_from":"marker","snap_km":16.38,"snapped":true}},{"type":"Feature","geometry":{"type":"Point","coordinates":[-115.28741,49.77695]},"properties":{"name":"CROWSNEST No.1","match_key":"CROWSNESTNO","multi_direction":false,"position_from":"label","snap_km":47.24,"snapped":false}},{"type":"Feature","geometry":{"type":"Point","coordinates":[-114.1081,49.36568]},"properties":{"name":"DRYWOOD","match_key":"DRYWOOD","multi_direction":false,"position_from":"marker","snap_km":4.99,"snapped":true}},{"type":"Feature","geometry":{"type":"Point","coordinates":[-115.94021,49.28409]},"properties":{"name":"MOYIE No.2B","match_key":"MOYIENOB","multi_direction":false,"position_from":"marker","snap_km":100.59,"snapped":false}},{"type":"Feature","geometry":{"type":"Point","coordinates":[-115.56314,49.31229]},"properties":{"name":"ELKO No.2A","match_key":"ELKONOA","multi_direction":false,"position_from":"marker","snap_km":74.68,"snapped":false}},{"type":"Feature","geometry":{"type":"Point","coordinates":[-116.31699,49.04678]},"properties":{"name":"EASTPORT","match_key":"EASTPORT","multi_direction":false,"position_from":"marker","snap_km":137.01,"snapped":false}}]}