{
"type": "FeatureCollection",
"name": "ngtl_compressor_stations",
"crs": { "type": "name", "properties": { "name": "urn:ogc:def:crs:OGC:1.3:CRS84" } },
"features": [
{ "type": "Feature", "properties": { "LICINSTNO": "80071-13", "INSTA_LIC": "80071", "INSTA_NUM": "13", "INSTA_TYPE": "Compressor Station", "BA_NAME": "NOVA Gas Transmission Ltd.", "POWER": 27060.0, "PRIME_SORC": "Turbine", "INST_LOCAT": "01-06-025-19W4", "FLD_CENTRE": "Medicine Hat", "SUBSTANCE1": "Natural Gas", "PLINSTATUS": "Operating" }, "geometry": { "type": "Point", "coordinates": [ -112.637071313819249, 51.097804933027355 ] } },
{ "type": "Feature", "properties": { "LICINSTNO": "80071-16", "INSTA_LIC": "80071", "INSTA_NUM": "16", "INSTA_TYPE": "Compressor Station", "BA_NAME": "NOVA Gas Transmission Ltd.", "POWER": 6480.0, "PRIME_SORC": "Turbine", "INST_LOCAT": "12-02-033-26W4", "FLD_CENTRE": "Medicine Hat", "SUBSTANCE1": "Natural Gas", "PLINSTATUS": "Operating" }, "geometry": { "type": "Point", "coordinates": [ -113.594263077280303, 51.803308540042572 ] } },
{ "type": "Feature", "properties": { "LICINSTNO": "80081-5", "INSTA_LIC": "80081", "INSTA_NUM": "5", "INSTA_TYPE": "Compressor Station", "BA_NAME": "NOVA Gas Transmission Ltd.", "POWER": 3780.0, "PRIME_SORC": "Turbine", "INST_LOCAT": "15-26-021-04W4", "FLD_CENTRE": "Medicine Hat", "SUBSTANCE1": "Natural Gas", "PLINSTATUS": "Operating" }, "geometry": { "type": "Point", "coordinates": [ -110.449551329664743, 50.81723852582212 ] } },
{ "type": "Feature", "properties": { "LICINSTNO": "80081-11", "INSTA_LIC": "80081", "INSTA_NUM": "11", "INSTA_TYPE": "Compressor Station", "BA_NAME": "NOVA Gas Transmission Ltd.", "POWER": 1270.0, "PRIME_SORC": "Reciprocating", "INST_LOCAT": "15-26-021-04W4", "FLD_CENTRE": "Medicine Hat", "SUBSTANCE1": "Natural Gas", "PLINSTATUS": "Operating" }, "geometry": { "type": "Point", "coordinates": [ -110.452551329664729, 50.81723852582212 ] } },
{ "type": "Feature", "properties": { "LICINSTNO": "80096-14", "INSTA_LIC": "80096", "INSTA_NUM": "14", "INSTA_TYPE": "Compressor Station", "BA_NAME": "NOVA Gas Transmission Ltd.", "POWER": 26960.0, "PRIME_SORC": "Turbine", "INST_LOCAT": "14-06-012-01W5", "FLD_CENTRE": "Calgary", "SUBSTANCE1": "Natural Gas", "PLINSTATUS": "Operating" }, "geometry": { "type": "Point", "coordinates": [ -114.131535587905304, 49.975121229490249 ] } },
{ "type": "Feature", "properties": { "LICINSTNO": "80096-16", "INSTA_LIC": "80096", "INSTA_NUM": "16", "INSTA_TYPE": "Compressor Station", "BA_NAME": "NOVA Gas Transmission Ltd.", "POWER": 45900.0, "PRIME_SORC": "Turbine", "INST_LOCAT": "08-15-020-03W5", "FLD_CENTRE": "Calgary", "SUBSTANCE1": "Natural Gas", "PLINSTATUS": "Operating" }, "geometry": { "type": "Point", "coordinates": [ -114.329715109234314, 50.693590530265972 ] } },
{ "type": "Feature", "properties": { "LICINSTNO": "80108-1", "INSTA_LIC": "80108", "INSTA_NUM": "1", "INSTA_TYPE": "Compressor Station", "BA_NAME": "NOVA Gas Transmission Ltd.", "POWER": 23540.0, "PRIME_SORC": "Turbine", "INST_LOCAT": "11-23-049-16W5", "FLD_CENTRE": "Red Deer", "SUBSTANCE1": "Natural Gas", "PLINSTATUS": "Operating" }, "geometry": { "type": "Point", "coordinates": [ -116.237988116829101, 53.244698158391586 ] } },
{ "type": "Feature", "properties": { "LICINSTNO": "80108-21", "INSTA_LIC": "80108", "INSTA_NUM": "21", "INSTA_TYPE": "Compressor Station", "BA_NAME": "NOVA Gas Transmission Ltd.", "POWER": 3000.0, "PRIME_SORC": "Turbine", "INST_LOCAT": "12-35-047-10W5", "FLD_CENTRE": "Red Deer", "SUBSTANCE1": "Natural Gas", "PLINSTATUS": "Operating" }, "geometry": { "type": "Point", "coordinates": [ -115.36403927007531, 53.099746350480309 ] } },
{ "type": "Feature", "properties": { "LICINSTNO": "80136-7", "INSTA_LIC": "80136", "INSTA_NUM": "7", "INSTA_TYPE": "Compressor Station", "BA_NAME": "NOVA Gas Transmission Ltd.", "POWER": 13530.0, "PRIME_SORC": "Turbine", "INST_LOCAT": "01-06-025-19W4", "FLD_CENTRE": "Calgary", "SUBSTANCE1": "Natural Gas", "PLINSTATUS": "Operating" }, "geometry": { "type": "Point", "coordinates": [ -112.637544303765779, 51.09670059789606 ] } },
{ "type": "Feature", "properties": { "LICINSTNO": "80143-1", "INSTA_LIC": "80143", "INSTA_NUM": "1", "INSTA_TYPE": "Compressor Station", "BA_NAME": "NOVA Gas Transmission Ltd.", "POWER": 20680.0, "PRIME_SORC": "Turbine", "INST_LOCAT": "09-24-027-25W4", "FLD_CENTRE": "Red Deer", "SUBSTANCE1": "Natural Gas", "PLINSTATUS": "Operating" }, "geometry": { "type": "Point", "coordinates": [ -113.381928351065127, 51.322033946229688 ] } },
{ "type": "Feature", "properties": { "LICINSTNO": "80146-3", "INSTA_LIC": "80146", "INSTA_NUM": "3", "INSTA_TYPE": "Compressor Station", "BA_NAME": "NOVA Gas Transmission Ltd.", "POWER": 27500.0, "PRIME_SORC": "Turbine", "INST_LOCAT": "06-20-043-12W5", "FLD_CENTRE": "Drayton Valley", "SUBSTANCE1": "Natural Gas", "PLINSTATUS": "Operating" }, "geometry": { "type": "Point", "coordinates": [ -115.706719756916939, 52.718547639694044 ] } },
{ "type": "Feature", "properties": { "LICINSTNO": "80146-10", "INSTA_LIC": "80146", "INSTA_NUM": "10", "INSTA_TYPE": "Compressor Station", "BA_NAME": "NOVA Gas Transmission Ltd.", "POWER": 40890.0, "PRIME_SORC": "Turbine", "INST_LOCAT": "01-03-036-07W5", "FLD_CENTRE": "Drayton Valley", "SUBSTANCE1": "Natural Gas", "PLINSTATUS": "Operating" }, "geometry": { "type": "Point", "coordinates": [ -114.90710853281152, 52.05796986430444 ] } },
{ "type": "Feature", "properties": { "LICINSTNO": "80146-17", "INSTA_LIC": "80146", "INSTA_NUM": "17", "INSTA_TYPE": "Compressor Station", "BA_NAME": "NOVA Gas Transmission Ltd.", "POWER": 46260.0, "PRIME_SORC": "Turbine", "INST_LOCAT": "06-14-039-10W5", "FLD_CENTRE": "Drayton Valley", "SUBSTANCE1": "Natural Gas", "PLINSTATUS": "Operating" }, "geometry": { "type": "Point", "coordinates": [ -115.333935875996531, 52.355258595512822 ] } },
{ "type": "Feature", "properties": { "LICINSTNO": "80146-19", "INSTA_LIC": "80146", "INSTA_NUM": "19", "INSTA_TYPE": "Compressor Station", "BA_NAME": "NOVA Gas Transmission Ltd.", "POWER": 1220.0, "PRIME_SORC": "Turbine", "INST_LOCAT": "09-29-030-02W5", "FLD_CENTRE": "Drayton Valley", "SUBSTANCE1": "Natural Gas", "PLINSTATUS": "Operating" }, "geometry": { "type": "Point", "coordinates": [ -114.240833279740755, 51.599426716294253 ] } },
{ "type": "Feature", "properties": { "LICINSTNO": "80162-3", "INSTA_LIC": "80162", "INSTA_NUM": "3", "INSTA_TYPE": "Compressor Station", "BA_NAME": "NOVA Gas Transmission Ltd.", "POWER": 2950.0, "PRIME_SORC": "Turbine", "INST_LOCAT": "09-09-069-22W5", "FLD_CENTRE": "Grande Prairie", "SUBSTANCE1": "Natural Gas", "PLINSTATUS": "Operating" }, "geometry": { "type": "Point", "coordinates": [ -117.283625002791496, 54.960037836813115 ] } },
{ "type": "Feature", "properties": { "LICINSTNO": "80169-1", "INSTA_LIC": "80169", "INSTA_NUM": "1", "INSTA_TYPE": "Compressor Station", "BA_NAME": "NOVA Gas Transmission Ltd.", "POWER": 2850.0, "PRIME_SORC": "Turbine", "INST_LOCAT": "07-18-069-02W5", "FLD_CENTRE": "Drayton Valley", "SUBSTANCE1": "Natural Gas", "PLINSTATUS": "Operating" }, "geometry": { "type": "Point", "coordinates": [ -114.29228841899068, 54.972507484173931 ] } },
{ "type": "Feature", "properties": { "LICINSTNO": "80169-2", "INSTA_LIC": "80169", "INSTA_NUM": "2", "INSTA_TYPE": "Compressor Station", "BA_NAME": "NOVA Gas Transmission Ltd.", "POWER": 950.0, "PRIME_SORC": "Turbine", "INST_LOCAT": "07-18-069-02W5", "FLD_CENTRE": "Drayton Valley", "SUBSTANCE1": "Natural Gas", "PLINSTATUS": "Operating" }, "geometry": { "type": "Point", "coordinates": [ -114.291476303346286, 54.972030765895845 ] } },
{ "type": "Feature", "properties": { "LICINSTNO": "80169-6", "INSTA_LIC": "80169", "INSTA_NUM": "6", "INSTA_TYPE": "Compressor Station", "BA_NAME": "NOVA Gas Transmission Ltd.", "POWER": 2775.0, "PRIME_SORC": "Turbine", "INST_LOCAT": "01-03-059-11W5", "FLD_CENTRE": "Drayton Valley", "SUBSTANCE1": "Natural Gas", "PLINSTATUS": "Operating" }, "geometry": { "type": "Point", "coordinates": [ -115.557534347590533, 54.06862332287848 ] } },
{ "type": "Feature", "properties": { "LICINSTNO": "80169-7", "INSTA_LIC": "80169", "INSTA_NUM": "7", "INSTA_TYPE": "Compressor Station", "BA_NAME": "NOVA Gas Transmission Ltd.", "POWER": 1850.0, "PRIME_SORC": "Turbine", "INST_LOCAT": "01-03-059-11W5", "FLD_CENTRE": "Drayton Valley", "SUBSTANCE1": "Natural Gas", "PLINSTATUS": "Operating" }, "geometry": { "type": "Point", "coordinates": [ -115.557605461821694, 54.068427844681786 ] } },
{ "type": "Feature", "properties": { "LICINSTNO": "80173-1", "INSTA_LIC": "80173", "INSTA_NUM": "1", "INSTA_TYPE": "Compressor Station", "BA_NAME": "NOVA Gas Transmission Ltd.", "POWER": 1080.0, "PRIME_SORC": "Turbine", "INST_LOCAT": "01-36-062-18W4", "FLD_CENTRE": "Edmonton", "SUBSTANCE1": "Natural Gas", "PLINSTATUS": "Operating" }, "geometry": { "type": "Point", "coordinates": [ -112.553451865565691, 54.402263504548507 ] } },
{ "type": "Feature", "properties": { "LICINSTNO": "80173-5", "INSTA_LIC": "80173", "INSTA_NUM": "5", "INSTA_TYPE": "Compressor Station", "BA_NAME": "NOVA Gas Transmission Ltd.", "POWER": 14760.0, "PRIME_SORC": "Turbine", "INST_LOCAT": "02-15-059-16W4", "FLD_CENTRE": "Edmonton", "SUBSTANCE1": "Natural Gas", "PLINSTATUS": "Operating" }, "geometry": { "type": "Point", "coordinates": [ -112.307204133882237, 54.094026205574259 ] } },
{ "type": "Feature", "properties": { "LICINSTNO": "80173-28", "INSTA_LIC": "80173", "INSTA_NUM": "28", "INSTA_TYPE": "Compressor Station", "BA_NAME": "NOVA Gas Transmission Ltd.", "POWER": 3880.0, "PRIME_SORC": "Reciprocating", "INST_LOCAT": "14-36-043-06W4", "FLD_CENTRE": "Edmonton", "SUBSTANCE1": "Natural Gas", "PLINSTATUS": "Operating" }, "geometry": { "type": "Point", "coordinates": [ -110.745948029513769, 52.755527611022515 ] } },
{ "type": "Feature", "properties": { "LICINSTNO": "80181-1", "INSTA_LIC": "80181", "INSTA_NUM": "1", "INSTA_TYPE": "Compressor Station", "BA_NAME": "NOVA Gas Transmission Ltd.", "POWER": 9120.0, "PRIME_SORC": "Turbine", "INST_LOCAT": "10-26-067-05W6", "FLD_CENTRE": "Grande Prairie", "SUBSTANCE1": "Natural Gas", "PLINSTATUS": "Operating" }, "geometry": { "type": "Point", "coordinates": [ -118.645307195369043, 54.830320841983834 ] } },
{ "type": "Feature", "properties": { "LICINSTNO": "80186-3", "INSTA_LIC": "80186", "INSTA_NUM": "3", "INSTA_TYPE": "Compressor Station", "BA_NAME": "NOVA Gas Transmission Ltd.", "POWER": 29500.0, "PRIME_SORC": "Turbine", "INST_LOCAT": "09-13-020-12W4", "FLD_CENTRE": "Medicine Hat", "SUBSTANCE1": "Natural Gas", "PLINSTATUS": "Operating" }, "geometry": { "type": "Point", "coordinates": [ -111.530649342946901, 50.698841778195479 ] } },
{ "type": "Feature", "properties": { "LICINSTNO": "80186-7", "INSTA_LIC": "80186", "INSTA_NUM": "7", "INSTA_TYPE": "Compressor Station", "BA_NAME": "NOVA Gas Transmission Ltd.", "POWER": 17005.0, "PRIME_SORC": "Reciprocating", "INST_LOCAT": "09-13-020-12W4", "FLD_CENTRE": "Medicine Hat", "SUBSTANCE1": "Natural Gas", "PLINSTATUS": "Operating" }, "geometry": { "type": "Point", "coordinates": [ -111.531041279701995, 50.698792166813135 ] } },
{ "type": "Feature", "properties": { "LICINSTNO": "80218-1", "INSTA_LIC": "80218", "INSTA_NUM": "1", "INSTA_TYPE": "Compressor Station", "BA_NAME": "NOVA Gas Transmission Ltd.", "POWER": 3293.0, "PRIME_SORC": "Turbine", "INST_LOCAT": "05-23-004-01W5", "FLD_CENTRE": "Calgary", "SUBSTANCE1": "Natural Gas", "PLINSTATUS": "Operating" }, "geometry": { "type": "Point", "coordinates": [ -114.042629136488102, 49.309386489851846 ] } },
{ "type": "Feature", "properties": { "LICINSTNO": "80224-45", "INSTA_LIC": "80224", "INSTA_NUM": "45", "INSTA_TYPE": "Compressor Station", "BA_NAME": "NOVA Gas Transmission Ltd.", "POWER": 13780.0, "PRIME_SORC": "Turbine", "INST_LOCAT": "15-24-046-16W4", "FLD_CENTRE": "Wainwright", "SUBSTANCE1": "Natural Gas", "PLINSTATUS": "Operating" }, "geometry": { "type": "Point", "coordinates": [ -112.190396643625789, 52.988296171254397 ] } },
{ "type": "Feature", "properties": { "LICINSTNO": "80224-54", "INSTA_LIC": "80224", "INSTA_NUM": "54", "INSTA_TYPE": "Compressor Station", "BA_NAME": "NOVA Gas Transmission Ltd.", "POWER": 14800.0, "PRIME_SORC": "Turbine", "INST_LOCAT": "15-24-046-16W4", "FLD_CENTRE": "Wainwright", "SUBSTANCE1": "Natural Gas", "PLINSTATUS": "Operating" }, "geometry": { "type": "Point", "coordinates": [ -112.193396643625775, 52.988296171254397 ] } },
{ "type": "Feature", "properties": { "LICINSTNO": "80283-1", "INSTA_LIC": "80283", "INSTA_NUM": "1", "INSTA_TYPE": "Compressor Station", "BA_NAME": "NOVA Gas Transmission Ltd.", "POWER": 1640.0, "PRIME_SORC": "Reciprocating", "INST_LOCAT": "05-23-081-26W5", "FLD_CENTRE": "Grande Prairie", "SUBSTANCE1": "Natural Gas", "PLINSTATUS": "Operating" }, "geometry": { "type": "Point", "coordinates": [ -117.963757095781503, 56.035136034780756 ] } },
{ "type": "Feature", "properties": { "LICINSTNO": "80283-7", "INSTA_LIC": "80283", "INSTA_NUM": "7", "INSTA_TYPE": "Compressor Station", "BA_NAME": "NOVA Gas Transmission Ltd.", "POWER": 1150.0, "PRIME_SORC": "Reciprocating", "INST_LOCAT": "05-23-081-26W5", "FLD_CENTRE": "Grande Prairie", "SUBSTANCE1": "Natural Gas", "PLINSTATUS": "Operating" }, "geometry": { "type": "Point", "coordinates": [ -117.966757095781489, 56.035136034780756 ] } },
{ "type": "Feature", "properties": { "LICINSTNO": "80304-1", "INSTA_LIC": "80304", "INSTA_NUM": "1", "INSTA_TYPE": "Compressor Station", "BA_NAME": "NOVA Gas Transmission Ltd.", "POWER": 2790.0, "PRIME_SORC": "Turbine", "INST_LOCAT": "06-18-072-16W4", "FLD_CENTRE": "Bonnyville", "SUBSTANCE1": "Natural Gas", "PLINSTATUS": "Operating" }, "geometry": { "type": "Point", "coordinates": [ -112.461512285829329, 55.233052877237157 ] } },
{ "type": "Feature", "properties": { "LICINSTNO": "80304-4", "INSTA_LIC": "80304", "INSTA_NUM": "4", "INSTA_TYPE": "Compressor Station", "BA_NAME": "NOVA Gas Transmission Ltd.", "POWER": 960.0, "PRIME_SORC": "Turbine", "INST_LOCAT": "03-04-081-13W4", "FLD_CENTRE": "Bonnyville", "SUBSTANCE1": "Natural Gas", "PLINSTATUS": "Operating" }, "geometry": { "type": "Point", "coordinates": [ -111.977779768583076, 55.985261066865199 ] } },
{ "type": "Feature", "properties": { "LICINSTNO": "80337-3", "INSTA_LIC": "80337", "INSTA_NUM": "3", "INSTA_TYPE": "Compressor Station", "BA_NAME": "NOVA Gas Transmission Ltd.", "POWER": 12870.0, "PRIME_SORC": "Turbine", "INST_LOCAT": "15-28-057-17W5", "FLD_CENTRE": "Drayton Valley", "SUBSTANCE1": "Natural Gas", "PLINSTATUS": "Operating" }, "geometry": { "type": "Point", "coordinates": [ -116.460448133700623, 53.961810638995715 ] } },
{ "type": "Feature", "properties": { "LICINSTNO": "80337-4", "INSTA_LIC": "80337", "INSTA_NUM": "4", "INSTA_TYPE": "Compressor Station", "BA_NAME": "NOVA Gas Transmission Ltd.", "POWER": 12980.0, "PRIME_SORC": "Turbine", "INST_LOCAT": "15-28-057-17W5", "FLD_CENTRE": "Drayton Valley", "SUBSTANCE1": "Natural Gas", "PLINSTATUS": "Operating" }, "geometry": { "type": "Point", "coordinates": [ -116.460431643326956, 53.961790876233586 ] } },
{ "type": "Feature", "properties": { "LICINSTNO": "80373-1", "INSTA_LIC": "80373", "INSTA_NUM": "1", "INSTA_TYPE": "Compressor Station", "BA_NAME": "NOVA Gas Transmission Ltd.", "POWER": 6250.0, "PRIME_SORC": "Turbine", "INST_LOCAT": "02-35-094-02W6", "FLD_CENTRE": "Grande Prairie", "SUBSTANCE1": "Natural Gas", "PLINSTATUS": "Operating" }, "geometry": { "type": "Point", "coordinates": [ -118.195889004147645, 57.192282676114559 ] } },
{ "type": "Feature", "properties": { "LICINSTNO": "80373-8", "INSTA_LIC": "80373", "INSTA_NUM": "8", "INSTA_TYPE": "Compressor Station", "BA_NAME": "NOVA Gas Transmission Ltd.", "POWER": 3210.0, "PRIME_SORC": "Turbine", "INST_LOCAT": "16-26-094-02W6", "FLD_CENTRE": "Grande Prairie", "SUBSTANCE1": "Natural Gas", "PLINSTATUS": "Operating" }, "geometry": { "type": "Point", "coordinates": [ -118.195636059224896, 57.19152615477487 ] } },
{ "type": "Feature", "properties": { "LICINSTNO": "80373-11", "INSTA_LIC": "80373", "INSTA_NUM": "11", "INSTA_TYPE": "Compressor Station", "BA_NAME": "NOVA Gas Transmission Ltd.", "POWER": 13000.0, "PRIME_SORC": "Turbine", "INST_LOCAT": "15-26-094-02W6", "FLD_CENTRE": "Grande Prairie", "SUBSTANCE1": "Natural Gas", "PLINSTATUS": "Operating" }, "geometry": { "type": "Point", "coordinates": [ -118.195586590798825, 57.191034241055746 ] } },
{ "type": "Feature", "properties": { "LICINSTNO": "80373-12", "INSTA_LIC": "80373", "INSTA_NUM": "12", "INSTA_TYPE": "Compressor Station", "BA_NAME": "NOVA Gas Transmission Ltd.", "POWER": 13000.0, "PRIME_SORC": "Turbine", "INST_LOCAT": "15-26-094-02W6", "FLD_CENTRE": "Grande Prairie", "SUBSTANCE1": "Natural Gas", "PLINSTATUS": "Operating" }, "geometry": { "type": "Point", "coordinates": [ -118.195631030455957, 57.190523139446917 ] } },
{ "type": "Feature", "properties": { "LICINSTNO": "80413-2", "INSTA_LIC": "80413", "INSTA_NUM": "2", "INSTA_TYPE": "Compressor Station", "BA_NAME": "NOVA Gas Transmission Ltd.", "POWER": 27300.0, "PRIME_SORC": "Turbine", "INST_LOCAT": "07-17-052-17W5", "FLD_CENTRE": "Drayton Valley", "SUBSTANCE1": "Natural Gas", "PLINSTATUS": "Operating" }, "geometry": { "type": "Point", "coordinates": [ -116.465563452643792, 53.489094014651144 ] } },
{ "type": "Feature", "properties": { "LICINSTNO": "80419-7", "INSTA_LIC": "80419", "INSTA_NUM": "7", "INSTA_TYPE": "Compressor Station", "BA_NAME": "NOVA Gas Transmission Ltd.", "POWER": 3255.0, "PRIME_SORC": "Turbine", "INST_LOCAT": "11-33-071-10W4", "FLD_CENTRE": "Bonnyville", "SUBSTANCE1": "Natural Gas", "PLINSTATUS": "Operating" }, "geometry": { "type": "Point", "coordinates": [ -111.483884102979459, 55.194540319723814 ] } },
{ "type": "Feature", "properties": { "LICINSTNO": "80442-7", "INSTA_LIC": "80442", "INSTA_NUM": "7", "INSTA_TYPE": "Compressor Station", "BA_NAME": "NOVA Gas Transmission Ltd.", "POWER": 3150.0, "PRIME_SORC": "Turbine", "INST_LOCAT": "12-29-081-16W4", "FLD_CENTRE": "Fort McMurray", "SUBSTANCE1": "Natural Gas", "PLINSTATUS": "Operating" }, "geometry": { "type": "Point", "coordinates": [ -112.484579160117946, 56.050678742585546 ] } },
{ "type": "Feature", "properties": { "LICINSTNO": "80442-12", "INSTA_LIC": "80442", "INSTA_NUM": "12", "INSTA_TYPE": "Compressor Station", "BA_NAME": "NOVA Gas Transmission Ltd.", "POWER": 10500.0, "PRIME_SORC": "Natural Gas", "INST_LOCAT": "07-29-086-01W5", "FLD_CENTRE": "Fort McMurray", "SUBSTANCE1": "Natural Gas", "PLINSTATUS": "Operating" }, "geometry": { "type": "Point", "coordinates": [ -114.114986702468698, 56.485767792736965 ] } },
{ "type": "Feature", "properties": { "LICINSTNO": "80442-13", "INSTA_LIC": "80442", "INSTA_NUM": "13", "INSTA_TYPE": "Compressor Station", "BA_NAME": "NOVA Gas Transmission Ltd.", "POWER": 13000.0, "PRIME_SORC": "Natural Gas", "INST_LOCAT": "10-29-086-01W5", "FLD_CENTRE": "Fort McMurray", "SUBSTANCE1": "Natural Gas", "PLINSTATUS": "Operating" }, "geometry": { "type": "Point", "coordinates": [ -114.115416893980168, 56.486744732991909 ] } },
{ "type": "Feature", "properties": { "LICINSTNO": "80559-1", "INSTA_LIC": "80559", "INSTA_NUM": "1", "INSTA_TYPE": "Compressor Station", "BA_NAME": "NOVA Gas Transmission Ltd.", "POWER": 49570.0, "PRIME_SORC": "Turbine", "INST_LOCAT": "01-26-034-06W5", "FLD_CENTRE": "Red Deer", "SUBSTANCE1": "Natural Gas", "PLINSTATUS": "Operating" }, "geometry": { "type": "Point", "coordinates": [ -114.737766904803138, 51.941508528972264 ] } },
{ "type": "Feature", "properties": { "LICINSTNO": "80602-1", "INSTA_LIC": "80602", "INSTA_NUM": "1", "INSTA_TYPE": "Compressor Station", "BA_NAME": "NOVA Gas Transmission Ltd.", "POWER": 28000.0, "PRIME_SORC": "Turbine", "INST_LOCAT": "01-12-071-10W6", "FLD_CENTRE": "Grande Prairie", "SUBSTANCE1": "Natural Gas", "PLINSTATUS": "Operating" }, "geometry": { "type": "Point", "coordinates": [ -119.389567223955211, 55.127868400867165 ] } },
{ "type": "Feature", "properties": { "LICINSTNO": "80693-3", "INSTA_LIC": "80693", "INSTA_NUM": "3", "INSTA_TYPE": "Compressor Station", "BA_NAME": "NOVA Gas Transmission Ltd.", "POWER": 8875.0, "PRIME_SORC": "Turbine", "INST_LOCAT": "11-29-096-11W6", "FLD_CENTRE": "Grande Prairie", "SUBSTANCE1": "Natural Gas", "PLINSTATUS": "Operating" }, "geometry": { "type": "Point", "coordinates": [ -119.751635590534889, 57.361680831807867 ] } },
{ "type": "Feature", "properties": { "LICINSTNO": "80693-6", "INSTA_LIC": "80693", "INSTA_NUM": "6", "INSTA_TYPE": "Compressor Station", "BA_NAME": "NOVA Gas Transmission Ltd.", "POWER": 3075.0, "PRIME_SORC": "Turbine", "INST_LOCAT": "08-26-116-12W6", "FLD_CENTRE": "Grande Prairie", "SUBSTANCE1": "Natural Gas", "PLINSTATUS": "Operating" }, "geometry": { "type": "Point", "coordinates": [ -119.909876187706786, 59.101757334898096 ] } },
{ "type": "Feature", "properties": { "LICINSTNO": "80701-1", "INSTA_LIC": "80701", "INSTA_NUM": "1", "INSTA_TYPE": "Compressor Station", "BA_NAME": "NOVA Gas Transmission Ltd.", "POWER": 14300.0, "PRIME_SORC": "Turbine", "INST_LOCAT": "12-13-085-13W6", "FLD_CENTRE": "Grande Prairie", "SUBSTANCE1": "Natural Gas", "PLINSTATUS": "Operating" }, "geometry": { "type": "Point", "coordinates": [ -119.922922838294667, 56.370390259980688 ] } },
{ "type": "Feature", "properties": { "LICINSTNO": "80723-1", "INSTA_LIC": "80723", "INSTA_NUM": "1", "INSTA_TYPE": "Compressor Station", "BA_NAME": "NOVA Gas Transmission Ltd.", "POWER": 1790.0, "PRIME_SORC": "Natural Gas", "INST_LOCAT": "14-36-043-06W4", "FLD_CENTRE": "Wainwright", "SUBSTANCE1": "Natural Gas", "PLINSTATUS": "Operating" }, "geometry": { "type": "Point", "coordinates": [ -110.748948029513755, 52.755527611022515 ] } },
{ "type": "Feature", "properties": { "LICINSTNO": "80724-1", "INSTA_LIC": "80724", "INSTA_NUM": "1", "INSTA_TYPE": "Compressor Station", "BA_NAME": "NOVA Gas Transmission Ltd.", "POWER": 24670.0, "PRIME_SORC": "Turbine", "INST_LOCAT": "10-26-067-05W6", "FLD_CENTRE": "Grande Prairie", "SUBSTANCE1": "Natural Gas", "PLINSTATUS": "Operating" }, "geometry": { "type": "Point", "coordinates": [ -118.645952978955435, 54.830508972158697 ] } },
{ "type": "Feature", "properties": { "LICINSTNO": "80728-1", "INSTA_LIC": "80728", "INSTA_NUM": "1", "INSTA_TYPE": "Compressor Station", "BA_NAME": "NOVA Gas Transmission Ltd.", "POWER": 13550.0, "PRIME_SORC": "Turbine", "INST_LOCAT": "14-21-034-15W4", "FLD_CENTRE": "Wainwright", "SUBSTANCE1": "Natural Gas", "PLINSTATUS": "Operating" }, "geometry": { "type": "Point", "coordinates": [ -112.073646303041272, 51.939369245568791 ] } },
{ "type": "Feature", "properties": { "LICINSTNO": "80728-2", "INSTA_LIC": "80728", "INSTA_NUM": "2", "INSTA_TYPE": "Compressor Station", "BA_NAME": "NOVA Gas Transmission Ltd.", "POWER": 14570.0, "PRIME_SORC": "Turbine", "INST_LOCAT": "14-21-034-15W4", "FLD_CENTRE": "Wainwright", "SUBSTANCE1": "Natural Gas", "PLINSTATUS": "Operating" }, "geometry": { "type": "Point", "coordinates": [ -112.073311904278427, 51.938605049241573 ] } },
{ "type": "Feature", "properties": { "LICINSTNO": "80729-1", "INSTA_LIC": "80729", "INSTA_NUM": "1", "INSTA_TYPE": "Compressor Station", "BA_NAME": "NOVA Gas Transmission Ltd.", "POWER": 23760.0, "PRIME_SORC": "Turbine", "INST_LOCAT": "05-30-058-23W5", "FLD_CENTRE": "Drayton Valley", "SUBSTANCE1": "Natural Gas", "PLINSTATUS": "Operating" }, "geometry": { "type": "Point", "coordinates": [ -117.418776905596573, 54.042018153519074 ] } },
{ "type": "Feature", "properties": { "LICINSTNO": "80730-1", "INSTA_LIC": "80730", "INSTA_NUM": "1", "INSTA_TYPE": "Compressor Station", "BA_NAME": "NOVA Gas Transmission Ltd.", "POWER": 3100.0, "PRIME_SORC": "Turbine", "INST_LOCAT": "10-06-067-12W4", "FLD_CENTRE": "Bonnyville", "SUBSTANCE1": "Natural Gas", "PLINSTATUS": "Operating" }, "geometry": { "type": "Point", "coordinates": [ -111.82216186935851, 54.772679206716056 ] } },
{ "type": "Feature", "properties": { "LICINSTNO": "80730-2", "INSTA_LIC": "80730", "INSTA_NUM": "2", "INSTA_TYPE": "Compressor Station", "BA_NAME": "NOVA Gas Transmission Ltd.", "POWER": 3100.0, "PRIME_SORC": "Turbine", "INST_LOCAT": "10-06-067-12W4", "FLD_CENTRE": "Bonnyville", "SUBSTANCE1": "Natural Gas", "PLINSTATUS": "Operating" }, "geometry": { "type": "Point", "coordinates": [ -111.822049335606209, 54.771959804989812 ] } },
{ "type": "Feature", "properties": { "LICINSTNO": "80731-1", "INSTA_LIC": "80731", "INSTA_NUM": "1", "INSTA_TYPE": "Compressor Station", "BA_NAME": "NOVA Gas Transmission Ltd.", "POWER": 48710.0, "PRIME_SORC": "Turbine", "INST_LOCAT": "02-24-020-07W4", "FLD_CENTRE": "Medicine Hat", "SUBSTANCE1": "Natural Gas", "PLINSTATUS": "Operating" }, "geometry": { "type": "Point", "coordinates": [ -110.846058446447714, 50.705996859044369 ] } },
{ "type": "Feature", "properties": { "LICINSTNO": "80732-1", "INSTA_LIC": "80732", "INSTA_NUM": "1", "INSTA_TYPE": "Compressor Station", "BA_NAME": "NOVA Gas Transmission Ltd.", "POWER": 3075.0, "PRIME_SORC": "Turbine", "INST_LOCAT": "07-05-079-09W6", "FLD_CENTRE": "Grande Prairie", "SUBSTANCE1": "Natural Gas", "PLINSTATUS": "Operating" }, "geometry": { "type": "Point", "coordinates": [ -119.364425638415668, 55.816061468307652 ] } },
{ "type": "Feature", "properties": { "LICINSTNO": "80732-2", "INSTA_LIC": "80732", "INSTA_NUM": "2", "INSTA_TYPE": "Compressor Station", "BA_NAME": "NOVA Gas Transmission Ltd.", "POWER": 6200.0, "PRIME_SORC": "Turbine", "INST_LOCAT": "07-05-079-09W6", "FLD_CENTRE": "Grande Prairie", "SUBSTANCE1": "Natural Gas", "PLINSTATUS": "Operating" }, "geometry": { "type": "Point", "coordinates": [ -119.367812779313581, 55.815160775823337 ] } },
{ "type": "Feature", "properties": { "LICINSTNO": "80732-3", "INSTA_LIC": "80732", "INSTA_NUM": "3", "INSTA_TYPE": "Compressor Station", "BA_NAME": "NOVA Gas Transmission Ltd.", "POWER": 6800.0, "PRIME_SORC": "Turbine", "INST_LOCAT": "07-05-079-09W6", "FLD_CENTRE": "Grande Prairie", "SUBSTANCE1": "Natural Gas", "PLINSTATUS": "Operating" }, "geometry": { "type": "Point", "coordinates": [ -119.367296334263472, 55.814492365294598 ] } },
{ "type": "Feature", "properties": { "LICINSTNO": "80734-1", "INSTA_LIC": "80734", "INSTA_NUM": "1", "INSTA_TYPE": "Compressor Station", "BA_NAME": "NOVA Gas Transmission Ltd.", "POWER": 23160.0, "PRIME_SORC": "Turbine", "INST_LOCAT": "15-32-028-05W5", "FLD_CENTRE": "Calgary", "SUBSTANCE1": "Natural Gas", "PLINSTATUS": "Operating" }, "geometry": { "type": "Point", "coordinates": [ -114.666063596217001, 51.443686116725942 ] } },
{ "type": "Feature", "properties": { "LICINSTNO": "80736-1", "INSTA_LIC": "80736", "INSTA_NUM": "1", "INSTA_TYPE": "Compressor Station", "BA_NAME": "NOVA Gas Transmission Ltd.", "POWER": 14860.0, "PRIME_SORC": "Turbine", "INST_LOCAT": "14-06-071-25W5", "FLD_CENTRE": "Grande Prairie", "SUBSTANCE1": "Natural Gas", "PLINSTATUS": "Operating" }, "geometry": { "type": "Point", "coordinates": [ -117.837352366802463, 55.12696321078441 ] } },
{ "type": "Feature", "properties": { "LICINSTNO": "80737-1", "INSTA_LIC": "80737", "INSTA_NUM": "1", "INSTA_TYPE": "Compressor Station", "BA_NAME": "NOVA Gas Transmission Ltd.", "POWER": 3250.0, "PRIME_SORC": "Turbine", "INST_LOCAT": "01-36-062-18W4", "FLD_CENTRE": "Edmonton", "SUBSTANCE1": "Natural Gas", "PLINSTATUS": "Operating" }, "geometry": { "type": "Point", "coordinates": [ -112.554022859913118, 54.401582305687015 ] } },
{ "type": "Feature", "properties": { "LICINSTNO": "80738-1", "INSTA_LIC": "80738", "INSTA_NUM": "1", "INSTA_TYPE": "Compressor Station", "BA_NAME": "NOVA Gas Transmission Ltd.", "POWER": 13700.0, "PRIME_SORC": "Turbine", "INST_LOCAT": "01-03-028-13W4", "FLD_CENTRE": "Medicine Hat", "SUBSTANCE1": "Natural Gas", "PLINSTATUS": "Operating" }, "geometry": { "type": "Point", "coordinates": [ -111.740180737977411, 51.361505176945037 ] } },
{ "type": "Feature", "properties": { "LICINSTNO": "80739-1", "INSTA_LIC": "80739", "INSTA_NUM": "1", "INSTA_TYPE": "Compressor Station", "BA_NAME": "NOVA Gas Transmission Ltd.", "POWER": 13800.0, "PRIME_SORC": "Turbine", "INST_LOCAT": "04-15-040-16W4", "FLD_CENTRE": "Wainwright", "SUBSTANCE1": "Natural Gas", "PLINSTATUS": "Operating" }, "geometry": { "type": "Point", "coordinates": [ -112.233664532311465, 52.435381702999983 ] } },
{ "type": "Feature", "properties": { "LICINSTNO": "80739-2", "INSTA_LIC": "80739", "INSTA_NUM": "2", "INSTA_TYPE": "Compressor Station", "BA_NAME": "NOVA Gas Transmission Ltd.", "POWER": 14730.0, "PRIME_SORC": "Turbine", "INST_LOCAT": "04-15-040-16W4", "FLD_CENTRE": "Wainwright", "SUBSTANCE1": "Natural Gas", "PLINSTATUS": "Operating" }, "geometry": { "type": "Point", "coordinates": [ -112.233678309772984, 52.435735449232574 ] } },
{ "type": "Feature", "properties": { "LICINSTNO": "80739-3", "INSTA_LIC": "80739", "INSTA_NUM": "3", "INSTA_TYPE": "Compressor Station", "BA_NAME": "NOVA Gas Transmission Ltd.", "POWER": 4400.0, "PRIME_SORC": "Natural Gas", "INST_LOCAT": "04-15-040-16W4", "FLD_CENTRE": "Wainwright", "SUBSTANCE1": "Natural Gas", "PLINSTATUS": "Operating" }, "geometry": { "type": "Point", "coordinates": [ -112.234727539329882, 52.436217391743213 ] } },
{ "type": "Feature", "properties": { "LICINSTNO": "80740-1", "INSTA_LIC": "80740", "INSTA_NUM": "1", "INSTA_TYPE": "Compressor Station", "BA_NAME": "NOVA Gas Transmission Ltd.", "POWER": 3250.0, "PRIME_SORC": "Turbine", "INST_LOCAT": "01-36-062-18W4", "FLD_CENTRE": "Edmonton", "SUBSTANCE1": "Natural Gas", "PLINSTATUS": "Operating" }, "geometry": { "type": "Point", "coordinates": [ -112.553130072861236, 54.402013796025884 ] } },
{ "type": "Feature", "properties": { "LICINSTNO": "80741-1", "INSTA_LIC": "80741", "INSTA_NUM": "1", "INSTA_TYPE": "Compressor Station", "BA_NAME": "NOVA Gas Transmission Ltd.", "POWER": 27300.0, "PRIME_SORC": "Turbine", "INST_LOCAT": "12-28-063-01W6", "FLD_CENTRE": "Grande Prairie", "SUBSTANCE1": "Natural Gas", "PLINSTATUS": "Operating" }, "geometry": { "type": "Point", "coordinates": [ -118.099740015109646, 54.481464233043681 ] } },
{ "type": "Feature", "properties": { "LICINSTNO": "80742-1", "INSTA_LIC": "80742", "INSTA_NUM": "1", "INSTA_TYPE": "Compressor Station", "BA_NAME": "NOVA Gas Transmission Ltd.", "POWER": 3300.0, "PRIME_SORC": "Turbine", "INST_LOCAT": "01-28-102-03W6", "FLD_CENTRE": "Grande Prairie", "SUBSTANCE1": "Natural Gas", "PLINSTATUS": "Operating" }, "geometry": { "type": "Point", "coordinates": [ -118.413506243746681, 57.875824554357187 ] } },
{ "type": "Feature", "properties": { "LICINSTNO": "80110-3", "INSTA_LIC": "80110", "INSTA_NUM": "3", "INSTA_TYPE": "Compressor Station", "BA_NAME": "NOVA Gas Transmission Ltd.", "POWER": 810.0, "PRIME_SORC": "Turbine", "INST_LOCAT": "09-29-030-02W5", "FLD_CENTRE": "Calgary", "SUBSTANCE1": "Natural Gas", "PLINSTATUS": "Operating" }, "geometry": { "type": "Point", "coordinates": [ -114.236979820683899, 51.599362763488003 ] } },
{ "type": "Feature", "properties": { "LICINSTNO": "80173-4", "INSTA_LIC": "80173", "INSTA_NUM": "4", "INSTA_TYPE": "Compressor Station", "BA_NAME": "NOVA Gas Transmission Ltd.", "POWER": 950.0, "PRIME_SORC": "Turbine", "INST_LOCAT": "01-15-059-16W4", "FLD_CENTRE": "Edmonton", "SUBSTANCE1": "Natural Gas", "PLINSTATUS": "Operating" }, "geometry": { "type": "Point", "coordinates": [ -112.305809387114252, 54.094574596365156 ] } },
{ "type": "Feature", "properties": { "LICINSTNO": "80173-3", "INSTA_LIC": "80173", "INSTA_NUM": "3", "INSTA_TYPE": "Compressor Station", "BA_NAME": "NOVA Gas Transmission Ltd.", "POWER": 1900.0, "PRIME_SORC": "Turbine", "INST_LOCAT": "01-15-059-16W4", "FLD_CENTRE": "Edmonton", "SUBSTANCE1": "Natural Gas", "PLINSTATUS": "Operating" }, "geometry": { "type": "Point", "coordinates": [ -112.305951063112644, 54.094970820276266 ] } },
{ "type": "Feature", "properties": { "LICINSTNO": "80224-1", "INSTA_LIC": "80224", "INSTA_NUM": "1", "INSTA_TYPE": "Compressor Station", "BA_NAME": "NOVA Gas Transmission Ltd.", "POWER": 3120.0, "PRIME_SORC": "Turbine", "INST_LOCAT": "09-05-054-14W4", "FLD_CENTRE": "Wainwright", "SUBSTANCE1": "Natural Gas", "PLINSTATUS": "Operating" }, "geometry": { "type": "Point", "coordinates": [ -112.01903720128665, 53.63678280597447 ] } },
{ "type": "Feature", "properties": { "LICINSTNO": "80224-46", "INSTA_LIC": "80224", "INSTA_NUM": "46", "INSTA_TYPE": "Compressor Station", "BA_NAME": "NOVA Gas Transmission Ltd.", "POWER": 950.0, "PRIME_SORC": "Turbine", "INST_LOCAT": "09-05-054-14W4", "FLD_CENTRE": "Wainwright", "SUBSTANCE1": "Natural Gas", "PLINSTATUS": "Operating" }, "geometry": { "type": "Point", "coordinates": [ -112.019707278013286, 53.636722951419912 ] } },
{ "type": "Feature", "properties": { "LICINSTNO": "80224-47", "INSTA_LIC": "80224", "INSTA_NUM": "47", "INSTA_TYPE": "Compressor Station", "BA_NAME": "NOVA Gas Transmission Ltd.", "POWER": 3080.0, "PRIME_SORC": "Turbine", "INST_LOCAT": "09-05-054-14W4", "FLD_CENTRE": "Wainwright", "SUBSTANCE1": "Natural Gas", "PLINSTATUS": "Operating" }, "geometry": { "type": "Point", "coordinates": [ -112.01933696370709, 53.636889228834129 ] } },
{ "type": "Feature", "properties": { "LICINSTNO": "80224-55", "INSTA_LIC": "80224", "INSTA_NUM": "55", "INSTA_TYPE": "Compressor Station", "BA_NAME": "NOVA Gas Transmission Ltd.", "POWER": 950.0, "PRIME_SORC": "Turbine", "INST_LOCAT": "09-05-054-14W4", "FLD_CENTRE": "Wainwright", "SUBSTANCE1": "Natural Gas", "PLINSTATUS": "Operating" }, "geometry": { "type": "Point", "coordinates": [ -112.019074494845697, 53.636494524495227 ] } },
{ "type": "Feature", "properties": { "LICINSTNO": "80224-48", "INSTA_LIC": "80224", "INSTA_NUM": "48", "INSTA_TYPE": "Compressor Station", "BA_NAME": "NOVA Gas Transmission Ltd.", "POWER": 4510.0, "PRIME_SORC": "Turbine", "INST_LOCAT": "09-05-054-14W4", "FLD_CENTRE": "Wainwright", "SUBSTANCE1": "Natural Gas", "PLINSTATUS": "Operating" }, "geometry": { "type": "Point", "coordinates": [ -112.020106999568625, 53.636649866634798 ] } },
{ "type": "Feature", "properties": { "LICINSTNO": "80224-2", "INSTA_LIC": "80224", "INSTA_NUM": "2", "INSTA_TYPE": "Compressor Station", "BA_NAME": "NOVA Gas Transmission Ltd.", "POWER": 1911.0, "PRIME_SORC": "Turbine", "INST_LOCAT": "09-05-054-14W4", "FLD_CENTRE": "Wainwright", "SUBSTANCE1": "Natural Gas", "PLINSTATUS": "Operating" }, "geometry": { "type": "Point", "coordinates": [ -112.018776819211681, 53.636847877912984 ] } },
{ "type": "Feature", "properties": { "LICINSTNO": "80733-3", "INSTA_LIC": "80733", "INSTA_NUM": "3", "INSTA_TYPE": "Compressor Station", "BA_NAME": "NOVA Gas Transmission Ltd.", "POWER": 14500.0, "PRIME_SORC": "Natural Gas", "INST_LOCAT": "06-34-074-26W4", "FLD_CENTRE": "Slave Lake", "SUBSTANCE1": "Natural Gas", "PLINSTATUS": "Operating" }, "geometry": { "type": "Point", "coordinates": [ -113.922815997702116, 55.451875942291721 ] } },
{ "type": "Feature", "properties": { "LICINSTNO": "80733-2", "INSTA_LIC": "80733", "INSTA_NUM": "2", "INSTA_TYPE": "Compressor Station", "BA_NAME": "NOVA Gas Transmission Ltd.", "POWER": 3175.0, "PRIME_SORC": "Turbine", "INST_LOCAT": "06-34-074-26W4", "FLD_CENTRE": "Slave Lake", "SUBSTANCE1": "Natural Gas", "PLINSTATUS": "Operating" }, "geometry": { "type": "Point", "coordinates": [ -113.923157495850631, 55.45191267239511 ] } },
{ "type": "Feature", "properties": { "LICINSTNO": "80733-1", "INSTA_LIC": "80733", "INSTA_NUM": "1", "INSTA_TYPE": "Compressor Station", "BA_NAME": "NOVA Gas Transmission Ltd.", "POWER": 3050.0, "PRIME_SORC": "Turbine", "INST_LOCAT": "06-34-074-26W4", "FLD_CENTRE": "Slave Lake", "SUBSTANCE1": "Natural Gas", "PLINSTATUS": "Operating" }, "geometry": { "type": "Point", "coordinates": [ -113.923382931664463, 55.451178045999221 ] } },
{ "type": "Feature", "properties": { "LICINSTNO": "80735-1", "INSTA_LIC": "80735", "INSTA_NUM": "1", "INSTA_TYPE": "Compressor Station", "BA_NAME": "NOVA Gas Transmission Ltd.", "POWER": 14260.0, "PRIME_SORC": "Turbine", "INST_LOCAT": "08-19-061-20W5", "FLD_CENTRE": "Edmonton", "SUBSTANCE1": "Natural Gas", "PLINSTATUS": "Operating" }, "geometry": { "type": "Point", "coordinates": [ -116.977665282195503, 54.290078838423128 ] } }
]
}
