{"type": "FeatureCollection", "features": [{"type": "Feature", "geometry": {"type": "Point", "coordinates": [-119.45974937820237, 57.36110200971513]}, "properties": {"name": "MEIKLE RIVER", "match_key": "MEIKLERIVER", "multi_direction": false, "position_from": "marker", "snap_km": 5.37, "snapped": true}}, {"type": "Feature", "geometry": {"type": "Point", "coordinates": [-117.46160044401783, 57.10522816680476]}, "properties": {"name": "OTTER LAKE", "match_key": "OTTERLAKE", "multi_direction": false, "position_from": "label", "snap_km": 2.67, "snapped": true}}, {"type": "Feature", "geometry": {"type": "Point", "coordinates": [-115.97003599061057, 56.90050731081403]}, "properties": {"name": "GOODFISH", "match_key": "GOODFISH", "multi_direction": false, "position_from": "label", "snap_km": 11.9, "snapped": true}}, {"type": "Feature", "geometry": {"type": "Point", "coordinates": [-114.74290244490803, 56.6034472462104]}, "properties": {"name": "WOODENHOUSE", "match_key": "WOODENHOUSE", "multi_direction": false, "position_from": "marker", "snap_km": 26.19, "snapped": false}}, {"type": "Feature", "geometry": {"type": "Point", "coordinates": [-120.9126650800877, 56.51942002033206]}, "properties": {"name": "ALCES RIVER", "match_key": "ALCESRIVER", "multi_direction": true, "position_from": "marker", "snap_km": 59.56, "snapped": false}}, {"type": "Feature", "geometry": {"type": "Point", "coordinates": [-113.381818533447, 56.574947941605394]}, "properties": {"name": "BUFFALO CREEK NORTH", "match_key": "BUFFALOCREEKNORTH", "multi_direction": false, "position_from": "marker", "snap_km": 3.48, "snapped": true}}, {"type": "Feature", "geometry": {"type": "Point", "coordinates": [-113.39518467864957, 56.51671786837492]}, "properties": {"name": "BUFFALO CREEK", "match_key": "BUFFALOCREEK", "multi_direction": false, "position_from": "marker", "snap_km": 0.68, "snapped": true}}, {"type": "Feature", "geometry": {"type": "Point", "coordinates": [-112.4281863492614, 56.04130983451161]}, "properties": {"name": "LEISMER EAST", "match_key": "LEISMEREAST", "multi_direction": false, "position_from": "marker", "snap_km": 6.69, "snapped": true}}, {"type": "Feature", "geometry": {"type": "Point", "coordinates": [-119.93353428322885, 55.95089444943096]}, "properties": {"name": "SADDLE HILLS", "match_key": "SADDLEHILLS", "multi_direction": true, "position_from": "marker", "snap_km": 17.56, "snapped": true}}, {"type": "Feature", "geometry": {"type": "Point", "coordinates": [-114.37547463231523, 55.6948304332515]}, "properties": {"name": "PAUL LAKE", "match_key": "PAULLAKE", "multi_direction": true, "position_from": "marker", "snap_km": 19.37, "snapped": true}}, {"type": "Feature", "geometry": {"type": "Point", "coordinates": [-112.97397645961482, 55.15197033786308]}, "properties": {"name": "RIVER", "match_key": "RIVER", "multi_direction": true, "position_from": "marker", "snap_km": 15.56, "snapped": true}}, {"type": "Feature", "geometry": {"type": "Point", "coordinates": [-120.62024418095412, 55.24249054786678]}, "properties": {"name": "PIPESTONE CREEK", "match_key": "PIPESTONECREEK", "multi_direction": false, "position_from": "marker", "snap_km": 42.06, "snapped": false}}, {"type": "Feature", "geometry": {"type": "Point", "coordinates": [-111.73256108039885, 55.3844571608317]}, "properties": {"name": "BEHAN", "match_key": "BEHAN", "multi_direction": true, "position_from": "marker", "snap_km": 11.25, "snapped": true}}, {"type": "Feature", "geometry": {"type": "Point", "coordinates": [-114.46419491462744, 55.04121349103182]}, "properties": {"name": "SLAVE LAKE", "match_key": "SLAVELAKE", "multi_direction": false, "position_from": "marker", "snap_km": 4.23, "snapped": true}}, {"type": "Feature", "geometry": {"type": "Point", "coordinates": [-112.10133549771575, 54.743168873220164]}, "properties": {"name": "FIELD LAKE", "match_key": "FIELDLAKE", "multi_direction": true, "position_from": "marker", "snap_km": 11.32, "snapped": true}}, {"type": "Feature", "geometry": {"type": "Point", "coordinates": [-118.77199898158925, 54.85881836373283]}, "properties": {"name": "GOLD CREEK", "match_key": "GOLDCREEK", "multi_direction": false, "position_from": "marker", "snap_km": 5.69, "snapped": true}}, {"type": "Feature", "geometry": {"type": "Point", "coordinates": [-112.93089934583762, 54.72178333982189]}, "properties": {"name": "AMBER VALLEY", "match_key": "AMBERVALLEY", "multi_direction": false, "position_from": "marker", "snap_km": 1.82, "snapped": true}}, {"type": "Feature", "geometry": {"type": "Point", "coordinates": [-118.2730451328868, 54.6292232885569]}, "properties": {"name": "LATORNELL", "match_key": "LATORNELL", "multi_direction": false, "position_from": "marker", "snap_km": 12.99, "snapped": true}}, {"type": "Feature", "geometry": {"type": "Point", "coordinates": [-114.01625906684214, 54.487973035360746]}, "properties": {"name": "HANMORE LAKE", "match_key": "HANMORELAKE", "multi_direction": true, "position_from": "marker", "snap_km": 4.21, "snapped": true}}, {"type": "Feature", "geometry": {"type": "Point", "coordinates": [-115.16749322804239, 54.470603593357]}, "properties": {"name": "NOEL LAKE", "match_key": "NOELLAKE", "multi_direction": false, "position_from": "marker", "snap_km": 10.05, "snapped": true}}, {"type": "Feature", "geometry": {"type": "Point", "coordinates": [-117.2102507744969, 54.258792982362976]}, "properties": {"name": "FOX CREEK", "match_key": "FOXCREEK", "multi_direction": false, "position_from": "marker", "snap_km": 15.85, "snapped": true}}, {"type": "Feature", "geometry": {"type": "Point", "coordinates": [-111.29947684941318, 54.35618098980764]}, "properties": {"name": "DENNING LAKE NO.2", "match_key": "DENNINGLAKENO", "multi_direction": false, "position_from": "marker", "snap_km": 4.71, "snapped": true}}, {"type": "Feature", "geometry": {"type": "Point", "coordinates": [-111.45146931126656, 54.14264159343139]}, "properties": {"name": "SNIPE HILLS", "match_key": "SNIPEHILLS", "multi_direction": false, "position_from": "marker", "snap_km": 4.93, "snapped": true}}, {"type": "Feature", "geometry": {"type": "Point", "coordinates": [-112.69221401822944, 54.11556215433789]}, "properties": {"name": "SMOKY LAKE", "match_key": "SMOKYLAKE", "multi_direction": true, "position_from": "marker", "snap_km": 3.99, "snapped": true}}, {"type": "Feature", "geometry": {"type": "Point", "coordinates": [-117.49845329083624, 54.079187807204114]}, "properties": {"name": "BERLAND RIVER", "match_key": "BERLANDRIVER", "multi_direction": false, "position_from": "marker", "snap_km": 4.49, "snapped": true}}, {"type": "Feature", "geometry": {"type": "Point", "coordinates": [-116.57053178954521, 53.988798306762774]}, "properties": {"name": "KNIGHT", "match_key": "KNIGHT", "multi_direction": false, "position_from": "marker", "snap_km": 2.38, "snapped": true}}, {"type": "Feature", "geometry": {"type": "Point", "coordinates": [-117.11653943266953, 53.88929262479517]}, "properties": {"name": "EMERSON CREEK", "match_key": "EMERSONCREEK", "multi_direction": false, "position_from": "marker", "snap_km": 4.31, "snapped": true}}, {"type": "Feature", "geometry": {"type": "Point", "coordinates": [-116.0560371878184, 53.744534308543685]}, "properties": {"name": "PIONEER YELLOWHEAD", "match_key": "PIONEERYELLOWHEAD", "multi_direction": false, "position_from": "marker", "snap_km": 1.38, "snapped": true}}, {"type": "Feature", "geometry": {"type": "Point", "coordinates": [-112.03077735155327, 53.66476324611788]}, "properties": {"name": "BENS LAKE", "match_key": "BENSLAKE", "multi_direction": true, "position_from": "marker", "snap_km": 2.24, "snapped": true}}, {"type": "Feature", "geometry": {"type": "Point", "coordinates": [-115.9276927546618, 53.6529617866172]}, "properties": {"name": "PEERS", "match_key": "PEERS", "multi_direction": false, "position_from": "marker", "snap_km": 0.91, "snapped": true}}, {"type": "Feature", "geometry": {"type": "Point", "coordinates": [-113.0033792655115, 53.64058119681676]}, "properties": {"name": "CLOVERBAR", "match_key": "CLOVERBAR", "multi_direction": false, "position_from": "marker", "snap_km": 35.12, "snapped": false}}, {"type": "Feature", "geometry": {"type": "Point", "coordinates": [-117.13998033450775, 53.371463596850056]}, "properties": {"name": "SWARTZCREEK", "match_key": "SWARTZCREEK", "multi_direction": false, "position_from": "label", "snap_km": 26.54, "snapped": false}}, {"type": "Feature", "geometry": {"type": "Point", "coordinates": [-111.24242604172629, 53.33784638900701]}, "properties": {"name": "VERMILION", "match_key": "VERMILION", "multi_direction": false, "position_from": "marker", "snap_km": 16.08, "snapped": true}}, {"type": "Feature", "geometry": {"type": "Point", "coordinates": [-112.31997647354231, 53.15920533855714]}, "properties": {"name": "THOMAS LAKE", "match_key": "THOMASLAKE", "multi_direction": true, "position_from": "label", "snap_km": 16.18, "snapped": true}}, {"type": "Feature", "geometry": {"type": "Point", "coordinates": [-112.18629348239716, 53.013175709498704]}, "properties": {"name": "DUSTY LAKE", "match_key": "DUSTYLAKE", "multi_direction": false, "position_from": "marker", "snap_km": 4.69, "snapped": true}}, {"type": "Feature", "geometry": {"type": "Point", "coordinates": [-115.93873943244904, 52.965037508427926]}, "properties": {"name": "LODGEPOLE", "match_key": "LODGEPOLE", "multi_direction": false, "position_from": "marker", "snap_km": 0.65, "snapped": true}}, {"type": "Feature", "geometry": {"type": "Point", "coordinates": [-111.27116178721107, 52.75028294712111]}, "properties": {"name": "WAINWRIGHT", "match_key": "WAINWRIGHT", "multi_direction": false, "position_from": "marker", "snap_km": 6.78, "snapped": true}}, {"type": "Feature", "geometry": {"type": "Point", "coordinates": [-115.71421845930819, 52.731617056387016]}, "properties": {"name": "NORDEGG", "match_key": "NORDEGG", "multi_direction": false, "position_from": "marker", "snap_km": 1.15, "snapped": true}}, {"type": "Feature", "geometry": {"type": "Point", "coordinates": [-112.23399762269749, 52.44908598797281]}, "properties": {"name": "GADSBY", "match_key": "GADSBY", "multi_direction": true, "position_from": "marker", "snap_km": 6.67, "snapped": true}}, {"type": "Feature", "geometry": {"type": "Point", "coordinates": [-115.31200184931001, 52.41539180596284]}, "properties": {"name": "VETCHLAND", "match_key": "VETCHLAND", "multi_direction": false, "position_from": "marker", "snap_km": 4.02, "snapped": true}}, {"type": "Feature", "geometry": {"type": "Point", "coordinates": [-115.62801338215903, 51.990924823573295]}, "properties": {"name": "CLEARWATER", "match_key": "CLEARWATER", "multi_direction": false, "position_from": "label", "snap_km": 27.51, "snapped": false}}, {"type": "Feature", "geometry": {"type": "Point", "coordinates": [-112.06512182479064, 51.926444948885944]}, "properties": {"name": "FARRELL LAKE", "match_key": "FARRELLLAKE", "multi_direction": true, "position_from": "marker", "snap_km": 6.71, "snapped": true}}, {"type": "Feature", "geometry": {"type": "Point", "coordinates": [-114.36463681625504, 51.684864433414496]}, "properties": {"name": "TORRINGTON", "match_key": "TORRINGTON", "multi_direction": true, "position_from": "marker", "snap_km": 5.26, "snapped": true}}, {"type": "Feature", "geometry": {"type": "Point", "coordinates": [-114.40188320009548, 51.526366568704496]}, "properties": {"name": "DIDSBURY", "match_key": "DIDSBURY", "multi_direction": false, "position_from": "marker", "snap_km": 0.25, "snapped": true}}, {"type": "Feature", "geometry": {"type": "Point", "coordinates": [-114.52530456761949, 51.44356495351618]}, "properties": {"name": "WINCHELL LAKE", "match_key": "WINCHELLLAKE", "multi_direction": false, "position_from": "marker", "snap_km": 6.38, "snapped": true}}, {"type": "Feature", "geometry": {"type": "Point", "coordinates": [-113.58268360762644, 51.38767633007308]}, "properties": {"name": "ENTIC ENOR", "match_key": "ENTICENOR", "multi_direction": false, "position_from": "marker", "snap_km": 3.51, "snapped": true}}, {"type": "Feature", "geometry": {"type": "Point", "coordinates": [-111.62485650200853, 51.364555313856265]}, "properties": {"name": "OAKLAND", "match_key": "OAKLAND", "multi_direction": true, "position_from": "marker", "snap_km": 2.83, "snapped": true}}, {"type": "Feature", "geometry": {"type": "Point", "coordinates": [-113.82560403032534, 51.46176416477287]}, "properties": {"name": "ACME No.363", "match_key": "ACMENO", "multi_direction": false, "position_from": "marker", "snap_km": 7.72, "snapped": true}}, {"type": "Feature", "geometry": {"type": "Point", "coordinates": [-113.29065390231372, 51.29397295211948]}, "properties": {"name": "GAYFORD BEISEKER", "match_key": "GAYFORDBEISEKER", "multi_direction": false, "position_from": "marker", "snap_km": 2.9, "snapped": true}}, {"type": "Feature", "geometry": {"type": "Point", "coordinates": [-112.58235673032297, 51.080192298089074]}, "properties": {"name": "HUSSAR", "match_key": "HUSSAR", "multi_direction": false, "position_from": "marker", "snap_km": 3.46, "snapped": true}}, {"type": "Feature", "geometry": {"type": "Point", "coordinates": [-110.63283391636774, 50.898929116867606]}, "properties": {"name": "RED DEER BIN D L RIVER O", "match_key": "REDDEERBINDLRIVERO", "multi_direction": false, "position_from": "label", "snap_km": 23.28, "snapped": true}}, {"type": "Feature", "geometry": {"type": "Point", "coordinates": [-112.73208007410035, 50.83930620762194]}, "properties": {"name": "No.365", "match_key": "NO", "multi_direction": false, "position_from": "label", "snap_km": 12.81, "snapped": true}}, {"type": "Feature", "geometry": {"type": "Point", "coordinates": [-111.7581974539258, 50.67509098943914]}, "properties": {"name": "BA NTRY PRINCESS", "match_key": "BANTRYPRINCESS", "multi_direction": false, "position_from": "marker", "snap_km": 2.26, "snapped": true}}, {"type": "Feature", "geometry": {"type": "Point", "coordinates": [-110.02197855875409, 50.660074469168784]}, "properties": {"name": "B URS TALL", "match_key": "BURSTALL", "multi_direction": false, "position_from": "label", "snap_km": 2.74, "snapped": true}}, {"type": "Feature", "geometry": {"type": "Point", "coordinates": [-109.01482395433084, 50.601903193229084]}, "properties": {"name": "CABRI", "match_key": "CABRI", "multi_direction": false, "position_from": "label", "snap_km": 71.1, "snapped": false}}, {"type": "Feature", "geometry": {"type": "Point", "coordinates": [-114.32739480723991, 50.693069099108975]}, "properties": {"name": "TURNER VALLEY", "match_key": "TURNERVALLEY", "multi_direction": false, "position_from": "marker", "snap_km": 4.14, "snapped": true}}, {"type": "Feature", "geometry": {"type": "Point", "coordinates": [-114.32738785033918, 50.693051493797675]}, "properties": {"name": "MAZEPPA", "match_key": "MAZEPPA", "multi_direction": false, "position_from": "marker", "snap_km": 4.3, "snapped": true}}, {"type": "Feature", "geometry": {"type": "Point", "coordinates": [-110.02070938277467, 50.660481181154104]}, "properties": {"name": "RICHMOUND No.391", "match_key": "RICHMOUNDNO", "multi_direction": false, "position_from": "marker", "snap_km": 16.82, "snapped": true}}, {"type": "Feature", "geometry": {"type": "Point", "coordinates": [-111.28618343853444, 50.45838859136839]}, "properties": {"name": "JENNER No.367", "match_key": "JENNERNO", "multi_direction": false, "position_from": "marker", "snap_km": 0.97, "snapped": true}}, {"type": "Feature", "geometry": {"type": "Point", "coordinates": [-111.10910969015255, 50.09907326257195]}, "properties": {"name": "WEST MEDICINE HAT", "match_key": "WESTMEDICINEHAT", "multi_direction": false, "position_from": "marker", "snap_km": 5.21, "snapped": true}}, {"type": "Feature", "geometry": {"type": "Point", "coordinates": [-109.11971394443556, 49.98123750819892]}, "properties": {"name": "PIAPOT No.392", "match_key": "PIAPOTNO", "multi_direction": false, "position_from": "marker", "snap_km": 72.9, "snapped": false}}, {"type": "Feature", "geometry": {"type": "Point", "coordinates": [-114.13679978780488, 49.98959605779005]}, "properties": {"name": "BURTON CREEK", "match_key": "BURTONCREEK", "multi_direction": false, "position_from": "marker", "snap_km": 0.31, "snapped": true}}, {"type": "Feature", "geometry": {"type": "Point", "coordinates": [-113.06659614169924, 49.78628288751824]}, "properties": {"name": "MONARCH", "match_key": "MONARCH", "multi_direction": false, "position_from": "marker", "snap_km": 4.32, "snapped": true}}, {"type": "Feature", "geometry": {"type": "Point", "coordinates": [-113.27271892924674, 49.67262778181695]}, "properties": {"name": "ORTON", "match_key": "ORTON", "multi_direction": false, "position_from": "marker", "snap_km": 16.38, "snapped": true}}, {"type": "Feature", "geometry": {"type": "Point", "coordinates": [-115.28741345914153, 49.7769457161078]}, "properties": {"name": "CROWSNEST No.1", "match_key": "CROWSNESTNO", "multi_direction": false, "position_from": "label", "snap_km": 47.24, "snapped": false}}, {"type": "Feature", "geometry": {"type": "Point", "coordinates": [-114.108102386884, 49.365681759151386]}, "properties": {"name": "DRYWOOD", "match_key": "DRYWOOD", "multi_direction": false, "position_from": "marker", "snap_km": 4.99, "snapped": true}}, {"type": "Feature", "geometry": {"type": "Point", "coordinates": [-115.9402088178604, 49.28409368815193]}, "properties": {"name": "MOYIE No.2B", "match_key": "MOYIENOB", "multi_direction": false, "position_from": "marker", "snap_km": 100.59, "snapped": false}}, {"type": "Feature", "geometry": {"type": "Point", "coordinates": [-115.56313714460204, 49.31229309811148]}, "properties": {"name": "ELKO No.2A", "match_key": "ELKONOA", "multi_direction": false, "position_from": "marker", "snap_km": 74.68, "snapped": false}}, {"type": "Feature", "geometry": {"type": "Point", "coordinates": [-116.31698977610046, 49.046780419645266]}, "properties": {"name": "EASTPORT", "match_key": "EASTPORT", "multi_direction": false, "position_from": "marker", "snap_km": 137.01, "snapped": false}}]}